{"type":"FeatureCollection","features":[{"type":"Feature","geometry":{"type":"LineString","coordinates":[[25.6215018,45.6503887],[25.6215218,45.6504934],[25.6215683,45.6509213]]},"properties":{"highway":"residential","lanes":"3","lanes:backward":"2","lanes:forward":"1","maxspeed":"RO:urban","maxweight":"3.5","name":"Strada Ion Luca Caragiale","smoothness":"excellent","surface":"asphalt","surface_survey":"2022MAY_","turn:lanes:backward":"left|through;right"}},{"type":"Feature","geometry":{"type":"LineString","coordinates":[[25.6131166,45.6599113],[25.6131398,45.659797],[25.6131607,45.6596834],[25.6131701,45.6595752],[25.6130714,45.6590487]]},"properties":{"access:lanes":"yes|yes|no","bus:lanes":"yes|yes|designated","hgv":"no","highway":"secondary","lanes":"3","lanes:bus":"1","lit":"yes","maxspeed":"40","name":"Bulevardul Victoriei","oneway":"yes","sidewalk":"right","surface":"asphalt"}},{"type":"Feature","geometry":{"type":"LineString","coordinates":[[25.6586105,45.6128839],[25.6585499,45.612865],[25.6584946,45.6128556],[25.658435,45.6128537],[25.6583726,45.6128711],[25.6583304,45.6128984],[25.6582922,45.6129432],[25.6582578,45.6130037],[25.6581807,45.6131887],[25.6580473,45.6135258],[25.6580276,45.6136138],[25.6580226,45.6136926],[25.6580318,45.6137484],[25.658064,45.6138357],[25.6580964,45.6138785],[25.6581559,45.6139323]]},"properties":{"highway":"primary","lanes":"1","maxheight":"4.5","maxspeed":"40","name":"Strada Timișul Sec","nat_ref":"DN1A","oneway":"yes","ref":"DN1A","smoothness":"excellent","surface":"asphalt","surface_survey":"2017JAN_RRQM sync"}},{"type":"Feature","geometry":{"type":"LineString","coordinates":[[25.5779164,45.6632779],[25.5779868,45.663226],[25.5780198,45.6631878],[25.5780478,45.6631378]]},"properties":{"access:lanes":"yes|yes|no","bus:lanes":"yes|yes|designated","destination":"Poiana Brașov;Centru;București;Bacău;Buzău","foot":"no","hgv":"no","highway":"secondary","lanes":"3","lanes:bus":"1","lit":"yes","maxspeed":"40","name":"Strada Lungă","name:de":"Langgasse","name:hu":"Hosszú utca","oneway":"yes","smoothness":"excellent","surface":"asphalt","surface_survey":"2022MAY_"}},{"type":"Feature","geometry":{"type":"LineString","coordinates":[[25.605504,45.6550517],[25.6056744,45.6555365]]},"properties":{"cycleway:both":"lane","foot":"no","hgv":"no","highway":"secondary","lanes":"4","maxspeed":"RO:urban","name":"Strada 13 Decembrie","ref":"DJ103","smoothness":"excellent","surface":"asphalt","surface_survey":"2023MAY_","trolley_wire":"yes"}},{"type":"Feature","geometry":{"type":"LineString","coordinates":[[25.5872035,45.6529742],[25.5871622,45.6532189],[25.5871096,45.6534212],[25.5870657,45.6535676],[25.5870203,45.6537057],[25.5868885,45.6540111],[25.5868428,45.6541018],[25.586819,45.6541491],[25.5867448,45.6542929],[25.5866429,45.6544557],[25.5862512,45.6549487],[25.5858326,45.6554756],[25.5857897,45.6555296],[25.5857147,45.6556168],[25.585381,45.6560459],[25.5851313,45.6563824],[25.5849109,45.6566936],[25.5846666,45.657054],[25.5844969,45.6573126]]},"properties":{"cycleway:right":"lane","hgv":"no","highway":"secondary","lanes":"3","maxspeed":"50","name":"Strada De Mijloc","name:de":"Mittelgasse","name:hu":"Közép utca","oneway":"yes","smoothness":"excellent","surface":"asphalt","surface_survey":"2022MAY_"}},{"type":"Feature","geometry":{"type":"LineString","coordinates":[[25.5861701,45.6438047],[25.5851459,45.6456654],[25.5849977,45.6458764],[25.5848566,45.6460608],[25.5847697,45.6461717],[25.5846692,45.6462736],[25.5845028,45.6464314],[25.5843392,45.6465702],[25.584173,45.6467058],[25.583965,45.6468487],[25.5837545,45.6469765],[25.5837075,45.6469987],[25.5836349,45.6470413],[25.5835622,45.647084],[25.583234,45.6472878],[25.5830329,45.6474046],[25.5829156,45.647498],[25.582829,45.6475936],[25.5827942,45.6476474],[25.58277,45.6477107],[25.5827567,45.6477684],[25.582766,45.6478279],[25.5827862,45.6478874],[25.5828196,45.6479357],[25.5828713,45.6479868],[25.5829383,45.6480313],[25.5830367,45.6480744],[25.5831303,45.6480961],[25.5832371,45.6481069],[25.5833347,45.6481021],[25.5834487,45.6480787],[25.5836031,45.6480342],[25.583841,45.647949]]},"properties":{"highway":"primary","lanes":"2","maxspeed":"50","maxweight":"3.5","name":"Calea Poienii","old_ref":"DJ101H","ref":"DN1E","smoothness":"good","surface":"asphalt","surface_survey":"2022MAY_"}},{"type":"Feature","geometry":{"type":"LineString","coordinates":[[25.5885385,45.6576419],[25.588502,45.6576335],[25.5884698,45.6576293],[25.5884101,45.6576256],[25.5883618,45.6576265],[25.588286,45.657633],[25.5882102,45.6576454]]},"properties":{"hgv":"no","highway":"tertiary","lanes":"2","lit":"yes","maxspeed":"30","name":"Strada Avram Iancu","oneway":"yes","sidewalk":"right","surface":"asphalt"}},{"type":"Feature","geometry":{"type":"LineString","coordinates":[[25.5975384,45.6433213],[25.5974815,45.6432764],[25.5974315,45.6432311],[25.5971125,45.6429701],[25.5970326,45.6428968],[25.5967348,45.6426281],[25.5966575,45.6425711],[25.5965512,45.6424993],[25.5964037,45.6424194],[25.5962816,45.6423716],[25.5955705,45.6421312],[25.5947692,45.6418603],[25.5936479,45.6414422],[25.5934705,45.6413704],[25.5932932,45.6412848]]},"properties":{"hgv":"no","highway":"residential","lanes":"2","maxspeed":"30","name":"Strada Castelului","name:de":"Burggasse","name:hu":"Vár utca","oneway":"yes","smoothness":"excellent","surface":"asphalt","surface_survey":"2022MAY_"}},{"type":"Feature","geometry":{"type":"LineString","coordinates":[[25.5897898,45.6406219],[25.5900819,45.6406796],[25.5905025,45.6408056],[25.5906569,45.6408776],[25.5907993,45.6409741],[25.590896,45.6410777],[25.5910359,45.6412959],[25.5910468,45.6413215],[25.5910666,45.6413662]]},"properties":{"hgv":"no","highway":"tertiary","lanes":"1","lit":"yes","maxspeed":"30","name":"Strada Grigoraș Dinicu","name:de":"Untere Gabelgasse","name:hu":"Alsóvilla utca","oneway":"yes","smoothness":"excellent","surface":"asphalt","surface_survey":"2022MAY_"}},{"type":"Feature","geometry":{"type":"LineString","coordinates":[[25.6581481,45.6136798],[25.6580715,45.6137203],[25.6568802,45.6143423],[25.6564441,45.6145717]]},"properties":{"access":"yes","bridge":"yes","destination":"Centru;Poiana Brașov","highway":"primary","lanes":"2","layer":"1","maxspeed":"60","maxweight":"3.5","name":"Calea București","nat_ref":"DN1","oneway":"yes","ref":"DN1","smoothness":"excellent","surface":"asphalt"}},{"type":"Feature","geometry":{"type":"LineString","coordinates":[[25.6358107,45.6682628],[25.6360375,45.6683832],[25.6363098,45.6684938],[25.6369594,45.6687287],[25.637169,45.6688156],[25.6372844,45.6688735]]},"properties":{"change":"yes","embankment":"yes","foot":"no","highway":"primary","lanes":"4","maxspeed":"50","maxweight":"3.5","name":"Strada Hărmanului","nat_ref":"DN11","overtaking":"no","ref":"DN11","smoothness":"excellent","surface":"asphalt","surface_survey":"2022MAY_","trolley_wire":"yes","turn:lanes:forward":"left;through|through"}},{"type":"Feature","geometry":{"type":"LineString","coordinates":[[25.5916207,45.6671732],[25.5917113,45.6671877],[25.5917971,45.6672139],[25.5918802,45.6672411],[25.5920318,45.6673039],[25.5921391,45.667361],[25.5922289,45.6674276],[25.592296,45.6674904],[25.5923443,45.6675513],[25.5923912,45.6676178],[25.592422,45.6676881],[25.5924489,45.6677697],[25.5924623,45.6678512],[25.5924596,45.6679271],[25.5924488,45.6679946],[25.5924274,45.6680742],[25.5923934,45.6681418],[25.5923731,45.6681759],[25.5923476,45.6682064],[25.592296,45.6682692],[25.5921096,45.6684735],[25.5918182,45.6687989]]},"properties":{"highway":"primary_link","is_in:city":"Brașov","lanes":"2","lit":"yes","maxheight":"4.8","maxspeed":"50","sidewalk":"no","surface":"asphalt"}},{"type":"Feature","geometry":{"type":"LineString","coordinates":[[25.5906334,45.6702999],[25.5905781,45.670059],[25.5904435,45.6695784],[25.590406,45.6694438],[25.5903862,45.6693472],[25.5903723,45.6692557],[25.5903698,45.6691708],[25.5903711,45.6691107],[25.5903822,45.6690235]]},"properties":{"highway":"primary_link","lanes":"2","maxspeed":"RO:urban","maxweight":"3.5","name":"Strada Grigore Ureche","oneway":"yes"}},{"type":"Feature","geometry":{"type":"LineString","coordinates":[[25.5683603,45.6600072],[25.5679218,45.6598765],[25.5677169,45.659819]]},"properties":{"highway":"tertiary","int_ref":"E 574","lanes":"2","maxspeed":"40","maxweight":"3.5","name":"Șoseaua Cristianului","oneway":"yes","smoothness":"excellent","surface":"asphalt","surface_survey":"2022MAY_"}},{"type":"Feature","geometry":{"type":"LineString","coordinates":[[25.5654583,45.6589784],[25.5655501,45.6590638],[25.5656439,45.6591164],[25.5660903,45.6592597],[25.5671175,45.6595873],[25.5679653,45.6598082]]},"properties":{"highway":"tertiary","int_ref":"E 574","lanes":"2","maxspeed":"40","maxweight":"3.5","name":"Șoseaua Cristianului","oneway":"yes","smoothness":"excellent","surface":"asphalt","surface_survey":"2022MAY_"}},{"type":"Feature","geometry":{"type":"LineString","coordinates":[[25.6185781,45.636877],[25.6183161,45.6374269],[25.6182981,45.6374647],[25.6180867,45.6379163],[25.6179635,45.6381495],[25.6176636,45.6387535],[25.6176484,45.6387867],[25.6174105,45.6393079],[25.6172815,45.6395242],[25.6172544,45.6395697]]},"properties":{"highway":"residential","is_in:city":"Brașov","maxspeed":"RO:urban","maxweight":"3.5","name":"Strada Temeliei","surface":"asphalt"}},{"type":"Feature","geometry":{"type":"LineString","coordinates":[[25.5923933,45.6592627],[25.5925225,45.6593014],[25.5925714,45.6593152],[25.5930244,45.6594427],[25.5935189,45.6595753],[25.5938255,45.6596575],[25.5940665,45.6597244],[25.5944721,45.6598352]]},"properties":{"foot":"no","hgv":"no","highway":"tertiary","lanes":"4","maxspeed":"50","name":"Strada Plevnei","surface":"asphalt"}},{"type":"Feature","geometry":{"type":"LineString","coordinates":[[25.5923933,45.6592627],[25.5922962,45.6593357],[25.5922276,45.6593865],[25.5918758,45.6596466]]},"properties":{"hgv":"no","highway":"tertiary","is_in:city":"Brașov","lanes":"4","maxspeed":"50","name":"Strada Mihai Viteazul","smoothness":"good","surface":"asphalt","surface_survey":"2023MAY_"}},{"type":"Feature","geometry":{"type":"LineString","coordinates":[[25.6004379,45.6568564],[25.6007771,45.6565906]]},"properties":{"highway":"residential","is_in:city":"Brașov","maxspeed":"RO:urban","maxweight":"3.5","name":"Strada Pictor Ștefan Luchian","surface":"asphalt"}},{"type":"Feature","geometry":{"type":"LineString","coordinates":[[25.6135981,45.6601546],[25.6136888,45.6602337],[25.6137253,45.6603082],[25.6137647,45.6604184],[25.6138079,45.660537]]},"properties":{"highway":"service","lanes":"4","maxspeed":"30","maxweight":"1.5","oneway":"yes","surface":"asphalt"}},{"type":"Feature","geometry":{"type":"LineString","coordinates":[[25.5905236,45.6536552],[25.5904332,45.6537232],[25.590355,45.6537974],[25.5900124,45.6542186],[25.5899869,45.6542545]]},"properties":{"highway":"residential","is_in:city":"Brașov","maxspeed":"RO:urban","maxweight":"3.5","name":"Strada Doctor Ion Rațiu","surface":"asphalt"}},{"type":"Feature","geometry":{"type":"LineString","coordinates":[[25.6027098,45.6425716],[25.6024396,45.6425786],[25.6020485,45.6425859],[25.6018613,45.6426063],[25.6016772,45.6426394],[25.6011937,45.6427683],[25.6008833,45.6428304],[25.6006864,45.6428607],[25.6004986,45.6428803]]},"properties":{"highway":"tertiary","lanes":"2","maxspeed":"30","maxweight":"3.5","name":"Strada Constantin Dobrogeanu Gherea","smoothness":"good","surface":"asphalt","surface_survey":"2022MAY_"}},{"type":"Feature","geometry":{"type":"LineString","coordinates":[[25.589269,45.6568831],[25.589363,45.6569177],[25.590692,45.6576501],[25.5913775,45.6580362],[25.5914257,45.6580604],[25.5918585,45.6582064],[25.5919047,45.6582234],[25.592909,45.6585932],[25.5929584,45.6586197]]},"properties":{"highway":"residential","maxspeed":"50","maxweight":"3.5","name":"Strada Nicopole","oneway":"yes","surface":"asphalt"}},{"type":"Feature","geometry":{"type":"LineString","coordinates":[[25.5946011,45.6598704],[25.5948231,45.659932],[25.5949138,45.6599571]]},"properties":{"cycleway:both":"lane","foot":"no","hgv":"no","highway":"tertiary","lanes":"4","maxspeed":"40","name":"Strada Plevnei","surface":"asphalt","turn:lanes:forward":"left;through|through;right"}},{"type":"Feature","geometry":{"type":"LineString","coordinates":[[25.6380155,45.6491212],[25.6358789,45.6492337],[25.6330938,45.6493577],[25.6315049,45.6494235]]},"properties":{"bridge":"viaduct","hgv":"permit","highway":"secondary","lanes":"2","layer":"2","maxspeed":"50","maxweight":"3.5","name":"Strada Zizinului","ref":"DJ103A","sidewalk":"both","smoothness":"excellent","surface":"asphalt","surface_survey":"2022MAY_"}},{"type":"Feature","geometry":{"type":"LineString","coordinates":[[25.6356913,45.6657597],[25.635773,45.6656653],[25.6365422,45.6648485]]},"properties":{"hgv":"yes","highway":"primary","lanes":"2","maxspeed":"30","maxweight":"3.5","name":"Strada Timișul Sec","smoothness":"intermediate","surface":"asphalt","surface_survey":"17JAN2010_owene"}},{"type":"Feature","geometry":{"type":"LineString","coordinates":[[25.6078828,45.6616904],[25.6077922,45.6617042],[25.6076427,45.661727],[25.6073492,45.6617626],[25.6072487,45.6617717],[25.6058614,45.6618723],[25.6045054,45.6619792],[25.6040085,45.6620049],[25.6038568,45.6620151],[25.6034158,45.6620441],[25.6014274,45.6621917],[25.6013253,45.6621984],[25.6004373,45.6622571],[25.5993209,45.6623342],[25.5988714,45.6623712],[25.5979906,45.662441],[25.5972376,45.6624941],[25.5971232,45.6625022],[25.5969838,45.662513],[25.5960243,45.6625849],[25.5959296,45.6625913],[25.5955407,45.662616],[25.5950818,45.6626432],[25.5949732,45.6626504],[25.5934689,45.6627756],[25.5933999,45.6627828],[25.5932816,45.6627951]]},"properties":{"highway":"residential","lanes":"2","maxspeed":"30","maxweight":"3.5","name":"Strada Codrii Cosminului","surface":"asphalt"}},{"type":"Feature","geometry":{"type":"LineString","coordinates":[[25.5971232,45.6625022],[25.5971357,45.6625797],[25.5971397,45.6626064],[25.5974213,45.6642998]]},"properties":{"highway":"residential","lanes":"2","maxspeed":"RO:urban","maxweight":"3.5","name":"Strada Albă","surface":"asphalt"}},{"type":"Feature","geometry":{"type":"LineString","coordinates":[[25.585958,45.6597275],[25.5858357,45.6597125],[25.5850628,45.6596633],[25.5845224,45.6596208],[25.5832188,45.6594835],[25.5831585,45.6594768],[25.5830127,45.6594768]]},"properties":{"highway":"residential","maxspeed":"RO:urban","maxweight":"3.5","name":"Strada Morii","oneway":"yes","surface":"asphalt"}},{"type":"Feature","geometry":{"type":"LineString","coordinates":[[25.5891473,45.6613885],[25.5892243,45.6614301],[25.5893029,45.6614653],[25.5893803,45.6614933],[25.5907691,45.6618743],[25.5915777,45.662088],[25.5923579,45.6622939],[25.592992,45.6624653],[25.5930385,45.6624783],[25.5931162,45.6624993]]},"properties":{"highway":"residential","is_in:city":"Brașov","lanes":"2","maxspeed":"30","maxweight":"3.5","name":"Strada Războieni","surface":"asphalt"}},{"type":"Feature","geometry":{"type":"LineString","coordinates":[[25.6244134,45.6557241],[25.6242664,45.6560096],[25.6242439,45.6560532],[25.624148,45.6562395],[25.6239475,45.6566288],[25.6238716,45.656776],[25.6237612,45.6569903],[25.6237382,45.6570351],[25.6237152,45.6570778],[25.623676,45.6571515],[25.6234536,45.6575705],[25.6234293,45.6576163],[25.6232451,45.6579631],[25.6231186,45.658217],[25.6231105,45.6582489],[25.6231153,45.6582878]]},"properties":{"highway":"residential","maxspeed":"RO:urban","maxweight":"3.5","name":"Strada Mărgăritarelor","surface":"asphalt"}},{"type":"Feature","geometry":{"type":"LineString","coordinates":[[25.6578746,45.6138078],[25.6578887,45.6137009],[25.6579032,45.6136472],[25.657926,45.613582],[25.6582537,45.6128276],[25.6582883,45.6127698],[25.65835,45.6126853],[25.65846,45.612554],[25.6586263,45.6123833],[25.6586733,45.6123267],[25.6587202,45.6122519],[25.6587435,45.6121922],[25.6587631,45.61213]]},"properties":{"highway":"trunk","int_ref":"E 60","lanes":"1","maxheight":"4.5","maxspeed":"50","name":"Strada Timișul Sec (Centura Brașovului)","nat_ref":"DN1K","oneway":"yes","ref":"DN1K","smoothness":"excellent","surface":"asphalt","surface_survey":"2017JAN_RRQM sync"}},{"type":"Feature","geometry":{"type":"LineString","coordinates":[[25.5660954,45.6707006],[25.5663808,45.6705193],[25.5666672,45.6703328],[25.5670426,45.6700891],[25.5677809,45.669631],[25.56791,45.6695509],[25.5681197,45.6694463],[25.5683726,45.6693523],[25.5688718,45.6691917],[25.5690246,45.6691435],[25.569185,45.6690915],[25.5693875,45.6690175],[25.5696118,45.6689202],[25.5697511,45.6688464],[25.5699141,45.6687501],[25.5700625,45.6686405],[25.5704233,45.6683411],[25.5707276,45.6680906],[25.5709954,45.6678625],[25.5711009,45.6677724],[25.5715594,45.6673839]]},"properties":{"highway":"secondary","lanes":"2","maxspeed":"50","maxweight":"3.5","name":"Strada Lânii","smoothness":"good","surface":"asphalt","surface_survey":"2022OCT_"}},{"type":"Feature","geometry":{"type":"LineString","coordinates":[[25.5768434,45.6665666],[25.5764202,45.6665871],[25.5761106,45.6666092],[25.5755789,45.666627],[25.5753844,45.6666382],[25.5752616,45.6666471],[25.5751414,45.6666612],[25.5749972,45.6666839],[25.5747583,45.6667275],[25.5741522,45.6668439],[25.5724913,45.6671727],[25.5719138,45.6672791],[25.571885,45.6672844]]},"properties":{"highway":"secondary","lanes":"2","maxspeed":"30","maxweight":"10","name":"Strada Gheorghe Doja","smoothness":"good","surface":"asphalt","surface_survey":"2022OCT_"}},{"type":"Feature","geometry":{"type":"LineString","coordinates":[[25.5666584,45.6646497],[25.5666886,45.6646628],[25.567035,45.664813],[25.5675243,45.6650252],[25.5680789,45.6652657],[25.568146,45.6652948],[25.5684611,45.6654314],[25.5686401,45.665509],[25.5692204,45.6657607],[25.5692792,45.6657862],[25.57053,45.6663285],[25.5705844,45.6663521],[25.5719488,45.6669437],[25.5720188,45.6669741]]},"properties":{"highway":"residential","lanes":"2","maxspeed":"RO:urban","maxweight":"3.5","name":"Strada Molnar Janos","surface":"asphalt"}},{"type":"Feature","geometry":{"type":"LineString","coordinates":[[25.5780049,45.6645575],[25.5780909,45.6640829],[25.5781093,45.6639856],[25.5781198,45.6639173],[25.5781272,45.6638751]]},"properties":{"highway":"secondary","lanes":"2","maxspeed":"50","maxweight":"10","name":"Strada Lungă","name:de":"Langgasse","name:hu":"Hosszú utca","smoothness":"intermediate","surface":"asphalt","surface_survey":"2022MAY_"}},{"type":"Feature","geometry":{"type":"LineString","coordinates":[[25.5776753,45.6669749],[25.5776875,45.6669974],[25.5778281,45.6672797],[25.5778798,45.6673835],[25.5780742,45.6677725],[25.5782667,45.6681643],[25.5783391,45.6683095],[25.5784006,45.6684516],[25.5784531,45.6685962],[25.5785024,45.6687413],[25.5785983,45.6690617],[25.5786854,45.6694078],[25.5789076,45.6702172],[25.579009,45.6705866],[25.5790274,45.6706523],[25.5791273,45.6710046],[25.5791444,45.6710649],[25.5791619,45.6711375],[25.5792776,45.6715264],[25.579393,45.6719448],[25.5795044,45.6723621],[25.5796051,45.6727993],[25.5796788,45.6731526],[25.5797703,45.6735908],[25.5797802,45.6736383],[25.5797874,45.6736735],[25.5798967,45.6742077],[25.5799085,45.6742626],[25.5801471,45.6753879],[25.5801861,45.6755541],[25.5802209,45.6757121],[25.580312,45.6761463],[25.5803429,45.6762935],[25.5805174,45.6770871],[25.5805903,45.6774402],[25.5808927,45.6789052],[25.581071,45.6797053],[25.5812907,45.6805997],[25.5814699,45.6813195],[25.5815629,45.6817278],[25.5816,45.6818905],[25.5816448,45.682087],[25.5816698,45.6821966],[25.5817059,45.6823551],[25.5817179,45.6824078],[25.5818078,45.6828022],[25.5819018,45.6832147]]},"properties":{"highway":"secondary","lanes":"2","maxspeed":"50","maxweight":"10","name":"Calea Feldioarei","surface":"asphalt"}},{"type":"Feature","geometry":{"type":"LineString","coordinates":[[25.5780049,45.6645575],[25.5779129,45.6650923]]},"properties":{"highway":"secondary","lanes":"2","maxspeed":"50","maxweight":"10","name":"Strada Lungă","name:de":"Langgasse","name:hu":"Hosszú utca","smoothness":"good","surface":"asphalt","surface_survey":"2022MAY_"}},{"type":"Feature","geometry":{"type":"LineString","coordinates":[[25.6226336,45.6488573],[25.6222379,45.6492395],[25.6219247,45.6495421],[25.621818,45.6496391],[25.621739,45.6497137]]},"properties":{"highway":"residential","lanes":"2","maxspeed":"RO:urban","maxweight":"3.5","name":"Strada Traian","surface":"asphalt"}},{"type":"Feature","geometry":{"type":"LineString","coordinates":[[25.5922953,45.6652711],[25.5923068,45.6651923],[25.5923133,45.6651577],[25.5923129,45.6651079],[25.5922964,45.6650629],[25.5922659,45.6650261],[25.5922323,45.665],[25.5921877,45.6649775],[25.5921275,45.6649585],[25.5920524,45.6649448],[25.5919632,45.6649436],[25.5918867,45.6649583],[25.5918302,45.664976],[25.5917724,45.6650082],[25.5917193,45.6650594]]},"properties":{"highway":"primary_link","lanes":"2","maxspeed":"RO:urban","maxweight":"3.5","oneway":"yes","sidewalk":"right","smoothness":"excellent","surface":"asphalt","surface_survey":"2022MAY_"}},{"type":"Feature","geometry":{"type":"LineString","coordinates":[[25.5764036,45.6629211],[25.5764657,45.6628278],[25.5768669,45.6624025],[25.5770083,45.6622525],[25.5771364,45.6621134],[25.5772696,45.6619509],[25.5773681,45.6617816],[25.5774204,45.661687],[25.5774594,45.6615957],[25.5774862,45.6614965],[25.5774942,45.6614011],[25.5774842,45.6613022],[25.5774567,45.6610965],[25.5774124,45.6608785],[25.5773289,45.6604531],[25.5773185,45.6603804],[25.577348,45.6601283],[25.5773507,45.6600898],[25.5773494,45.6600401],[25.5773427,45.6600045],[25.5773304,45.6599614],[25.577266,45.6598626],[25.5771187,45.6596258],[25.576962,45.6594175],[25.5767847,45.6592527],[25.5767566,45.6592202],[25.5767368,45.6591656],[25.5767296,45.6591219],[25.576728,45.6590859],[25.5767298,45.6590305],[25.5767928,45.6583614],[25.5768014,45.6582687],[25.5768236,45.6582161],[25.5769456,45.6580026],[25.5772178,45.6574469],[25.5772433,45.6574135],[25.5772817,45.6573523]]},"properties":{"highway":"residential","is_in:city":"Brașov","lane_markings":"no","maxspeed":"RO:urban","maxweight":"1.5","name":"Strada Pictor Ion Andreescu","smoothness":"bad","surface":"asphalt","surface_survey":"2022MAY_"}},{"type":"Feature","geometry":{"type":"LineString","coordinates":[[25.6415177,45.6155542],[25.6414697,45.6156283],[25.6414423,45.615668],[25.6410883,45.6160622],[25.6404951,45.6167229],[25.640445,45.6167797]]},"properties":{"highway":"residential","maxspeed":"RO:urban","maxweight":"3.5","name":"Strada Mesteacănului","oneway":"yes","source":"MAXAR","surface":"asphalt"}},{"type":"Feature","geometry":{"type":"LineString","coordinates":[[25.6412365,45.6171269],[25.6412945,45.6170678],[25.6424563,45.6157774],[25.6424765,45.6157458],[25.642512,45.6156736]]},"properties":{"highway":"residential","maxspeed":"RO:urban","maxweight":"3.5","name":"Strada Luceafărul","oneway":"yes","source":"MAXAR","surface":"asphalt"}},{"type":"Feature","geometry":{"type":"LineString","coordinates":[[25.643435,45.6159075],[25.6433738,45.6159705],[25.6433382,45.6160076],[25.6420508,45.617408],[25.641998,45.617461]]},"properties":{"highway":"residential","maxspeed":"RO:urban","maxweight":"3.5","name":"Strada Pictor Valeriu Maximilian","oneway":"yes","source":"MAXAR","surface":"asphalt"}},{"type":"Feature","geometry":{"type":"LineString","coordinates":[[25.6463031,45.6168498],[25.64683,45.6169994],[25.6469466,45.6170303],[25.6470877,45.6170613],[25.6472428,45.617089],[25.6475192,45.6171211],[25.6477687,45.6171419]]},"properties":{"highway":"residential","maxspeed":"RO:urban","maxweight":"3.5","name":"Strada Lacurilor","oneway":"yes","source":"Maxar","surface":"asphalt"}},{"type":"Feature","geometry":{"type":"LineString","coordinates":[[25.6388323,45.6153519],[25.6391162,45.6150606],[25.6390119,45.6149938],[25.6375368,45.6141332]]},"properties":{"highway":"residential","maxspeed":"RO:urban","maxweight":"1.5","name":"Strada Gorunului","oneway":"yes","smoothness":"good","source":"norc","surface":"asphalt","surface_survey":"2022MAY_"}},{"type":"Feature","geometry":{"type":"LineString","coordinates":[[25.6502989,45.6173294],[25.6504053,45.6173484],[25.6505116,45.6173724],[25.6506038,45.6174007],[25.6506731,45.6174328],[25.6507751,45.617482],[25.6508118,45.6174997],[25.6510633,45.6176213],[25.651289,45.6177378],[25.6514499,45.6178219]]},"properties":{"hgv":"no","highway":"residential","lit":"yes","maxspeed":"50","maxspeed:type":"RO:urban","name":"Strada Ioan Meșotă","source":"survey","surface":"asphalt"}},{"type":"Feature","geometry":{"type":"LineString","coordinates":[[25.6508118,45.6174997],[25.6506155,45.6176846],[25.6500177,45.6182598]]},"properties":{"hgv":"no","highway":"service","lit":"yes","maxspeed":"30","maxspeed:type":"RO:urban","service":"parking_aisle","source":"survey","surface":"asphalt"}},{"type":"Feature","geometry":{"type":"LineString","coordinates":[[25.5818217,45.6677903],[25.5817155,45.6677712],[25.5797287,45.6674147],[25.5796862,45.6674036],[25.5796545,45.6673856],[25.5796366,45.6673645],[25.5796318,45.6673402]]},"properties":{"highway":"residential","lanes":"2","maxspeed":"50","maxweight":"3.5","name":"Strada Abatorului","smoothness":"intermediate","surface":"asphalt","surface_survey":"2022OCT_"}},{"type":"Feature","geometry":{"type":"LineString","coordinates":[[25.5856358,45.6521723],[25.5855675,45.6521284],[25.5852808,45.6519225],[25.5845944,45.6513709],[25.5845637,45.6512886],[25.5845202,45.6512052],[25.5844579,45.6511157],[25.5841541,45.6507206],[25.5840764,45.6506527],[25.5840133,45.6506106]]},"properties":{"highway":"living_street","lit":"yes","maxspeed":"20","maxweight":"3.5","name":"Strada Crișan","priority":"forward","surface":"asphalt"}},{"type":"Feature","geometry":{"type":"LineString","coordinates":[[25.5933991,45.6739263],[25.5934578,45.6739218],[25.5945732,45.6738487],[25.5949665,45.6738241],[25.5954866,45.6737893],[25.5962581,45.6737409],[25.5966239,45.6737094],[25.5966872,45.6737042],[25.5967509,45.6737002],[25.5971498,45.6736603],[25.5972332,45.673652],[25.5980871,45.6735725],[25.5982528,45.6735586],[25.59859,45.673453],[25.5987804,45.6734356],[25.598945,45.6734213],[25.599701,45.6733701],[25.5997255,45.6733684],[25.5999194,45.6733577]]},"properties":{"highway":"residential","lanes":"2","lit":"yes","maxspeed":"50","maxweight":"3.5","name":"Strada Ștefan Baciu","surface":"asphalt"}},{"type":"Feature","geometry":{"type":"LineString","coordinates":[[25.6419155,45.6376044],[25.6418953,45.6375433],[25.6418508,45.6374907],[25.6417869,45.6374334],[25.6416996,45.6373833],[25.6415922,45.6373425],[25.6413022,45.637249],[25.641131,45.6371912],[25.6402988,45.6369103],[25.6401052,45.6368316],[25.6398717,45.6367166],[25.6395636,45.636552],[25.638972,45.6362455],[25.638854,45.6361844],[25.6385929,45.6360492],[25.6385782,45.6360416],[25.6379742,45.6357288],[25.6378505,45.6356647]]},"properties":{"highway":"tertiary","lanes":"2","maxspeed":"50","maxweight":"3.5","name":"Strada Ștefan Bobescu","surface":"asphalt"}},{"type":"Feature","geometry":{"type":"LineString","coordinates":[[25.6056928,45.6705521],[25.605046,45.670617],[25.6044698,45.6706789],[25.6043711,45.6706884],[25.6043093,45.670692],[25.6042375,45.6706971],[25.604168,45.6707022],[25.6024514,45.6707969],[25.6021108,45.6708151]]},"properties":{"highway":"tertiary","lanes":"2","lit":"yes","maxspeed":"RO:urban","maxweight":"3.5","name":"Strada Ioan V. Socec","surface":"asphalt"}},{"type":"Feature","geometry":{"type":"LineString","coordinates":[[25.5833502,45.6927771],[25.5833961,45.6924885],[25.5834577,45.6921127],[25.5834838,45.6919741],[25.5835103,45.6916795],[25.583507,45.6916172],[25.5835085,45.6914945],[25.5834792,45.6912377],[25.5832141,45.6898876],[25.5831999,45.6898223],[25.583143,45.6895611],[25.5830953,45.6893418],[25.5830066,45.6889071],[25.5829328,45.6885425],[25.5828884,45.6883229],[25.58276,45.6877162],[25.5826397,45.6871224],[25.5825155,45.6865082],[25.5824898,45.6863045]]},"properties":{"highway":"primary","lanes":"2","maxspeed":"60","maxweight":"10","name":"Calea Feldioarei","oneway":"yes","ref":"DN13","smoothness":"excellent","surface":"asphalt","surface_survey":"2021OCT_"}},{"type":"Feature","geometry":{"type":"LineString","coordinates":[[25.5882177,45.6418914],[25.5883167,45.6420047],[25.5884428,45.6422022],[25.5885253,45.6423522],[25.5885655,45.6424272],[25.5887067,45.6427066],[25.5888115,45.642929]]},"properties":{"foot":"no","hgv":"no","highway":"tertiary","lanes":"3","lanes:backward":"2","lanes:forward":"1","maxspeed":"30","name":"Piața Sfatului","name:de":"Marktplatz","name:hu":"Főtér","ref":"DJ101H","smoothness":"excellent","surface":"asphalt","surface_survey":"2022MAY_"}},{"type":"Feature","geometry":{"type":"LineString","coordinates":[[25.5852108,45.6401143],[25.5852703,45.6401406],[25.5854072,45.6402012],[25.5854703,45.6402305],[25.585684,45.6403212],[25.5858946,45.6404135],[25.5859278,45.640428],[25.5861015,45.6405037],[25.5862433,45.6405716],[25.5871423,45.6410239],[25.5877029,45.641409],[25.5880416,45.641703],[25.5882177,45.6418914]]},"properties":{"hgv":"no","highway":"tertiary","lanes":"3","lanes:backward":"2","lanes:forward":"1","maxspeed":"30","name":"Strada George Barițiu","name:de":"Rossmarkt","name:hu":"Lópiac","ref":"DJ101H","smoothness":"excellent","surface":"asphalt","surface_survey":"2022MAY_"}},{"type":"Feature","geometry":{"type":"LineString","coordinates":[[25.6126519,45.6741723],[25.6127098,45.6743665]]},"properties":{"highway":"service","lit":"yes","maxspeed":"5","maxweight":"3.5","oneway":"yes","surface":"paving_stones"}},{"type":"Feature","geometry":{"type":"LineString","coordinates":[[25.5910666,45.6413662],[25.5912981,45.6414208],[25.5923552,45.641668],[25.5923866,45.641678],[25.5927139,45.6417819],[25.5927427,45.6417945],[25.5927811,45.641808],[25.5940802,45.6422731],[25.5951754,45.6426651],[25.5952791,45.642703],[25.5958355,45.6429147],[25.5959684,45.6429857],[25.5963391,45.6432081]]},"properties":{"hgv":"no","highway":"tertiary","lanes":"2","lit":"yes","maxspeed":"30","name":"Strada Nicolae Bălcescu","name:de":"Schwarzgasse","name:hu":"Fekete utca","oneway":"yes","sidewalk":"both","smoothness":"excellent","surface":"asphalt","surface_survey":"2022MAY_","wikidata":"Q34725295"}},{"type":"Feature","geometry":{"type":"LineString","coordinates":[[25.5840591,45.6478476],[25.5839091,45.648002]]},"properties":{"description":"hiking route: yellow \"A\" triangle with white border","highway":"residential","lanes":"1","lit":"yes","maxspeed":"30","maxweight":"3.5","name":"Strada Crișan","sidewalk":"separate","smoothness":"intermediate","source":"survey","surface":"asphalt","surface_survey":"2022MAY_"}},{"type":"Feature","geometry":{"type":"LineString","coordinates":[[25.6427197,45.6177776],[25.6441037,45.616237],[25.6441365,45.6162019],[25.6441954,45.6161364]]},"properties":{"highway":"residential","maxspeed":"RO:urban","maxweight":"3.5","name":"Strada Teilor","oneway":"yes","source":"MAXAR","surface":"asphalt"}},{"type":"Feature","geometry":{"type":"LineString","coordinates":[[25.6542932,45.6488842],[25.6536404,45.6489372],[25.653203,45.6489656],[25.6524827,45.6490044],[25.6519687,45.6490203],[25.6518878,45.6490219],[25.6515651,45.6490294],[25.6501272,45.649056],[25.6485922,45.6490962],[25.6481553,45.6491072],[25.6478164,45.6491115],[25.6474589,45.6491134],[25.646566,45.649127],[25.6460622,45.649138],[25.6451735,45.6491602],[25.6448684,45.6491597],[25.6444165,45.6491522],[25.6440142,45.6491377],[25.6438153,45.6491312],[25.6436401,45.64913],[25.6434734,45.6491243],[25.6428826,45.6490938],[25.6417347,45.6490524],[25.6415162,45.6490426],[25.6406333,45.649003],[25.6404085,45.6489985],[25.6402014,45.6489971],[25.6399124,45.6490055],[25.6395739,45.6490301],[25.639006,45.6490569]]},"properties":{"highway":"secondary","lanes":"4","maxspeed":"50","maxweight":"10","name":"Strada Zizinului","ref":"DJ103A","smoothness":"excellent","surface":"asphalt","surface_survey":"2022MAY_"}},{"type":"Feature","geometry":{"type":"LineString","coordinates":[[25.5688782,45.6597099],[25.5686979,45.6596948],[25.5676013,45.6594321]]},"properties":{"highway":"service","maxspeed":"RO:urban","maxweight":"3.5"}},{"type":"Feature","geometry":{"type":"LineString","coordinates":[[25.6665387,45.6078974],[25.6673078,45.6082658],[25.6675634,45.6083775],[25.6676906,45.6084145],[25.6680283,45.6084597],[25.6681629,45.6084942],[25.6682356,45.608543],[25.6682846,45.6086012],[25.6683336,45.6087197],[25.6683336,45.6089054],[25.6683471,45.6097949],[25.6684179,45.6098723],[25.6685042,45.6100151],[25.6686875,45.6110053],[25.668741,45.6114071],[25.6687524,45.6115573],[25.6687633,45.6116999],[25.6688016,45.61263],[25.668804,45.6126895]]},"properties":{"highway":"tertiary","lanes":"2","maxspeed":"50","maxweight":"3.5","name":"Strada Bolnoc","source":"Bing , survey","surface":"asphalt"}},{"type":"Feature","geometry":{"type":"LineString","coordinates":[[25.6239783,45.6545699],[25.6238339,45.6548732],[25.6228875,45.6568503]]},"properties":{"foot":"no","hgv":"no","highway":"secondary","lanes":"3","maxspeed":"50","name":"Bulevardul Alexandru Vlahuță","nat_ref":"DN1","oneway":"yes","ref":"DN1","smoothness":"excellent","surface":"asphalt","surface_survey":"2022MAY_","trolley_wire":"yes"}},{"type":"Feature","geometry":{"type":"LineString","coordinates":[[25.5875149,45.6780741],[25.587707,45.6780714],[25.5878432,45.6780674],[25.5878691,45.6780644],[25.5879631,45.6780537],[25.5880594,45.6780352],[25.5881749,45.6780131]]},"properties":{"highway":"service","lit":"yes","maxspeed":"10","maxweight":"3.5","oneway":"yes","service":"driveway","surface":"asphalt"}},{"type":"Feature","geometry":{"type":"LineString","coordinates":[[25.6524932,45.616921],[25.6526202,45.6169573],[25.6527195,45.6169842],[25.6542563,45.6174144],[25.6543317,45.6174243],[25.6544032,45.6174214],[25.654479,45.6173994],[25.6545544,45.6173474],[25.654713,45.6172273],[25.6548765,45.6170865],[25.6551731,45.6168152],[25.6553018,45.6166895],[25.6554282,45.6165556],[25.6555745,45.6163607],[25.6557439,45.6161084],[25.6559096,45.6158411],[25.6565769,45.6146289],[25.6566059,45.6145506],[25.6566086,45.6144587],[25.6565885,45.6144105],[25.656557,45.6143606],[25.656455,45.6142428],[25.6564691,45.6141694],[25.6566013,45.6139384],[25.6574272,45.6128725],[25.6575201,45.6126881],[25.6575861,45.6124887],[25.6576255,45.6122821],[25.6576437,45.6120927],[25.6576393,45.6118246],[25.6575769,45.6114099],[25.6574627,45.6109744],[25.6573152,45.6106521],[25.6571284,45.6103714],[25.6568858,45.6101002],[25.6565175,45.6097131],[25.6560683,45.609305],[25.6552997,45.6085925],[25.6552239,45.6085217],[25.6551319,45.6084594],[25.654379,45.6079495]]},"properties":{"hgv":"no","highway":"residential","lanes":"2","lit":"yes","maxspeed":"50","maxspeed:type":"RO:urban","name":"Strada Gării Dârste","smoothness":"good","source":"survey","surface":"asphalt","surface_survey":"2022MAY_"}},{"type":"Feature","geometry":{"type":"LineString","coordinates":[[25.6550293,45.6149224],[25.6552649,45.6146754],[25.6553177,45.6146077],[25.655399,45.6143864],[25.6554151,45.614347],[25.6554576,45.6143237],[25.6555089,45.614317],[25.6555903,45.614318],[25.6562306,45.614344]]},"properties":{"hgv":"no","highway":"residential","lanes":"1","lit":"yes","maxspeed":"50","maxspeed:type":"RO:urban","name":"Strada Cireșului","oneway":"yes","source":"survey","surface":"asphalt"}},{"type":"Feature","geometry":{"type":"LineString","coordinates":[[25.5836897,45.6838129],[25.583664,45.6843601],[25.5834923,45.6845325],[25.5832752,45.6845315]]},"properties":{"access":"destination","highway":"service","maxheight":"4.5","maxspeed":"10","oneway":"yes"}},{"type":"Feature","geometry":{"type":"LineString","coordinates":[[25.6159803,45.6833242],[25.6162603,45.6837174]]},"properties":{"bridge":"yes","cycleway:both":"lane","foot":"no","highway":"secondary","lanes":"2","layer":"1","lit":"yes","maxspeed":"50","maxweight":"10","name":"Strada 13 Decembrie","ref":"DJ103","sidewalk":"both","smoothness":"excellent","surface":"asphalt","surface_survey":"2022MAY_","trolley_wire":"yes"}},{"type":"Feature","geometry":{"type":"LineString","coordinates":[[25.6162603,45.6837174],[25.6165537,45.6841649],[25.6167893,45.6845085],[25.6174197,45.6854031],[25.6176914,45.6857918]]},"properties":{"cycleway:both":"lane","foot":"no","highway":"secondary","lanes":"2","lit":"yes","maxspeed":"50","maxweight":"10","name":"Strada 13 Decembrie","ref":"DJ103","smoothness":"excellent","surface":"asphalt","surface_survey":"2022MAY_","trolley_wire":"yes"}},{"type":"Feature","geometry":{"type":"LineString","coordinates":[[25.6365422,45.6648485],[25.6375948,45.663689]]},"properties":{"bridge":"yes","hgv":"yes","highway":"primary","lanes":"2","layer":"1","maxspeed":"30","maxweight":"3.5","name":"Strada Timișul Sec","smoothness":"intermediate","surface":"asphalt","surface_survey":"17JAN2010_owene"}},{"type":"Feature","geometry":{"type":"LineString","coordinates":[[25.6375948,45.663689],[25.6383744,45.6628417],[25.6388864,45.6622852],[25.6397053,45.6613952]]},"properties":{"access":"yes","hgv":"yes","highway":"primary","lanes":"2","maxspeed":"60","maxweight":"3.5","motor_vehicle":"yes","name":"Strada Timișul Sec","smoothness":"intermediate","surface":"asphalt","surface_survey":"17JAN2010_owene"}},{"type":"Feature","geometry":{"type":"LineString","coordinates":[[25.6349072,45.6654982],[25.6352397,45.665673]]},"properties":{"bridge":"yes","foot":"no","highway":"primary","lanes":"2","layer":"1","maxspeed":"50","maxweight":"3.5","name":"Strada Timișul Sec","surface":"asphalt"}},{"type":"Feature","geometry":{"type":"LineString","coordinates":[[25.6352397,45.665673],[25.6353651,45.6657276],[25.6354861,45.6657719],[25.6355435,45.6657941]]},"properties":{"foot":"no","highway":"primary","lanes":"2","maxspeed":"50","maxweight":"3.5","name":"Strada Timișul Sec","surface":"asphalt"}},{"type":"Feature","geometry":{"type":"LineString","coordinates":[[25.6655349,45.6112631],[25.6658271,45.6127545]]},"properties":{"highway":"residential","maxspeed":"RO:urban","maxweight":"3.5","source":"Bing , survey","surface":"asphalt"}},{"type":"Feature","geometry":{"type":"LineString","coordinates":[[25.662013,45.6128777],[25.6619998,45.6133194],[25.6620289,45.6145081],[25.6620155,45.6145625],[25.6619772,45.6146233]]},"properties":{"highway":"residential","maxspeed":"RO:urban","maxweight":"3.5","name":"Strada Andrei Mureșan","source":"Bing , survey","surface":"asphalt"}},{"type":"Feature","geometry":{"type":"LineString","coordinates":[[25.5915562,45.666748],[25.5917809,45.6668057],[25.59195,45.6668419]]},"properties":{"highway":"secondary","lanes":"1","lit":"yes","maxheight":"4.8","maxspeed":"40","name":"Strada Independenței","oneway":"yes","surface":"asphalt"}},{"type":"Feature","geometry":{"type":"LineString","coordinates":[[25.6205,45.670349],[25.6204224,45.6703527],[25.6203375,45.6703387],[25.6202625,45.6703074],[25.6202047,45.6702617]]},"properties":{"highway":"secondary","junction":"roundabout","lanes":"2","maxspeed":"30","maxweight":"10","name":"Strada Zaharia Stancu","smoothness":"excellent","surface":"asphalt","surface_survey":"2022MAY_"}},{"type":"Feature","geometry":{"type":"LineString","coordinates":[[25.6311095,45.6688902],[25.6310695,45.6689279],[25.6310189,45.668958],[25.6309585,45.6689799],[25.6308934,45.6689915],[25.6308262,45.6689924],[25.6307604,45.6689828],[25.6306994,45.668963],[25.6306598,45.6689431],[25.6306252,45.6689197],[25.6306079,45.6689017]]},"properties":{"highway":"secondary","junction":"roundabout","lanes":"2","maxspeed":"30","maxweight":"10","surface":"asphalt"}},{"type":"Feature","geometry":{"type":"LineString","coordinates":[[25.6116027,45.6719534],[25.6114755,45.6717294],[25.6114212,45.6715854],[25.6113774,45.6714585],[25.6113467,45.6713729]]},"properties":{"foot":"no","highway":"secondary","lanes":"2","lit":"yes","maxspeed":"40","maxweight":"10","name":"Strada 13 Decembrie","oneway":"yes","ref":"DJ103","sidewalk":"right","smoothness":"excellent","surface":"asphalt","surface_survey":"2022MAY_","trolley_wire":"yes"}},{"type":"Feature","geometry":{"type":"LineString","coordinates":[[25.6047086,45.6751673],[25.6050039,45.6751387],[25.6051933,45.6751226],[25.6053744,45.6751077],[25.6054482,45.6751017],[25.6056331,45.6750866],[25.6057606,45.6750763],[25.6058726,45.6750671],[25.6065363,45.6750132],[25.6065938,45.6750086],[25.6076121,45.6749258],[25.6077692,45.6748929],[25.6078814,45.6748656],[25.6086041,45.6748108],[25.6088925,45.6748198],[25.6092012,45.6747961],[25.6095382,45.6747702],[25.6096726,45.6747599],[25.6102144,45.6747183],[25.6105009,45.6746963],[25.6107711,45.6746756],[25.6113276,45.6746328],[25.6118202,45.674595],[25.6119336,45.6745863],[25.6120958,45.6745739],[25.6121162,45.6745723],[25.6123793,45.6745521],[25.6124236,45.6745487],[25.6125376,45.67454]]},"properties":{"highway":"residential","lanes":"2","lit":"yes","maxspeed":"50","maxweight":"3.5","name":"Strada Ioan Popasu","surface":"asphalt"}},{"type":"Feature","geometry":{"type":"LineString","coordinates":[[25.5998695,45.6664056],[25.6006311,45.6663521],[25.6008372,45.6663376],[25.6010022,45.666326]]},"properties":{"highway":"secondary","lanes":"4","maxspeed":"RO:urban","maxweight":"3.5","name":"Strada Independenței","surface":"asphalt"}},{"type":"Feature","geometry":{"type":"LineString","coordinates":[[25.6118116,45.671196],[25.6119628,45.671199],[25.6120294,45.6712049],[25.6121382,45.6712037],[25.6122703,45.6711904],[25.6123989,45.6711738],[25.6138832,45.670975],[25.6146315,45.6708736],[25.6154584,45.6707627]]},"properties":{"alt_name":"Drumul Coresi","foot":"no","highway":"secondary","lanes":"2","lit":"yes","maxspeed":"RO:urban","maxweight":"10","name":"Strada Zaharia Stancu","oneway":"yes","smoothness":"excellent","surface":"asphalt","surface_survey":"2022MAY_"}},{"type":"Feature","geometry":{"type":"LineString","coordinates":[[25.6206917,45.6700564],[25.6208282,45.6700512],[25.6210112,45.6700335],[25.6217152,45.6699436],[25.6232041,45.6697467],[25.624814,45.6695337],[25.6252378,45.6694777],[25.6280665,45.6691035],[25.6284023,45.6690591],[25.6290395,45.6689749],[25.630078,45.6688375]]},"properties":{"alt_name":"Drumul Coresi","highway":"secondary","lanes":"2","maxspeed":"50","maxweight":"10","name":"Strada Zaharia Stancu","oneway":"yes","smoothness":"excellent","surface":"asphalt","surface_survey":"2022MAY_"}},{"type":"Feature","geometry":{"type":"LineString","coordinates":[[25.6116027,45.6719534],[25.6116472,45.6720784],[25.6117518,45.6723459]]},"properties":{"cycleway:right":"lane","foot":"no","highway":"secondary","lanes":"4","lit":"yes","maxspeed":"RO:urban","maxweight":"10","name":"Strada 13 Decembrie","ref":"DJ103","smoothness":"excellent","surface":"asphalt","surface_survey":"2022MAY_","trolley_wire":"yes"}},{"type":"Feature","geometry":{"type":"LineString","coordinates":[[25.6113338,45.6713257],[25.6112315,45.6709728],[25.6112029,45.6707077]]},"properties":{"foot":"no","highway":"secondary","lanes":"3","lit":"yes","maxspeed":"40","maxweight":"3.5","name":"Strada 13 Decembrie","oneway":"yes","ref":"DJ103","sidewalk":"right","smoothness":"excellent","surface":"asphalt","surface_survey":"2022MAY_","trolley_wire":"yes"}},{"type":"Feature","geometry":{"type":"LineString","coordinates":[[25.6112029,45.6707077],[25.6113572,45.6709156],[25.6114337,45.6709926],[25.6115218,45.6710628],[25.6116088,45.6711273]]},"properties":{"foot":"no","highway":"secondary","lanes":"3","lit":"yes","maxspeed":"40","maxweight":"3.5","name":"Strada 13 Decembrie","oneway":"yes","ref":"DJ103","sidewalk":"right","smoothness":"excellent","surface":"asphalt","surface_survey":"2022MAY_","trolley_wire":"yes","turn:lanes":"left;through|through|right"}},{"type":"Feature","geometry":{"type":"LineString","coordinates":[[25.6117606,45.6714645],[25.611694,45.6715413],[25.6116464,45.6715981],[25.6116072,45.6716705],[25.6115921,45.6717295],[25.6115958,45.6717911],[25.6116062,45.6718438]]},"properties":{"cycleway:right":"lane","foot":"no","highway":"secondary","lanes":"2","lit":"yes","maxspeed":"40","maxweight":"10","name":"Strada 13 Decembrie","oneway":"yes","ref":"DJ103","sidewalk":"separate","smoothness":"excellent","surface":"asphalt","surface_survey":"2022MAY_","trolley_wire":"yes"}},{"type":"Feature","geometry":{"type":"LineString","coordinates":[[25.6586022,45.6184203],[25.6586331,45.6183869],[25.6586498,45.6183554],[25.658655,45.6183145],[25.6586544,45.6182672],[25.6586478,45.6181218],[25.6586412,45.6180486],[25.6586158,45.6178164],[25.6584807,45.6166018],[25.658471,45.6164821],[25.6584665,45.6163907],[25.6584649,45.6163088],[25.6584691,45.6162245],[25.6584777,45.6161506],[25.6584886,45.6160784],[25.6585052,45.6159968],[25.6585264,45.615904],[25.6587662,45.6149217],[25.6589606,45.6141075],[25.6589749,45.6140475]]},"properties":{"highway":"residential","lanes":"2","maxspeed":"30","maxweight":"3.5","name":"Strada Timiș","source":"Bing","surface":"asphalt"}},{"type":"Feature","geometry":{"type":"LineString","coordinates":[[25.6648561,45.6160721],[25.6650039,45.615932],[25.6651751,45.6157694],[25.6661143,45.6148776],[25.6666078,45.6144236],[25.6667552,45.6142961],[25.6679007,45.6132573],[25.6681483,45.6129754],[25.6682581,45.6128645]]},"properties":{"highway":"residential","maxspeed":"RO:urban","maxweight":"3.5","name":"Strada Bereczki Anna","source":"Bing , survey","surface":"gravel"}},{"type":"Feature","geometry":{"type":"LineString","coordinates":[[25.578303,45.6627103],[25.5782672,45.6631663],[25.5781949,45.6633786]]},"properties":{"foot":"no","hgv":"no","highway":"secondary","lanes":"2","lit":"yes","maxspeed":"40","name":"Strada Lungă","name:de":"Langgasse","name:hu":"Hosszú utca","oneway":"yes","smoothness":"excellent","surface":"asphalt","surface_survey":"2022MAY_"}},{"type":"Feature","geometry":{"type":"LineString","coordinates":[[25.5783673,45.6625634],[25.5787745,45.6616932],[25.579614,45.6600638],[25.5800485,45.6593019],[25.5800837,45.6592457],[25.5803139,45.6588582],[25.5803509,45.6587959],[25.5804118,45.6586971],[25.5804929,45.6585573]]},"properties":{"bus:backward":"yes","bus:lanes:backward":"designated","cycleway:right":"lane","foot":"no","hgv":"no","highway":"secondary","lanes":"4","lanes:backward":"1","lanes:bus":"1","lanes:bus:backward":"1","lanes:psv":"1","lit":"yes","maxspeed":"50","name":"Strada Lungă","name:de":"Langgasse","name:hu":"Hosszú utca","oneway":"yes","oneway:bus":"no","smoothness":"excellent","surface":"asphalt","surface_survey":"2022MAY_"}},{"type":"Feature","geometry":{"type":"LineString","coordinates":[[25.5808553,45.6642453],[25.5808137,45.6643435],[25.5807708,45.6644446]]},"properties":{"hgv":"no","highway":"secondary","is_in:city":"Brașov","lanes":"2","maxspeed":"RO:urban","name":"Strada Borzești","oneway":"yes","surface":"asphalt"}},{"type":"Feature","geometry":{"type":"LineString","coordinates":[[25.6085765,45.6658395],[25.6086452,45.665837],[25.6087733,45.6658307]]},"properties":{"foot":"no","highway":"secondary","lanes":"4","maxspeed":"40","maxweight":"3.5","name":"Strada Independenței","surface":"asphalt"}},{"type":"Feature","geometry":{"type":"LineString","coordinates":[[25.6455678,45.6176592],[25.6445772,45.617028]]},"properties":{"highway":"residential","maxspeed":"RO:urban","maxweight":"3.5","name":"Strada Dorului","surface":"asphalt"}},{"type":"Feature","geometry":{"type":"LineString","coordinates":[[25.6450307,45.6181248],[25.6440762,45.6174877]]},"properties":{"highway":"residential","maxspeed":"RO:urban","maxweight":"3.5","name":"Strada Ghiocelului","surface":"asphalt"}},{"type":"Feature","geometry":{"type":"LineString","coordinates":[[25.615668,45.6827842],[25.6159803,45.6833242]]},"properties":{"cycleway:both":"lane","foot":"no","highway":"secondary","lanes":"2","lit":"yes","maxspeed":"50","maxweight":"10","name":"Strada 13 Decembrie","ref":"DJ103","sidewalk":"both","smoothness":"excellent","surface":"asphalt","surface_survey":"2022MAY_","trolley_wire":"yes"}},{"type":"Feature","geometry":{"type":"LineString","coordinates":[[25.5930583,45.6804277],[25.5950721,45.6802812],[25.5953178,45.6802633],[25.5966434,45.6801668]]},"properties":{"highway":"residential","lanes":"2","lit":"yes","maxweight":"3.5","name":"Strada Nicolae Labiș","sidewalk":"no","surface":"dirt"}},{"type":"Feature","geometry":{"type":"LineString","coordinates":[[25.574837,45.6741674],[25.574978,45.6742028],[25.5801471,45.6753879]]},"properties":{"highway":"residential","maxspeed":"RO:urban","maxweight":"3.5","name":"Strada Cascadei"}},{"type":"Feature","geometry":{"type":"LineString","coordinates":[[25.6502989,45.6173294],[25.6502202,45.6174055],[25.6493096,45.6182861],[25.6492632,45.6183299],[25.6492163,45.6183757]]},"properties":{"hgv":"no","highway":"residential","lit":"yes","maxspeed":"50","maxspeed:type":"RO:urban","name":"Strada Lacurilor","oneway":"yes","source":"survey","surface":"asphalt"}},{"type":"Feature","geometry":{"type":"LineString","coordinates":[[25.6337514,45.6665238],[25.6338479,45.6664359],[25.6339239,45.6663674],[25.6343851,45.6659092],[25.6344453,45.6658412],[25.6344693,45.6657953],[25.6344757,45.6657741],[25.6344778,45.6657509],[25.6344756,45.6657216],[25.6344697,45.6656918],[25.63444,45.6656021],[25.6344348,45.6655912]]},"properties":{"foot":"no","highway":"tertiary","lanes":"2","maxheight":"3.3","maxspeed":"50","name":"Strada Timișul Sec","smoothness":"bad","surface":"asphalt"}},{"type":"Feature","geometry":{"type":"LineString","coordinates":[[25.5799085,45.6742626],[25.5749968,45.6736372]]},"properties":{"highway":"residential","maxspeed":"RO:urban","maxweight":"3.5","name":"Strada Defileului"}},{"type":"Feature","geometry":{"type":"LineString","coordinates":[[25.6534672,45.6132279],[25.6534943,45.6132154],[25.6535258,45.6132004],[25.6540181,45.6130386],[25.6546852,45.6128496],[25.6547158,45.6128489],[25.6547425,45.6128538],[25.6547659,45.612868],[25.6547872,45.6128977],[25.6548128,45.6129472],[25.6550517,45.6133133]]},"properties":{"hgv":"no","highway":"residential","lit":"yes","maxspeed":"50","maxspeed:type":"RO:urban","name":"Strada Cedrilor","oneway":"yes","source":"survey","surface":"asphalt"}},{"type":"Feature","geometry":{"type":"LineString","coordinates":[[25.6562306,45.614344],[25.6561222,45.6144213],[25.6559029,45.6145932],[25.6557345,45.6147426],[25.6555128,45.6149447]]},"properties":{"hgv":"no","highway":"residential","lanes":"1","lit":"yes","maxspeed":"50","maxspeed:type":"RO:urban","noname":"yes","smoothness":"bad","source":"survey","surface":"asphalt"}},{"type":"Feature","geometry":{"type":"LineString","coordinates":[[25.6536749,45.615682],[25.6535153,45.6155976],[25.6533329,45.6155076],[25.6533028,45.6154877],[25.6532673,45.6154635],[25.6532478,45.6154276],[25.6532471,45.6153669],[25.6532561,45.6153023],[25.65328,45.6152234],[25.6533247,45.6151482],[25.6533865,45.6150602],[25.6534189,45.6149996],[25.653464,45.6148804],[25.6534988,45.6148128],[25.6535525,45.6147547],[25.6536571,45.6146946],[25.6537268,45.6146571],[25.6537617,45.6146308],[25.6537912,45.6145989],[25.6538341,45.614567],[25.6538783,45.6145492]]},"properties":{"hgv":"no","highway":"residential","lit":"yes","maxspeed":"50","maxspeed:type":"RO:urban","name":"Strada Cireșului","oneway":"yes","source":"survey","surface":"asphalt"}},{"type":"Feature","geometry":{"type":"LineString","coordinates":[[25.6549573,45.6133841],[25.6549133,45.6133759],[25.6548692,45.6133738],[25.6548046,45.6133773],[25.6547462,45.6133816],[25.6537954,45.6136612],[25.6537678,45.6136682],[25.6537334,45.6136679],[25.6537162,45.613659],[25.6537,45.6136455],[25.6534885,45.6133063],[25.6534782,45.6132891],[25.6534632,45.613258],[25.6534672,45.6132279]]},"properties":{"hgv":"no","highway":"residential","lit":"yes","maxspeed":"30","maxspeed:type":"RO:urban","name":"Strada Cedrilor","oneway":"yes","source":"survey","surface":"asphalt"}},{"type":"Feature","geometry":{"type":"LineString","coordinates":[[25.6554874,45.6136182],[25.6558053,45.6137164],[25.656498,45.6139096],[25.6566013,45.6139384]]},"properties":{"hgv":"no","highway":"residential","lit":"yes","maxspeed":"50","maxspeed:type":"RO:urban","name":"Strada Cedrilor","source":"survey","surface":"asphalt"}},{"type":"Feature","geometry":{"type":"LineString","coordinates":[[25.6527532,45.6167111],[25.6526596,45.6166717],[25.6521964,45.6164764],[25.6519876,45.6163915],[25.6518378,45.6163349],[25.6512247,45.6161301],[25.6511339,45.6161011],[25.6510271,45.6160729],[25.6509283,45.6160573],[25.6508166,45.6160443],[25.6507263,45.616038],[25.6506566,45.6160357],[25.6505918,45.6160382],[25.6505077,45.6160526]]},"properties":{"hgv":"no","highway":"residential","is_in:city":"Brașov","lit":"yes","maxspeed":"50","maxspeed:type":"RO:urban","name":"Strada Andrei Bârseanu","source":"survey","surface":"asphalt"}},{"type":"Feature","geometry":{"type":"LineString","coordinates":[[25.6042375,45.6706971],[25.6042456,45.6707485],[25.6042514,45.670766],[25.6043167,45.6711921],[25.6043852,45.6716166],[25.6044207,45.6718614],[25.604582,45.6728768],[25.6045865,45.672907],[25.6045971,45.6729708]]},"properties":{"highway":"residential","lit":"yes","maxspeed":"50","maxweight":"3.5","name":"Strada Manole Diamandi","surface":"asphalt"}},{"type":"Feature","geometry":{"type":"LineString","coordinates":[[25.6092942,45.6791979],[25.6094039,45.6791901],[25.6100181,45.6791463],[25.6106338,45.6791024],[25.6109355,45.6790808],[25.6114509,45.6790441],[25.6117713,45.6790213],[25.6123286,45.6789815],[25.6125501,45.6789657],[25.6127292,45.6789529],[25.6129068,45.6789403],[25.6133778,45.6789067],[25.6134736,45.6788999]]},"properties":{"highway":"residential","lanes":"2","lit":"yes","maxspeed":"50","maxweight":"3.5","name":"Strada Nicolae Labiș","surface":"asphalt"}},{"type":"Feature","geometry":{"type":"LineString","coordinates":[[25.6505077,45.6160526],[25.6504228,45.6160762],[25.6503928,45.6161005],[25.6503732,45.6161406],[25.6503715,45.6161804],[25.6503783,45.6162169],[25.6503921,45.6162559],[25.6504409,45.6163462],[25.6504588,45.616412],[25.6504405,45.6164797],[25.6503713,45.6165968],[25.6502301,45.6167588],[25.6501097,45.6168747],[25.6499668,45.6169728],[25.6497755,45.6170557],[25.6495645,45.6171248],[25.6493348,45.6171865]]},"properties":{"hgv":"no","highway":"residential","lit":"yes","maxspeed":"50","maxspeed:type":"RO:urban","name":"Strada Ioan Meșotă","source":"survey","surface":"asphalt"}},{"type":"Feature","geometry":{"type":"LineString","coordinates":[[25.6439,45.6655618],[25.644239,45.6656271],[25.6446728,45.6657175],[25.6453856,45.665904],[25.64914,45.6670401]]},"properties":{"highway":"service","maxweight":"3.5","name":"Strada Timiș Triaj","surface":"concrete:plates"}},{"type":"Feature","geometry":{"type":"LineString","coordinates":[[25.6337981,45.669209],[25.6340451,45.669238],[25.6341638,45.669244],[25.6348581,45.669292],[25.6366252,45.669412],[25.636715,45.6694189]]},"properties":{"alt_name":"Drumul Coresi","foot":"no","highway":"secondary","lanes":"4","maxspeed":"50","maxweight":"10","name":"Strada Zaharia Stancu","smoothness":"excellent","surface":"asphalt","surface_survey":"2022MAY_","turn:lanes:backward":"left;through|through;right","turn:lanes:forward":"through|through;right"}},{"type":"Feature","geometry":{"type":"LineString","coordinates":[[25.6317771,45.6688755],[25.6319622,45.6688932],[25.6320478,45.6689017],[25.6323492,45.6689354],[25.6327539,45.6689893]]},"properties":{"alt_name":"Drumul Coresi","highway":"secondary","lanes":"4","maxspeed":"30","maxweight":"10","name":"Strada Zaharia Stancu","smoothness":"intermediate","surface":"asphalt","surface_survey":"2022MAY_","turn:lanes:forward":"left;through|through;right"}},{"type":"Feature","geometry":{"type":"LineString","coordinates":[[25.5719681,45.6648913],[25.5719191,45.6648709],[25.5707464,45.6643498],[25.5706142,45.6642946],[25.57036,45.6641816],[25.5690641,45.6636157],[25.5675283,45.6629317],[25.567451,45.662896]]},"properties":{"highway":"tertiary","lanes":"2","maxspeed":"RO:urban","maxweight":"10","name":"Strada Lanurilor","surface":"asphalt"}},{"type":"Feature","geometry":{"type":"LineString","coordinates":[[25.5881749,45.6780131],[25.5889028,45.6781021],[25.5892616,45.678146],[25.5898008,45.6782119],[25.5903393,45.6782778],[25.5905735,45.6783096],[25.5905359,45.6784276]]},"properties":{"highway":"service","maxspeed":"10","maxweight":"3.5","oneway":"yes","service":"parking_aisle","surface":"asphalt"}},{"type":"Feature","geometry":{"type":"LineString","coordinates":[[25.6302451,45.668917],[25.6296363,45.6689967],[25.6289325,45.6690889],[25.6284275,45.6691551],[25.6276827,45.6692526],[25.6257826,45.6695015],[25.6252639,45.6695695],[25.6242004,45.6697088],[25.6229346,45.6698746],[25.622302,45.6699574],[25.6215493,45.670056],[25.6210403,45.6701212],[25.6207744,45.6701695],[25.620723,45.6701933]]},"properties":{"alt_name":"Drumul Coresi","highway":"secondary","lanes":"2","maxspeed":"50","maxweight":"10","name":"Strada Zaharia Stancu","oneway":"yes","smoothness":"excellent","surface":"asphalt","surface_survey":"2022MAY_","turn:lanes":"left;through|through;right"}},{"type":"Feature","geometry":{"type":"LineString","coordinates":[[25.6202047,45.6702617],[25.6200823,45.6702515],[25.6198855,45.6702732],[25.6184648,45.6704759],[25.6167771,45.6706966],[25.6166754,45.6707241]]},"properties":{"alt_name":"Drumul Coresi","highway":"secondary","lanes":"2","lit":"yes","maxspeed":"RO:urban","maxweight":"10","name":"Strada Zaharia Stancu","oneway":"yes","smoothness":"excellent","surface":"asphalt","surface_survey":"2022MAY_","turn:lanes":"left;through|through;right"}},{"type":"Feature","geometry":{"type":"LineString","coordinates":[[25.5973757,45.6665904],[25.5981494,45.6665281],[25.5983821,45.6665093]]},"properties":{"highway":"secondary","lanes":"4","lit":"yes","maxspeed":"RO:urban","maxweight":"3.5","name":"Strada Independenței","surface":"asphalt"}},{"type":"Feature","geometry":{"type":"LineString","coordinates":[[25.6086633,45.6637255],[25.6090095,45.6647114],[25.609063,45.6648743],[25.6090806,45.664928],[25.6090999,45.6649826],[25.6091177,45.6650377]]},"properties":{"foot":"no","highway":"secondary","lanes":"6","maxspeed":"50","maxweight":"3.5","name":"Strada 13 Decembrie","ref":"DJ103","smoothness":"excellent","surface":"asphalt","surface_survey":"2022MAY_","trolley_wire":"yes","turn:lanes:forward":"through|through|through;right"}},{"type":"Feature","geometry":{"type":"LineString","coordinates":[[25.6079024,45.6617385],[25.6084404,45.6631418]]},"properties":{"foot":"no","highway":"secondary","lanes":"4","maxheight":"3.8","maxspeed":"50","maxweight":"3.5","name":"Strada 13 Decembrie","ref":"DJ103","smoothness":"excellent","surface":"asphalt","surface_survey":"2022MAY_","trolley_wire:backward":"yes"}},{"type":"Feature","geometry":{"type":"LineString","coordinates":[[25.6091438,45.6651114],[25.6091743,45.6651962]]},"properties":{"foot":"no","highway":"secondary","lanes":"6","lit":"yes","maxspeed":"50","maxweight":"3.5","name":"Strada 13 Decembrie","ref":"DJ103","smoothness":"excellent","surface":"asphalt","surface_survey":"2022MAY_","trolley_wire":"yes","turn:lanes:forward":"left;through|through|through;right"}},{"type":"Feature","geometry":{"type":"LineString","coordinates":[[25.6076177,45.6658842],[25.6084852,45.665843],[25.6085765,45.6658395]]},"properties":{"foot":"no","highway":"secondary","lanes":"4","maxspeed":"50","maxweight":"3.5","name":"Strada Independenței","surface":"asphalt"}},{"type":"Feature","geometry":{"type":"LineString","coordinates":[[25.5919985,45.6668477],[25.5923302,45.6668513]]},"properties":{"bridge":"viaduct","ele":"0","highway":"secondary","lanes":"2","layer":"1","lit":"yes","maxheight":"4.8","maxspeed":"50","maxweight":"3.5","name":"Strada Independenței","surface":"asphalt"}},{"type":"Feature","geometry":{"type":"LineString","coordinates":[[25.568628,45.659022],[25.5685881,45.6588942],[25.5685958,45.6586413],[25.5686319,45.6582428],[25.5686866,45.6578917],[25.5690208,45.6572953],[25.5690799,45.6572391]]},"properties":{"access":"no","highway":"residential","lanes":"2","maxspeed":"RO:urban","maxweight":"3.5","name":"Strada Mică"}},{"type":"Feature","geometry":{"type":"LineString","coordinates":[[25.5690318,45.6602245],[25.5684534,45.6600323],[25.5683603,45.6600072]]},"properties":{"highway":"tertiary","int_ref":"E 68;E 574","lanes":"2","maxspeed":"40","maxweight":"3.5","oneway":"yes","smoothness":"excellent","surface":"asphalt","surface_survey":"2022MAY_"}},{"type":"Feature","geometry":{"type":"LineString","coordinates":[[25.6217486,45.6582358],[25.6218537,45.6581898],[25.6219895,45.6580971],[25.6220815,45.6580293],[25.622159,45.6579494]]},"properties":{"destination":"București;Vălenii de Munte","destination:int_ref":"E60","destination:ref":"DN1;DN1A","foot":"no","hgv":"no","highway":"secondary","lanes":"3","maxspeed":"40","name":"Bulevardul Alexandru Vlahuță","nat_ref":"DN1","oneway":"yes","ref":"DN1","smoothness":"excellent","surface":"asphalt","surface_survey":"2019JUL_doodoo@peundemerg.ro","trolley_wire":"yes"}},{"type":"Feature","geometry":{"type":"LineString","coordinates":[[25.6224879,45.6576906],[25.6224154,45.6578332],[25.6223866,45.6578772],[25.6223358,45.6579546],[25.6222788,45.658037],[25.6221925,45.6581357],[25.6220863,45.6582435],[25.6220517,45.6582951],[25.6219887,45.658401]]},"properties":{"foot":"no","hgv":"no","highway":"secondary","lanes":"3","maxspeed":"40","name":"Bulevardul Alexandru Vlahuță","nat_ref":"DN1","oneway":"yes","ref":"DN1","smoothness":"excellent","surface":"asphalt","surface_survey":"2019JUL_doodoo@peundemerg.ro","trolley_wire":"yes","turn:lanes":"left;through|through|through"}},{"type":"Feature","geometry":{"type":"LineString","coordinates":[[25.6228875,45.6568503],[25.6226389,45.6573566]]},"properties":{"foot":"no","hgv":"no","highway":"secondary","lanes":"3","maxspeed":"50","name":"Bulevardul Alexandru Vlahuță","nat_ref":"DN1","oneway":"yes","ref":"DN1","smoothness":"excellent","surface":"asphalt","surface_survey":"2022MAY_","trolley_wire":"yes"}},{"type":"Feature","geometry":{"type":"LineString","coordinates":[[25.6077313,45.6613495],[25.6077584,45.6614071]]},"properties":{"foot":"no","highway":"secondary","lanes":"7","lanes:backward":"3","lanes:forward":"4","maxspeed":"50","maxweight":"3.5","name":"Strada 13 Decembrie","ref":"DJ103","smoothness":"excellent","surface":"asphalt","surface_survey":"2022MAY_","trolley_wire":"yes"}},{"type":"Feature","geometry":{"type":"LineString","coordinates":[[25.6069668,45.659677],[25.6069802,45.659571],[25.6069713,45.6594589],[25.6068751,45.6591528],[25.6068574,45.6590964],[25.6067915,45.6587088]]},"properties":{"cycleway:right":"lane","destination":"Poiana Brașov;Centru","foot":"no","hgv":"no","highway":"secondary","lanes":"3","maxspeed":"RO:urban","name":"Strada 13 Decembrie","oneway":"yes","ref":"DJ103","smoothness":"excellent","surface":"asphalt","surface_survey":"2022MAY_","trolley_wire":"yes"}},{"type":"Feature","geometry":{"type":"LineString","coordinates":[[25.5905359,45.6784276],[25.5903078,45.6783984],[25.5897658,45.6783295],[25.589234,45.6782619],[25.5888697,45.6782155],[25.5881374,45.6781224]]},"properties":{"highway":"service","maxspeed":"10","maxweight":"3.5","oneway":"yes","service":"parking_aisle","surface":"asphalt"}},{"type":"Feature","geometry":{"type":"LineString","coordinates":[[25.5864112,45.6391745],[25.5866499,45.6392791]]},"properties":{"hgv":"no","highway":"tertiary","lanes":"1","lit":"no","maxspeed":"30","name":"Strada Poarta Schei","name:de":"Waisenhausgasse","name:hu":"Árvaház utca","oneway":"yes","smoothness":"excellent","surface":"asphalt","surface_survey":"2022MAY_","wikidata":"Q34983761"}},{"type":"Feature","geometry":{"type":"LineString","coordinates":[[25.5863149,45.6391294],[25.5864112,45.6391745]]},"properties":{"covered":"yes","highway":"tertiary","lane_markings":"no","maxheight":"3.8","maxspeed":"30","maxwidth":"2.3","name":"Strada Poarta Schei","name:de":"Waisenhausgasse","name:hu":"Árvaház utca","oneway":"yes","surface":"asphalt","tunnel":"building_passage","wikidata":"Q34983761"}},{"type":"Feature","geometry":{"type":"LineString","coordinates":[[25.6010022,45.666326],[25.6017462,45.666278],[25.6023762,45.6662425],[25.603034,45.666198],[25.6032683,45.6661823],[25.6035498,45.6661599],[25.6037524,45.6661446],[25.6038887,45.666134],[25.6042867,45.6661023],[25.6043786,45.6660946],[25.6047152,45.6660738],[25.6061656,45.665982]]},"properties":{"highway":"secondary","lanes":"4","maxspeed":"RO:urban","maxweight":"3.5","name":"Strada Independenței","surface":"asphalt"}},{"type":"Feature","geometry":{"type":"LineString","coordinates":[[25.6004986,45.6428803],[25.6003311,45.6428968],[25.5988607,45.6429849],[25.5987675,45.6429956],[25.5980696,45.6430908],[25.5980097,45.6431012],[25.5979525,45.6431172],[25.5978566,45.643151]]},"properties":{"highway":"tertiary","lanes":"2","maxspeed":"50","maxweight":"3.5","name":"Strada Constantin Dobrogeanu Gherea","smoothness":"good","surface":"asphalt","surface_survey":"2022MAY_"}},{"type":"Feature","geometry":{"type":"LineString","coordinates":[[25.5842639,45.6576554],[25.5830866,45.659369],[25.5830617,45.6594052],[25.5830127,45.6594768],[25.5829577,45.6595575],[25.5827214,45.6599042],[25.5824942,45.6603033],[25.5822242,45.6608179],[25.5819039,45.6615518],[25.5816064,45.6622473],[25.5815819,45.6623074],[25.5815183,45.6624773],[25.5814134,45.6627576],[25.5813305,45.6629825],[25.5811636,45.663443]]},"properties":{"cycleway:right":"lane","hgv":"no","highway":"secondary","lanes":"2","maxspeed":"50","name":"Strada De Mijloc","name:de":"Mittelgasse","name:hu":"Közép utca","oneway":"yes","smoothness":"excellent","surface":"asphalt","surface_survey":"2022MAY_"}},{"type":"Feature","geometry":{"type":"LineString","coordinates":[[25.5923302,45.6668513],[25.5926228,45.6668475]]},"properties":{"bridge":"viaduct","ele":"0","highway":"secondary","lanes":"2","layer":"1","lit":"yes","maxheight":"4.8","maxspeed":"RO:urban","maxweight":"3.5","name":"Strada Independenței","surface":"asphalt"}},{"type":"Feature","geometry":{"type":"LineString","coordinates":[[25.5914688,45.6714797],[25.591432,45.6714472],[25.5913845,45.6710041],[25.5913876,45.6707506],[25.5914155,45.670565],[25.5914493,45.6703378],[25.5915013,45.6700138],[25.5915864,45.6697915],[25.5918062,45.6692977],[25.5918726,45.6691736],[25.592146,45.6687804],[25.592435,45.6684552],[25.5926782,45.6682154],[25.5929518,45.6679904],[25.5930269,45.6679417],[25.5930344,45.6679373],[25.5931342,45.667878],[25.5932629,45.6678217],[25.5934247,45.6678014]]},"properties":{"highway":"service","is_in:city":"Brașov","lit":"yes","maxspeed":"RO:urban","maxweight":"3.5","name":"Strada Ioan V. Socec","surface":"asphalt"}},{"type":"Feature","geometry":{"type":"LineString","coordinates":[[25.5926228,45.6668475],[25.5956603,45.666691]]},"properties":{"bridge":"viaduct","ele":"1","highway":"secondary","lanes":"2","layer":"1","lit":"yes","maxheight":"4.8","maxspeed":"50","maxweight":"3.5","name":"Strada Independenței","sidewalk":"both","surface":"asphalt"}},{"type":"Feature","geometry":{"type":"LineString","coordinates":[[25.6480993,45.6289514],[25.6482409,45.6287361],[25.6483593,45.6285987],[25.6485271,45.6284913],[25.6487752,45.6284087],[25.6489944,45.6283704],[25.6491768,45.6283727],[25.6495245,45.6284138],[25.649606,45.6284258],[25.6498631,45.6284636],[25.6503575,45.6285227],[25.6508099,45.6285742]]},"properties":{"description":"Artera de sud-est","highway":"tertiary","lanes":"2","lit":"no","maxheight":"4.5","maxspeed":"40","maxweight":"3.5","overtaking":"no","smoothness":"good","source:maxweight":"sign","surface":"asphalt","surface_survey":"2022MAY_"}},{"type":"Feature","geometry":{"type":"LineString","coordinates":[[25.6555637,45.6296247],[25.6556666,45.6296371],[25.6557925,45.6296436],[25.6559219,45.6296529],[25.6560012,45.6296469]]},"properties":{"description":"Artera de sud-est","highway":"tertiary","lanes":"1","lit":"no","maxspeed":"30","maxweight":"3.5","oneway":"yes","smoothness":"excellent","source:maxweight":"sign","surface":"asphalt","surface_survey":"2021NOV_"}},{"type":"Feature","geometry":{"type":"LineString","coordinates":[[25.6559487,45.6298066],[25.6557923,45.6297268],[25.655663,45.6296638],[25.6555637,45.6296247]]},"properties":{"description":"Artera de sud-est","destination":"Brașov","highway":"tertiary","lanes":"1","lit":"no","maxheight":"4.5","maxspeed":"30","maxweight":"3.5","oneway":"yes","smoothness":"excellent","source:maxweight":"sign","surface":"asphalt","surface_survey":"2021NOV_"}},{"type":"Feature","geometry":{"type":"LineString","coordinates":[[25.6504752,45.6763759],[25.6489561,45.675496],[25.6487641,45.6753801],[25.6487419,45.6753667],[25.6486382,45.6752926],[25.6485376,45.6752204],[25.6478978,45.6746712],[25.6477692,45.674573],[25.6476154,45.6744627],[25.6472144,45.6741978],[25.6470653,45.6741049],[25.6467846,45.6739147],[25.6464032,45.6736398],[25.6463149,45.6735856],[25.6463055,45.6735799],[25.6462406,45.6735584],[25.6461236,45.6735359]]},"properties":{"hgv":"no","highway":"residential","maxspeed":"50","maxweight":"3.5","name":"Fundătura Hărmanului","surface":"asphalt"}},{"type":"Feature","geometry":{"type":"LineString","coordinates":[[25.6007771,45.6565906],[25.6009604,45.6564503]]},"properties":{"highway":"residential","maxspeed":"RO:urban","maxweight":"3.5","name":"Strada Pictor Ștefan Luchian","surface":"asphalt"}},{"type":"Feature","geometry":{"type":"LineString","coordinates":[[25.6551065,45.6134017],[25.6552276,45.6135142],[25.6552944,45.6135556],[25.6553735,45.6135868]]},"properties":{"hgv":"no","highway":"residential","lit":"yes","maxspeed":"50","maxspeed:type":"RO:urban","name":"Strada Cedrilor","source":"survey","surface":"asphalt"}},{"type":"Feature","geometry":{"type":"LineString","coordinates":[[25.6375158,45.6692628],[25.6374819,45.6691459],[25.6374676,45.6690996],[25.6374464,45.6690467],[25.6374053,45.6689908],[25.6373493,45.6689418],[25.6372844,45.6688735]]},"properties":{"destination":"București;Ploiești;Vălenii de Munte;Poiana Brașov;Centru","destination:ref":"DN1;DN1A","foot":"no","highway":"primary","lanes":"2","maxspeed":"40","maxweight":"3.5","name":"Strada Hărmanului","nat_ref":"DN11","oneway":"yes","ref":"DN11","smoothness":"excellent","surface":"asphalt","surface_survey":"2022MAY_","trolley_wire":"yes"}},{"type":"Feature","geometry":{"type":"LineString","coordinates":[[25.6395711,45.6701944],[25.6410801,45.6710668],[25.6412702,45.6711801],[25.6414022,45.6712605],[25.6415358,45.6713449],[25.6417441,45.6714746]]},"properties":{"change":"yes","foot":"no","highway":"primary","int_ref":"E 574","lanes":"4","lit":"yes","maxspeed":"60","maxweight":"10","name":"Strada Hărmanului","nat_ref":"DN11","overtaking":"no","ref":"DN11","smoothness":"excellent","surface":"asphalt","surface_survey":"2022MAY_","trolley_wire":"yes"}},{"type":"Feature","geometry":{"type":"LineString","coordinates":[[25.6376476,45.6694914],[25.6374162,45.6695018],[25.6371889,45.6694837],[25.6370036,45.6694677],[25.6369011,45.6694589],[25.636715,45.6694189]]},"properties":{"alt_name":"Drumul Coresi","destination":"Pitești;Sibiu;Târgu Mureș","destination:int_ref":"E574;E60","destination:ref":"DN73;DN1;DN13","foot":"no","highway":"secondary_link","lanes":"4","maxspeed":"50","maxweight":"10","name":"Strada Zaharia Stancu","oneway":"yes","smoothness":"excellent","surface":"asphalt","surface_survey":"2022MAY_"}},{"type":"Feature","geometry":{"type":"LineString","coordinates":[[25.636715,45.6694189],[25.6369138,45.6694034],[25.6370136,45.6694094],[25.6371155,45.6694155],[25.6372187,45.6694178],[25.6373126,45.6694026],[25.6373513,45.6693793],[25.6374135,45.6693444],[25.6375048,45.669291]]},"properties":{"alt_name":"Drumul Coresi","foot":"no","highway":"secondary","lanes":"4","maxspeed":"30","maxweight":"10","name":"Strada Zaharia Stancu","oneway":"yes","smoothness":"excellent","surface":"asphalt","surface_survey":"2022MAY_"}},{"type":"Feature","geometry":{"type":"LineString","coordinates":[[25.5918758,45.6596466],[25.5914177,45.659976],[25.5913391,45.6600309],[25.5904692,45.6606081],[25.5897022,45.6610988],[25.5895535,45.6611877],[25.5893872,45.661277],[25.5892514,45.6613451],[25.5891473,45.6613885],[25.5884042,45.661635]]},"properties":{"hgv":"no","highway":"tertiary","lanes":"2","maxspeed":"50","maxweight":"3.5","name":"Strada Mihai Viteazul","smoothness":"good","surface":"asphalt","surface_survey":"2023MAY_"}},{"type":"Feature","geometry":{"type":"LineString","coordinates":[[25.5851752,45.6637096],[25.584779,45.6639502],[25.5838191,45.664484],[25.5837624,45.6645137]]},"properties":{"foot":"no","hgv":"no","highway":"tertiary","is_in:city":"Brașov","lanes":"4","maxspeed":"50","name":"Strada Mihai Viteazul","surface":"asphalt"}},{"type":"Feature","geometry":{"type":"LineString","coordinates":[[25.6051728,45.6540586],[25.6053024,45.6544493]]},"properties":{"cycleway:both":"lane","foot":"no","hgv":"no","highway":"secondary","lanes":"4","maxspeed":"RO:urban","name":"Strada 13 Decembrie","ref":"DJ103","smoothness":"excellent","surface":"asphalt","surface_survey":"2023MAY_","trolley_wire":"yes"}},{"type":"Feature","geometry":{"type":"LineString","coordinates":[[25.6060602,45.6566277],[25.6060669,45.6566462],[25.606084,45.6566935],[25.6061015,45.6567421],[25.6061925,45.6569947],[25.6062948,45.6572848]]},"properties":{"cycleway:both":"lane","foot":"no","hgv":"no","highway":"secondary","lanes":"4","maxspeed":"RO:urban","name":"Strada 13 Decembrie","ref":"DJ103","smoothness":"excellent","surface":"asphalt","surface_survey":"2023MAY_","trolley_wire":"yes"}},{"type":"Feature","geometry":{"type":"LineString","coordinates":[[25.6338838,45.6335143],[25.6338895,45.6334928],[25.6340731,45.6333142],[25.6340861,45.633313],[25.6345076,45.6335293],[25.6345303,45.6335492]]},"properties":{"highway":"service","maxheight":"2.7","maxspeed":"10","name":"McDrive","oneway":"yes","service":"drive-through","surface":"asphalt"}},{"type":"Feature","geometry":{"type":"LineString","coordinates":[[25.6564447,45.6144397],[25.6566854,45.6143208],[25.6581248,45.6135649],[25.6581755,45.6135391]]},"properties":{"bridge":"yes","highway":"primary","lanes":"2","layer":"1","maxspeed":"60","maxweight":"3.5","name":"Calea București","nat_ref":"DN1","oneway":"yes","ref":"DN1","smoothness":"excellent","surface":"asphalt"}},{"type":"Feature","geometry":{"type":"LineString","coordinates":[[25.6625791,45.6841724],[25.6628304,45.6842936],[25.6629938,45.6843799],[25.6631511,45.6844674],[25.6632634,45.6845348],[25.6638447,45.6848733]]},"properties":{"destination":"Bacău;Buzău;Târgu Secuiesc;Sfântu Gheorghe","destination:int_ref":"E 574","destination:ref":"DN11","highway":"trunk_link","int_ref":"E 574","lanes":"2","maxheight":"5.5","maxspeed":"50","nat_ref":"DN11","oneway":"yes","ref":"DN11","smoothness":"excellent","surface":"asphalt","turn:lanes":"merge_to_right|through"}},{"type":"Feature","geometry":{"type":"LineString","coordinates":[[25.622159,45.6579494],[25.6221757,45.6579272],[25.6221924,45.6579049],[25.6223386,45.6576601],[25.6228911,45.6565434],[25.6236634,45.6549398]]},"properties":{"foot":"no","hgv":"no","highway":"secondary","lanes":"3","maxspeed":"50","name":"Bulevardul Alexandru Vlahuță","nat_ref":"DN1","oneway":"yes","ref":"DN1","smoothness":"excellent","surface":"asphalt","surface_survey":"2022MAY_","trolley_wire":"yes"}},{"type":"Feature","geometry":{"type":"LineString","coordinates":[[25.5917193,45.6650594],[25.5916803,45.6651382],[25.5916559,45.6652198],[25.5916128,45.6654156],[25.591567,45.6656178],[25.5915645,45.6656901],[25.5915723,45.6657714],[25.5916043,45.665903]]},"properties":{"highway":"primary_link","lanes":"2","maxspeed":"30","maxweight":"3.5","oneway":"yes","smoothness":"excellent","surface":"asphalt","surface_survey":"2022MAY_"}},{"type":"Feature","geometry":{"type":"LineString","coordinates":[[25.6130714,45.6590487],[25.6130627,45.6590005],[25.613054,45.6589523],[25.6129891,45.6586048],[25.6128784,45.658048],[25.6126394,45.6567398],[25.6126242,45.6566589],[25.612614,45.6566043],[25.6123582,45.6552749],[25.6122565,45.6546958],[25.6122006,45.654372],[25.6121533,45.654299],[25.6121131,45.6542636],[25.612066,45.6542343],[25.6119448,45.6541999]]},"properties":{"access:lanes":"yes|yes|no","bus:lanes":"yes|yes|designated","foot":"no","hgv":"no","highway":"secondary","lanes":"3","lanes:bus":"1","lit":"yes","maxspeed":"RO:urban","name":"Bulevardul Victoriei","oneway":"yes","surface":"asphalt"}},{"type":"Feature","geometry":{"type":"LineString","coordinates":[[25.6151332,45.6816365],[25.6152038,45.6818056],[25.6154639,45.6823943]]},"properties":{"cycleway:both":"lane","foot":"no","highway":"secondary","lanes":"4","lit":"yes","maxspeed":"50","maxweight":"10","name":"Strada 13 Decembrie","ref":"DJ103","smoothness":"good","surface":"asphalt","surface_survey":"21JAN2010_owene","trolley_wire":"yes"}},{"type":"Feature","geometry":{"type":"LineString","coordinates":[[25.6154639,45.6823943],[25.615471,45.6824084],[25.6155067,45.68248],[25.6155378,45.682544]]},"properties":{"cycleway:both":"lane","foot":"no","highway":"secondary","lanes":"4","lanes:backward":"2","lanes:forward":"2","lit":"yes","maxspeed":"50","maxweight":"10","name":"Strada 13 Decembrie","ref":"DJ103","sidewalk":"both","smoothness":"good","surface":"asphalt","surface_survey":"21JAN2010_owene","trolley_wire":"yes","turn:lanes:forward":"left|through"}},{"type":"Feature","geometry":{"type":"LineString","coordinates":[[25.5840591,45.6478476],[25.5866119,45.6465003],[25.5873728,45.6460955]]},"properties":{"highway":"primary","lanes":"2","lit":"yes","maxspeed":"50","maxweight":"3.5","name":"Strada Șirul Livezii","old_ref":"DJ101H","ref":"DN1E","smoothness":"excellent","surface":"asphalt","surface_survey":"2022MAY_"}},{"type":"Feature","geometry":{"type":"LineString","coordinates":[[25.5777007,45.6664481],[25.577692,45.6664716],[25.577628,45.6665567],[25.5775887,45.6666034]]},"properties":{"highway":"secondary","lanes":"2","maxspeed":"50","maxweight":"10","name":"Strada Lungă","name:de":"Langgasse","name:hu":"Hosszú utca","surface":"asphalt"}},{"type":"Feature","geometry":{"type":"LineString","coordinates":[[25.5792188,45.6665083],[25.5782452,45.666469],[25.5778805,45.6664502],[25.5777758,45.666449],[25.5777007,45.6664481]]},"properties":{"highway":"secondary","lanes":"2","maxspeed":"50","maxweight":"3.5","name":"Strada Gheorghe Doja","surface":"asphalt"}},{"type":"Feature","geometry":{"type":"LineString","coordinates":[[25.6162491,45.6706016],[25.6162773,45.6705763],[25.6163212,45.6705481],[25.6163823,45.6705296],[25.6164351,45.670524],[25.6165066,45.6705284],[25.6165399,45.6705371],[25.6165878,45.6705563],[25.6166278,45.670583]]},"properties":{"alt_name":"Drumul Coresi","highway":"secondary","junction":"roundabout","lanes":"2","lit":"yes","maxspeed":"20","maxweight":"10","name":"Strada Zaharia Stancu","smoothness":"excellent","surface":"asphalt","surface_survey":"2022MAY_"}},{"type":"Feature","geometry":{"type":"LineString","coordinates":[[25.6162911,45.6708079],[25.6162531,45.6707811],[25.6162301,45.6707479],[25.6162179,45.6707107],[25.6162135,45.67067],[25.6162266,45.6706342],[25.6162491,45.6706016]]},"properties":{"alt_name":"Drumul Coresi","highway":"secondary","junction":"roundabout","lanes":"2","lit":"yes","maxspeed":"20","maxweight":"10","name":"Strada Zaharia Stancu","smoothness":"excellent","surface":"asphalt","surface_survey":"2022MAY_"}},{"type":"Feature","geometry":{"type":"LineString","coordinates":[[25.6166278,45.670583],[25.6167764,45.6705799],[25.6169433,45.6705728],[25.61749,45.6705001],[25.6184416,45.6703732],[25.6198635,45.6701808],[25.6201154,45.6701423],[25.6201645,45.6701188]]},"properties":{"alt_name":"Drumul Coresi","highway":"secondary","lanes":"2","lit":"yes","maxspeed":"RO:urban","maxweight":"10","name":"Strada Zaharia Stancu","oneway":"yes","smoothness":"excellent","surface":"asphalt","surface_survey":"2022MAY_","turn:lanes":"left;through|through;right"}},{"type":"Feature","geometry":{"type":"LineString","coordinates":[[25.6166278,45.670583],[25.6166582,45.6706149],[25.6166751,45.6706509],[25.6166812,45.670687],[25.6166754,45.6707241]]},"properties":{"alt_name":"Drumul Coresi","highway":"secondary","junction":"roundabout","lanes":"2","lit":"yes","maxspeed":"20","maxweight":"10","name":"Strada Zaharia Stancu","surface":"asphalt"}},{"type":"Feature","geometry":{"type":"LineString","coordinates":[[25.6162911,45.6708079],[25.6161681,45.670778],[25.6160694,45.6707736],[25.6158883,45.6708019],[25.6152502,45.6708858]]},"properties":{"alt_name":"Drumul Coresi","foot":"no","highway":"secondary","lanes":"2","maxspeed":"RO:urban","maxweight":"10","name":"Strada Zaharia Stancu","oneway":"yes","smoothness":"excellent","surface":"asphalt","surface_survey":"2022MAY_"}},{"type":"Feature","geometry":{"type":"LineString","coordinates":[[25.6166754,45.6707241],[25.6166572,45.6707595],[25.616628,45.6707911],[25.6165874,45.6708205],[25.6165432,45.6708364],[25.6164914,45.6708474],[25.6164377,45.6708501]]},"properties":{"alt_name":"Drumul Coresi","highway":"secondary","junction":"roundabout","lanes":"2","lit":"yes","maxspeed":"20","maxweight":"10","name":"Strada Zaharia Stancu","smoothness":"excellent","surface":"asphalt","surface_survey":"2022MAY_"}},{"type":"Feature","geometry":{"type":"LineString","coordinates":[[25.6077584,45.6614071],[25.6078828,45.6616904]]},"properties":{"foot":"no","highway":"secondary","lanes":"7","lanes:backward":"3","lanes:forward":"4","maxspeed":"50","maxweight":"3.5","name":"Strada 13 Decembrie","ref":"DJ103","smoothness":"excellent","surface":"asphalt","surface_survey":"2022MAY_","trolley_wire":"yes","turn:lanes:forward":"left|"}},{"type":"Feature","geometry":{"type":"LineString","coordinates":[[25.6538783,45.6145492],[25.653936,45.6145445],[25.6539977,45.614552],[25.6540836,45.6145708],[25.6541815,45.6145928],[25.6542794,45.6146233],[25.6543571,45.6146627],[25.6544264,45.6147085],[25.654481,45.6147503],[25.654528,45.6147719],[25.654588,45.6147855],[25.6546736,45.6147922],[25.6547622,45.6148016],[25.6548373,45.6148184],[25.6548936,45.6148466],[25.654958,45.6148897],[25.6550293,45.6149224]]},"properties":{"hgv":"no","highway":"residential","lit":"yes","maxspeed":"50","maxspeed:type":"RO:urban","name":"Strada Cireșului","oneway":"yes","source":"survey","surface":"asphalt"}},{"type":"Feature","geometry":{"type":"LineString","coordinates":[[25.6550293,45.6149224],[25.6550151,45.6149507],[25.6550036,45.6149873],[25.6549944,45.6150498],[25.6550296,45.6151168],[25.6550999,45.6151817],[25.6551243,45.6152049]]},"properties":{"hgv":"no","highway":"residential","lit":"yes","maxspeed":"50","maxspeed:type":"RO:urban","name":"Strada Cireșului","source":"survey","surface":"asphalt"}},{"type":"Feature","geometry":{"type":"LineString","coordinates":[[25.5956603,45.666691],[25.5973757,45.6665904]]},"properties":{"bridge":"viaduct","ele":"1","highway":"secondary","lanes":"2","layer":"1","lit":"yes","maxheight":"4.8","maxspeed":"RO:urban","maxweight":"3.5","name":"Strada Independenței","surface":"asphalt"}},{"type":"Feature","geometry":{"type":"LineString","coordinates":[[25.5903393,45.6782778],[25.5903078,45.6783984]]},"properties":{"highway":"service","maxspeed":"10","maxweight":"3.5","oneway":"yes","service":"parking_aisle","surface":"asphalt"}},{"type":"Feature","geometry":{"type":"LineString","coordinates":[[25.6561292,45.6070148],[25.6562842,45.606919],[25.6566918,45.6066776],[25.6568138,45.6065922],[25.656934,45.6064886],[25.6570542,45.606385],[25.6572295,45.6061929],[25.657402,45.605996],[25.6577575,45.6055775],[25.6581587,45.605096],[25.6582526,45.6049856],[25.658341,45.6048966],[25.658434,45.6048251],[25.6585148,45.6047735],[25.658617,45.6047199],[25.6587375,45.6046791]]},"properties":{"highway":"tertiary","lanes":"2","maxspeed":"RO:urban","maxweight":"3.5","name":"Strada Stejarului","source":"Bing , survey","surface":"asphalt"}},{"type":"Feature","geometry":{"type":"LineString","coordinates":[[25.6468185,45.630559],[25.6469102,45.6305948],[25.6470051,45.6306226],[25.6470606,45.6306389],[25.6471856,45.6306553],[25.6472679,45.6306546]]},"properties":{"description":"Artera de sud-est","highway":"tertiary","lanes":"1","lit":"no","maxheight":"4.5","maxspeed":"40","maxweight":"3.5","overtaking":"no","priority":"forward","smoothness":"intermediate","surface":"asphalt","surface_survey":"2022MAY_"}},{"type":"Feature","geometry":{"type":"LineString","coordinates":[[25.6418637,45.6286877],[25.6419614,45.6287565],[25.6420444,45.6288149],[25.6423241,45.6289982],[25.6425302,45.6291206],[25.6427784,45.6292574],[25.6430216,45.6293698],[25.6433203,45.6294982],[25.6436216,45.6296145],[25.6439238,45.6297232],[25.6442695,45.6298296],[25.6451716,45.6300805],[25.645569,45.6302041]]},"properties":{"description":"Artera de sud-est","highway":"tertiary","lanes":"2","lit":"yes","maxheight":"4.5","maxspeed":"40","maxweight":"3.5","smoothness":"good","surface":"asphalt","surface_survey":"2022MAY_"}},{"type":"Feature","geometry":{"type":"LineString","coordinates":[[25.6637783,45.6852342],[25.6637735,45.6852375],[25.6637373,45.6852586],[25.6636789,45.6852801],[25.6636339,45.6852888],[25.6635864,45.6852904],[25.6635276,45.6852853],[25.6634793,45.685273],[25.6634356,45.6852543],[25.6633579,45.6852108],[25.6630501,45.6850269]]},"properties":{"destination":"București;Ploiești","highway":"trunk","int_ref":"E 574","junction":"roundabout","lanes":"2","maxheight":"5.5","maxspeed":"30","nat_ref":"DN11","ref":"DN11","smoothness":"excellent","surface":"asphalt"}},{"type":"Feature","geometry":{"type":"LineString","coordinates":[[25.6628486,45.6856186],[25.6629125,45.6855621],[25.6629628,45.6854975],[25.662995,45.6854207],[25.6630017,45.6853523],[25.6629923,45.6852979],[25.6629708,45.6852417],[25.6629219,45.6851832],[25.6628651,45.6851347],[25.6628074,45.6851004],[25.6627387,45.685073],[25.6626518,45.685056],[25.6625866,45.685052],[25.6625222,45.6850506],[25.6623968,45.6850561]]},"properties":{"destination":"București;Ploiești","destination:ref":"DN1K","highway":"trunk_link","lanes":"1","maxheight":"5.5","maxspeed":"30","oneway":"yes","smoothness":"excellent","start_date":"2016","surface":"asphalt","surface_survey":"2017JAN_RRQM sync"}},{"type":"Feature","geometry":{"type":"LineString","coordinates":[[25.6128983,45.6751974],[25.6129432,45.6752137],[25.6129777,45.6752395]]},"properties":{"cycleway:right":"lane","foot":"no","highway":"secondary","junction":"roundabout","lanes":"2","lit":"yes","maxspeed":"30","maxweight":"10","name":"Strada 13 Decembrie","ref":"DJ103","sidewalk":"right","smoothness":"excellent","surface":"asphalt","surface_survey":"2022MAY_","trolley_wire":"yes"}},{"type":"Feature","geometry":{"type":"LineString","coordinates":[[25.6144883,45.679919],[25.6149405,45.6811556]]},"properties":{"cycleway:both":"lane","foot":"no","highway":"secondary","lanes":"4","lit":"yes","maxspeed":"50","maxweight":"10","name":"Strada 13 Decembrie","ref":"DJ103","smoothness":"good","surface":"asphalt","surface_survey":"21JAN2010_owene","trolley_wire":"yes"}},{"type":"Feature","geometry":{"type":"LineString","coordinates":[[25.6116062,45.6718438],[25.6116726,45.6718868],[25.6117541,45.67197],[25.6118439,45.6721124]]},"properties":{"highway":"service","lanes":"2","lit":"yes","maxspeed":"5","maxweight":"7.5","oneway":"yes","smoothness":"excellent","surface":"asphalt","surface_survey":"2022MAY_","trolley_wire":"yes"}},{"type":"Feature","geometry":{"type":"LineString","coordinates":[[25.5885482,45.657394],[25.5888289,45.6571934]]},"properties":{"hgv":"no","highway":"tertiary","lanes":"2","lit":"yes","maxspeed":"30","name":"Strada Avram Iancu","oneway":"yes","sidewalk":"right","surface":"asphalt"}},{"type":"Feature","geometry":{"type":"LineString","coordinates":[[25.5882102,45.6576454],[25.5882579,45.6576082],[25.5883243,45.6575618],[25.5883691,45.6575346],[25.5884387,45.6574923]]},"properties":{"hgv":"no","highway":"tertiary","lanes":"2","lit":"yes","maxspeed":"30","name":"Strada Avram Iancu","oneway":"yes","sidewalk":"right","surface":"asphalt"}},{"type":"Feature","geometry":{"type":"LineString","coordinates":[[25.5884387,45.6574923],[25.5884456,45.6574745],[25.5884558,45.6574575],[25.5884691,45.6574416],[25.5884853,45.657427],[25.5885041,45.6574141],[25.5885252,45.657403],[25.5885482,45.657394]]},"properties":{"hgv":"no","highway":"tertiary","junction":"roundabout","lanes":"2","lit":"yes","maxspeed":"30","sidewalk":"both","surface":"asphalt"}},{"type":"Feature","geometry":{"type":"LineString","coordinates":[[25.5888289,45.6571934],[25.5887568,45.657293],[25.5887441,45.6573218],[25.588742,45.6573476],[25.5887494,45.6573832],[25.5887648,45.6574147]]},"properties":{"hgv":"no","highway":"tertiary","lanes":"2","lit":"yes","maxspeed":"30","name":"Strada Avram Iancu","oneway":"yes","sidewalk":"right","surface":"asphalt"}},{"type":"Feature","geometry":{"type":"LineString","coordinates":[[25.5888289,45.6571934],[25.5891567,45.6569607],[25.589269,45.6568831],[25.5900287,45.6563161],[25.5907243,45.6558335],[25.5909672,45.6556738],[25.5916907,45.6551777],[25.5918278,45.6550805],[25.5919777,45.65497]]},"properties":{"hgv":"no","highway":"tertiary","lanes":"2","maxspeed":"50","name":"Strada Avram Iancu","name:de":"Hintergasse","name:hu":"Hátulsó utca","smoothness":"good","surface":"asphalt","surface_survey":"2022MAY_"}},{"type":"Feature","geometry":{"type":"LineString","coordinates":[[25.585958,45.6597275],[25.5858687,45.6598682],[25.5855961,45.6603297],[25.5854317,45.6606439],[25.5852974,45.6609114],[25.5851582,45.6611746],[25.5850405,45.6613524],[25.5847508,45.6617602],[25.5846907,45.6618342],[25.5844668,45.6621008],[25.5842871,45.6622808],[25.5839183,45.6626162],[25.5835795,45.6629025],[25.5833792,45.6630689],[25.5833536,45.6630904],[25.5830807,45.6633104],[25.5829363,45.6634197],[25.5828317,45.6635089],[25.582545,45.6637428],[25.5819253,45.6642859],[25.5818299,45.664442]]},"properties":{"hgv":"no","highway":"tertiary","lanes":"2","maxspeed":"50","name":"Strada Avram Iancu","name:de":"Hintergasse","name:hu":"Hátulsó utca","smoothness":"good","surface":"asphalt","surface_survey":"2022MAY_"}},{"type":"Feature","geometry":{"type":"LineString","coordinates":[[25.608839,45.6726003],[25.6088834,45.6726036],[25.6090703,45.6725868],[25.6092879,45.6725673],[25.6095938,45.6725398],[25.6097989,45.6725214],[25.6098179,45.6725197],[25.6098596,45.6725159],[25.6101156,45.6724929],[25.6103445,45.6724724],[25.6103842,45.6724688],[25.6105633,45.6724527],[25.6107711,45.672434],[25.610997,45.6724137],[25.6111391,45.672401],[25.6111994,45.6723956],[25.6116027,45.6723593],[25.6116224,45.6723576],[25.6117518,45.6723459]]},"properties":{"highway":"residential","lanes":"2","lit":"yes","maxspeed":"RO:urban","maxweight":"3.5","name":"Strada Ștefan Baciu","surface":"asphalt"}},{"type":"Feature","geometry":{"type":"LineString","coordinates":[[25.6107243,45.7005031],[25.611056,45.700171],[25.611486,45.6997579],[25.6118297,45.6994211],[25.6121903,45.6990618],[25.6136234,45.6976852],[25.6147651,45.6965475],[25.6148136,45.6964987],[25.6148955,45.6964162],[25.6152006,45.6961091],[25.617789,45.6935925],[25.6178636,45.6935207],[25.6203521,45.6911461],[25.6209085,45.6906041],[25.6209411,45.6905723]]},"properties":{"highway":"residential","lanes":"2","lit":"yes","maxspeed":"30","maxweight":"3.5","name":"Strada Drumul cu Plopi","surface":"asphalt"}},{"type":"Feature","geometry":{"type":"LineString","coordinates":[[25.6192023,45.666319],[25.6190953,45.6663305],[25.6189755,45.6663498],[25.618839,45.666385],[25.6182618,45.6665472],[25.6175319,45.6667517],[25.6166037,45.6670222],[25.6155809,45.6673224],[25.6150367,45.6674786],[25.6140139,45.6677832],[25.6137939,45.6678396]]},"properties":{"highway":"tertiary","lanes":"2","maxspeed":"50","maxweight":"3.5","name":"Strada Camil Petrescu","oneway":"yes","sidewalk:left":"no","sidewalk:right":"separate","smoothness":"excellent","surface":"asphalt","surface_survey":"2022DEC_"}},{"type":"Feature","geometry":{"type":"LineString","coordinates":[[25.6127061,45.6752808],[25.612684,45.675133],[25.6126548,45.6750114],[25.6126531,45.6748914]]},"properties":{"cycleway:right":"lane","foot":"no","highway":"secondary","lanes":"2","lit":"yes","maxspeed":"30","maxweight":"10","name":"Strada 13 Decembrie","oneway":"yes","ref":"DJ103","sidewalk":"right","smoothness":"excellent","surface":"asphalt","surface_survey":"2022MAY_","trolley_wire":"yes"}},{"type":"Feature","geometry":{"type":"LineString","coordinates":[[25.6334234,45.6691294],[25.6336397,45.6691734],[25.6337981,45.669209]]},"properties":{"alt_name":"Drumul Coresi","highway":"secondary","lanes":"4","maxspeed":"50","maxweight":"10","name":"Strada Zaharia Stancu","smoothness":"good","surface":"asphalt","turn:lanes:forward":"left;through|through;right"}},{"type":"Feature","geometry":{"type":"LineString","coordinates":[[25.6105454,45.6689673],[25.6107677,45.6695317],[25.6107906,45.6695898],[25.6108107,45.669645],[25.6108157,45.6696587]]},"properties":{"foot":"no","highway":"secondary","lanes":"6","lit":"yes","maxspeed":"RO:urban","maxweight":"3.5","name":"Strada 13 Decembrie","ref":"DJ103","smoothness":"good","surface":"asphalt","surface_survey":"21JAN2010_owene","trolley_wire":"yes","turn:lanes:backward":"left;through|through|through|through;right"}},{"type":"Feature","geometry":{"type":"LineString","coordinates":[[25.6109336,45.6699902],[25.611174,45.6706343]]},"properties":{"foot":"no","highway":"secondary","lanes":"6","lit":"yes","maxspeed":"RO:urban","maxweight":"3.5","name":"Strada 13 Decembrie","ref":"DJ103","smoothness":"excellent","surface":"asphalt","surface_survey":"2022MAY_","trolley_wire":"yes","turn:lanes:forward":"left;through|through|right"}},{"type":"Feature","geometry":{"type":"LineString","coordinates":[[25.6127486,45.6753703],[25.612721,45.6753441],[25.6127064,45.6753133],[25.6127061,45.6752808]]},"properties":{"cycleway:right":"lane","foot":"no","highway":"secondary","junction":"roundabout","lanes":"2","lit":"yes","maxspeed":"30","maxweight":"10","name":"Strada 13 Decembrie","ref":"DJ103","sidewalk":"right","smoothness":"excellent","surface":"asphalt","surface_survey":"2022MAY_","trolley_wire":"yes"}},{"type":"Feature","geometry":{"type":"LineString","coordinates":[[25.5887648,45.6574147],[25.5887911,45.6574341],[25.5888116,45.6574566],[25.5888256,45.6574815],[25.5888325,45.6575078],[25.5888321,45.6575345],[25.5888244,45.6575607],[25.5888097,45.6575853],[25.5887885,45.6576076],[25.5887645,45.6576249],[25.5887365,45.6576391],[25.5887055,45.6576496],[25.5886724,45.6576563],[25.5886381,45.6576589],[25.5886036,45.6576573],[25.5885701,45.6576516],[25.5885385,45.6576419]]},"properties":{"hgv":"no","highway":"tertiary","junction":"roundabout","lanes":"2","lit":"yes","maxspeed":"30","sidewalk":"both","surface":"asphalt"}},{"type":"Feature","geometry":{"type":"LineString","coordinates":[[25.5885482,45.657394],[25.5885791,45.6573858],[25.5886115,45.6573813],[25.5886445,45.6573806],[25.5886772,45.6573838],[25.5887087,45.6573906],[25.5887382,45.657401],[25.5887648,45.6574147]]},"properties":{"hgv":"no","highway":"tertiary","junction":"roundabout","lanes":"2","lit":"yes","maxspeed":"30","sidewalk":"both","surface":"asphalt"}},{"type":"Feature","geometry":{"type":"LineString","coordinates":[[25.5885385,45.6576419],[25.5885086,45.6576279],[25.5884827,45.6576103],[25.5884618,45.6575897],[25.5884466,45.6575669],[25.5884375,45.6575425],[25.5884348,45.6575174],[25.5884387,45.6574923]]},"properties":{"hgv":"no","highway":"tertiary","junction":"roundabout","lanes":"2","maxspeed":"30","surface":"asphalt"}},{"type":"Feature","geometry":{"type":"LineString","coordinates":[[25.6539552,45.6158697],[25.6537795,45.6157458],[25.6536749,45.615682]]},"properties":{"hgv":"no","highway":"residential","lit":"yes","maxspeed":"50","maxspeed:type":"RO:urban","name":"Strada Cireșului","oneway":"yes","source":"survey","surface":"asphalt"}},{"type":"Feature","geometry":{"type":"LineString","coordinates":[[25.6084831,45.6632581],[25.6086633,45.6637255]]},"properties":{"foot":"no","highway":"secondary","lanes":"6","lanes:backward":"3","lanes:forward":"3","maxspeed":"50","maxweight":"3.5","name":"Strada 13 Decembrie","ref":"DJ103","smoothness":"excellent","surface":"asphalt","surface_survey":"2022MAY_","trolley_wire":"yes","turn:lanes:backward":"merge_to_right||"}},{"type":"Feature","geometry":{"type":"LineString","coordinates":[[25.6578262,45.6141077],[25.6578746,45.6138078]]},"properties":{"destination":"București;Predeal","destination:ref":"DN1","highway":"trunk","int_ref":"E 60","lanes":"1","maxheight":"4.5","maxspeed":"50","name":"Strada Timișul Sec (Centura Brașovului)","nat_ref":"DN1K","oneway":"yes","ref":"DN1K","smoothness":"excellent","surface":"asphalt","surface_survey":"2023NOV_"}},{"type":"Feature","geometry":{"type":"LineString","coordinates":[[25.5677169,45.659819],[25.5675063,45.6597628]]},"properties":{"highway":"tertiary","int_ref":"E 574","lanes":"2","maxspeed":"40","maxweight":"3.5","name":"Șoseaua Cristianului","oneway":"yes","smoothness":"excellent","surface":"asphalt","surface_survey":"2022MAY_"}},{"type":"Feature","geometry":{"type":"LineString","coordinates":[[25.5779129,45.6650923],[25.5779061,45.6651577],[25.5777121,45.6664003],[25.5777007,45.6664481]]},"properties":{"highway":"secondary","lanes":"2","maxspeed":"50","maxweight":"10","name":"Strada Lungă","name:de":"Langgasse","name:hu":"Hosszú utca","surface":"asphalt"}},{"type":"Feature","geometry":{"type":"LineString","coordinates":[[25.6092093,45.6770093],[25.6085721,45.6770565],[25.6084098,45.6770685],[25.6073862,45.6771443],[25.6067466,45.6771917],[25.6063002,45.6772247],[25.6059182,45.677253],[25.6058237,45.67726],[25.6056606,45.6772721],[25.6055135,45.677283],[25.6049196,45.677327]]},"properties":{"highway":"tertiary","lanes":"2","maxspeed":"50","maxweight":"3.5","name":"Strada Ion Constantin Brătianu","surface":"asphalt"}},{"type":"Feature","geometry":{"type":"LineString","coordinates":[[25.6118439,45.6721124],[25.6118935,45.6721986],[25.6119485,45.6723326],[25.61197,45.6723942],[25.6119994,45.6724806],[25.6120778,45.6727041],[25.6121765,45.6729857],[25.6121809,45.6729975],[25.6121711,45.6731404],[25.6120915,45.6732862]]},"properties":{"highway":"service","lanes":"2","lit":"yes","maxspeed":"5","maxweight":"7.5","oneway":"yes","smoothness":"good","surface":"asphalt","surface_survey":"2022MAY_","trolley_wire":"yes"}},{"type":"Feature","geometry":{"type":"LineString","coordinates":[[25.6117518,45.6723459],[25.6117677,45.6723854],[25.6117837,45.6724248]]},"properties":{"cycleway:right":"lane","foot":"no","highway":"secondary","lanes":"4","lit":"yes","maxspeed":"RO:urban","maxweight":"10","name":"Strada 13 Decembrie","ref":"DJ103","smoothness":"excellent","surface":"asphalt","surface_survey":"2022MAY_","trolley_wire":"yes"}},{"type":"Feature","geometry":{"type":"LineString","coordinates":[[25.612121,45.6733788],[25.6121492,45.673459]]},"properties":{"cycleway:both":"lane","foot":"no","highway":"secondary","lanes":"4","lit":"yes","maxspeed":"RO:urban","maxweight":"10","name":"Strada 13 Decembrie","ref":"DJ103","smoothness":"excellent","surface":"asphalt","surface_survey":"2022MAY_","trolley_wire":"yes"}},{"type":"Feature","geometry":{"type":"LineString","coordinates":[[25.6123184,45.6739327],[25.6123503,45.6740199],[25.612456,45.6743101],[25.612475,45.6743623],[25.6124986,45.6744272],[25.6125038,45.6744413]]},"properties":{"cycleway:both":"lane","foot":"no","highway":"secondary","lanes":"4","lit":"yes","maxspeed":"RO:urban","maxweight":"10","name":"Strada 13 Decembrie","ref":"DJ103","smoothness":"excellent","surface":"asphalt","surface_survey":"2022MAY_","trolley_wire":"yes"}},{"type":"Feature","geometry":{"type":"LineString","coordinates":[[25.6125376,45.67454],[25.6126531,45.6748914]]},"properties":{"cycleway:both":"lane","foot":"no","highway":"secondary","lanes":"4","lit":"yes","maxspeed":"50","maxweight":"10","name":"Strada 13 Decembrie","ref":"DJ103","smoothness":"excellent","surface":"asphalt","surface_survey":"2022MAY_","trolley_wire":"yes"}},{"type":"Feature","geometry":{"type":"LineString","coordinates":[[25.6129777,45.6752395],[25.6129948,45.6752646],[25.6130018,45.6752919],[25.6129982,45.6753195]]},"properties":{"foot":"no","highway":"secondary","junction":"roundabout","lanes":"2","lit":"yes","maxspeed":"30","maxweight":"10","name":"Strada 13 Decembrie","ref":"DJ103","sidewalk":"none","smoothness":"excellent","surface":"asphalt","surface_survey":"2022MAY_","trolley_wire":"yes"}},{"type":"Feature","geometry":{"type":"LineString","coordinates":[[25.6129982,45.6753195],[25.6129877,45.6753407],[25.6129709,45.6753599],[25.6129486,45.6753762]]},"properties":{"cycleway:right":"lane","foot":"no","highway":"secondary","junction":"roundabout","lanes":"2","lit":"yes","maxspeed":"30","maxweight":"10","name":"Strada 13 Decembrie","ref":"DJ103","sidewalk":"right","smoothness":"excellent","surface":"asphalt","surface_survey":"2022MAY_","trolley_wire":"yes"}},{"type":"Feature","geometry":{"type":"LineString","coordinates":[[25.6481121,45.6171667],[25.6482945,45.6171776],[25.6485756,45.6171914],[25.6493348,45.6171865],[25.649677,45.6172465],[25.6499858,45.6172896],[25.6502989,45.6173294]]},"properties":{"hgv":"no","highway":"residential","lit":"yes","maxspeed":"50","maxspeed:type":"RO:urban","name":"Strada Ioan Meșotă","oneway":"yes","source":"survey","surface":"asphalt"}},{"type":"Feature","geometry":{"type":"LineString","coordinates":[[25.6628486,45.6856186],[25.6630714,45.6855375],[25.6631275,45.6855154],[25.6631788,45.6854911],[25.6632235,45.6854657],[25.6632619,45.6854389],[25.6633088,45.6854029],[25.663339,45.6853738],[25.6633608,45.6853427],[25.6633749,45.6852989],[25.6633718,45.6852606],[25.6633579,45.6852108]]},"properties":{"destination:ref":"DN11","highway":"trunk_link","lanes":"1","maxheight":"5.5","maxspeed":"30","oneway":"yes","smoothness":"excellent","start_date":"2016","surface":"asphalt","surface_survey":"2017JAN_RRQM sync"}},{"type":"Feature","geometry":{"type":"LineString","coordinates":[[25.6127843,45.6740539],[25.6128056,45.6741301]]},"properties":{"covered":"yes","highway":"service","maxheight":"4.5","maxspeed":"5","maxweight":"3.5","oneway":"yes","surface":"paving_stones","tunnel":"building_passage"}},{"type":"Feature","geometry":{"type":"LineString","coordinates":[[25.6123184,45.6739327],[25.6124665,45.6739483],[25.6125481,45.673975],[25.6127804,45.6740402],[25.6127843,45.6740539]]},"properties":{"highway":"service","lit":"yes","maxheight":"4.5","maxspeed":"5","maxweight":"3.5","oneway":"yes","surface":"paving_stones"}},{"type":"Feature","geometry":{"type":"LineString","coordinates":[[25.6127061,45.6752808],[25.6127211,45.6752489],[25.6127441,45.6752258],[25.6127767,45.6752073],[25.6128153,45.6751959],[25.612857,45.6751925],[25.6128983,45.6751974]]},"properties":{"foot":"no","highway":"secondary","junction":"roundabout","lanes":"2","lit":"yes","maxspeed":"30","maxweight":"10","name":"Strada 13 Decembrie","ref":"DJ103","sidewalk":"none","smoothness":"excellent","surface":"asphalt","surface_survey":"2022MAY_"}},{"type":"Feature","geometry":{"type":"LineString","coordinates":[[25.6129486,45.6753762],[25.6129209,45.6753888],[25.612889,45.6753973],[25.6128542,45.6754003],[25.6128193,45.6753976],[25.6127872,45.6753895],[25.6127486,45.6753703]]},"properties":{"foot":"no","highway":"secondary","junction":"roundabout","lanes":"2","lit":"yes","maxspeed":"30","maxweight":"10","name":"Strada 13 Decembrie","ref":"DJ103","sidewalk":"none","smoothness":"excellent","surface":"asphalt","surface_survey":"2022MAY_"}},{"type":"Feature","geometry":{"type":"LineString","coordinates":[[25.6129397,45.6756488],[25.6128458,45.675513],[25.6128028,45.6754305],[25.6127486,45.6753703]]},"properties":{"cycleway:right":"lane","foot":"no","highway":"secondary","lanes":"2","lit":"yes","maxspeed":"30","maxweight":"10","name":"Strada 13 Decembrie","oneway":"yes","ref":"DJ103","sidewalk":"right","smoothness":"excellent","surface":"asphalt","surface_survey":"2022MAY_","trolley_wire":"yes"}},{"type":"Feature","geometry":{"type":"LineString","coordinates":[[25.6129486,45.6753762],[25.6129476,45.6754313],[25.6129541,45.6755003],[25.6129397,45.6756488]]},"properties":{"cycleway:right":"lane","foot":"no","highway":"secondary","lanes":"2","lit":"yes","maxspeed":"30","maxweight":"10","name":"Strada 13 Decembrie","oneway":"yes","ref":"DJ103","sidewalk":"right","smoothness":"excellent","surface":"asphalt","surface_survey":"2022MAY_","trolley_wire":"yes"}},{"type":"Feature","geometry":{"type":"LineString","coordinates":[[25.6126531,45.6748914],[25.6127525,45.6749904],[25.6127951,45.6750808],[25.612848,45.675142],[25.6128983,45.6751974]]},"properties":{"cycleway:right":"lane","foot":"no","highway":"secondary","lanes":"2","lit":"yes","maxspeed":"30","maxweight":"10","name":"Strada 13 Decembrie","oneway":"yes","ref":"DJ103","sidewalk":"right","smoothness":"excellent","surface":"asphalt","surface_survey":"2022MAY_","trolley_wire":"yes","turn:lanes":"through|through;right"}},{"type":"Feature","geometry":{"type":"LineString","coordinates":[[25.6056928,45.6705521],[25.60592,45.6704884],[25.6060709,45.6704395],[25.6063409,45.6703926],[25.6065063,45.6703945]]},"properties":{"highway":"tertiary","lanes":"1","lit":"yes","maxspeed":"RO:urban","maxweight":"3.5","name":"Strada Ioan V. Socec","oneway":"yes","surface":"asphalt"}},{"type":"Feature","geometry":{"type":"LineString","coordinates":[[25.6065063,45.6703945],[25.6063615,45.6704391],[25.6061736,45.6705074],[25.6060284,45.6705438],[25.6056928,45.6705521]]},"properties":{"highway":"tertiary","lanes":"1","lit":"yes","maxspeed":"RO:urban","maxweight":"3.5","name":"Strada Ioan V. Socec","oneway":"yes","surface":"asphalt"}},{"type":"Feature","geometry":{"type":"LineString","coordinates":[[25.6109336,45.6699902],[25.6107609,45.6700089],[25.6088216,45.6701889],[25.6080784,45.6702556],[25.6078672,45.6702746],[25.6077951,45.6702791],[25.6077223,45.6702845],[25.6069586,45.6703515],[25.6065063,45.6703945]]},"properties":{"highway":"tertiary","lanes":"2","lit":"yes","maxspeed":"RO:urban","maxweight":"3.5","name":"Strada Ioan V. Socec","surface":"asphalt"}},{"type":"Feature","geometry":{"type":"LineString","coordinates":[[25.59195,45.6668419],[25.591859,45.6668467],[25.5917843,45.6668526],[25.5917004,45.6668641],[25.5916244,45.6668775]]},"properties":{"highway":"secondary","lanes":"1","maxheight":"4.8","maxspeed":"40","name":"Strada Independenței","oneway":"yes","surface":"asphalt"}},{"type":"Feature","geometry":{"type":"LineString","coordinates":[[25.583841,45.647949],[25.5840591,45.6478476]]},"properties":{"highway":"primary","lanes":"2","lit":"yes","maxspeed":"50","maxweight":"3.5","name":"Strada Șirul Livezii","old_ref":"DJ101H","ref":"DN1E","sidewalk":"separate","smoothness":"excellent","surface":"asphalt","surface_survey":"2022MAY_"}},{"type":"Feature","geometry":{"type":"LineString","coordinates":[[25.5839091,45.648002],[25.5837261,45.6480733],[25.5835048,45.6481773],[25.58325,45.6483105],[25.5831172,45.6483947],[25.5829574,45.6485105],[25.5828397,45.648603],[25.5827527,45.6486726],[25.5827272,45.6486989],[25.5827156,45.6487132]]},"properties":{"description":"hiking route: yellow \"A\" triangle with white border","highway":"residential","lanes":"1","lit":"yes","maxspeed":"30","maxweight":"3.5","name":"Strada Crișan","smoothness":"intermediate","source":"survey","surface":"asphalt","surface_survey":"2022MAY_"}},{"type":"Feature","geometry":{"type":"LineString","coordinates":[[25.5773802,45.6666917],[25.5773447,45.6666526],[25.5773158,45.6666286],[25.577281,45.66661],[25.5772347,45.6665949],[25.5771874,45.6665836],[25.5771388,45.6665775],[25.5770892,45.6665729],[25.5769976,45.6665719],[25.5768434,45.6665666]]},"properties":{"highway":"secondary","lanes":"1","maxspeed":"50","maxweight":"10","name":"Strada Gheorghe Doja","oneway":"yes","surface":"asphalt"}},{"type":"Feature","geometry":{"type":"LineString","coordinates":[[25.5768434,45.6665666],[25.5769962,45.6665429],[25.5771438,45.6665334],[25.5773124,45.6665262],[25.5773792,45.6665264],[25.5774472,45.6665398],[25.5775059,45.6665649],[25.5775491,45.66659]]},"properties":{"highway":"secondary","lanes":"2","maxspeed":"30","maxweight":"10","name":"Strada Gheorghe Doja","oneway":"yes","surface":"asphalt"}},{"type":"Feature","geometry":{"type":"LineString","coordinates":[[25.5776442,45.666688],[25.5776538,45.6667964],[25.5776578,45.6668446],[25.5776753,45.6669749]]},"properties":{"destination":"Târgu Mureș","highway":"secondary","lanes":"2","maxspeed":"50","maxweight":"10","name":"Calea Feldioarei","oneway":"yes","surface":"asphalt"}},{"type":"Feature","geometry":{"type":"LineString","coordinates":[[25.6383461,45.6694953],[25.6383881,45.6695224],[25.63848,45.6695687]]},"properties":{"change":"yes","foot":"no","highway":"primary","int_ref":"E 574","lanes":"4","maxspeed":"60","maxweight":"10","name":"Strada Hărmanului","nat_ref":"DN11","overtaking":"no","ref":"DN11","smoothness":"good","surface":"asphalt","surface_survey":"2016DEC_RRQM sync","trolley_wire":"yes","turn:lanes:backward":"through|through;right"}},{"type":"Feature","geometry":{"type":"LineString","coordinates":[[25.6342049,45.6651906],[25.6340526,45.6651751],[25.6339288,45.665185],[25.6338449,45.6652046],[25.6337959,45.665242],[25.6337669,45.6652756],[25.6337568,45.6653171],[25.6337536,45.6653338],[25.6337628,45.6654371]]},"properties":{"foot":"no","highway":"primary","lanes":"1","maxweight":"3.5","name":"Strada Timișul Sec","oneway":"yes","surface":"asphalt"}},{"type":"Feature","geometry":{"type":"LineString","coordinates":[[25.6317771,45.6688755],[25.6316105,45.6688906],[25.6314378,45.6688827],[25.6313332,45.6688721],[25.6312314,45.668866],[25.6311095,45.6688902]]},"properties":{"alt_name":"Drumul Coresi","highway":"secondary","lanes":"2","maxspeed":"30","maxweight":"10","name":"Strada Zaharia Stancu","oneway":"yes","surface":"asphalt"}},{"type":"Feature","geometry":{"type":"LineString","coordinates":[[25.6310569,45.6686367],[25.6312438,45.668725],[25.6313432,45.6687673],[25.6315125,45.6688175],[25.631647,45.668833],[25.6317771,45.6688755]]},"properties":{"highway":"secondary","lanes":"2","maxspeed":"30","maxweight":"10","name":"Strada Zaharia Stancu","oneway":"yes","surface":"asphalt"}},{"type":"Feature","geometry":{"type":"LineString","coordinates":[[25.6347797,45.6654319],[25.6347007,45.6654259],[25.6346672,45.6654214],[25.6346346,45.6654191],[25.6346118,45.6654196],[25.6345892,45.6654215],[25.6345671,45.6654239],[25.6345461,45.6654276],[25.6345282,45.6654335],[25.6345119,45.6654401],[25.6344962,45.6654485],[25.6344838,45.6654571],[25.6344682,45.6654738],[25.634462,45.6654833],[25.6344564,45.6654928],[25.6344462,45.6655148],[25.634442,45.6655369],[25.6344382,45.6655603],[25.6344348,45.6655912]]},"properties":{"foot":"no","highway":"primary_link","lanes":"1","maxheight":"3.3","oneway":"yes","smoothness":"bad","surface":"asphalt"}},{"type":"Feature","geometry":{"type":"LineString","coordinates":[[25.6333695,45.6651096],[25.6335366,45.6651097],[25.6338558,45.6651001],[25.6340162,45.6650832]]},"properties":{"foot":"no","highway":"primary","lanes":"2","maxspeed":"50","maxweight":"3.5","name":"Strada Timișul Sec","oneway":"yes","surface":"asphalt"}},{"type":"Feature","geometry":{"type":"LineString","coordinates":[[25.5874378,45.6502456],[25.5874273,45.650412],[25.5874218,45.6504911],[25.5874212,45.6505508]]},"properties":{"hgv":"no","highway":"secondary","lanes":"2","maxspeed":"50","name":"Strada Lungă","name:de":"Langgasse","name:hu":"Hosszú utca","oneway":"yes","smoothness":"excellent","surface":"asphalt","surface_survey":"2022MAY_"}},{"type":"Feature","geometry":{"type":"LineString","coordinates":[[25.5811636,45.663443],[25.5808938,45.6641597],[25.5808553,45.6642453]]},"properties":{"cycleway:right":"lane","hgv":"no","highway":"secondary","lanes":"2","lit":"yes","maxspeed":"50","name":"Strada De Mijloc","name:de":"Mittelgasse","name:hu":"Közép utca","oneway":"yes","sidewalk":"both","smoothness":"excellent","surface":"asphalt","surface_survey":"2022MAY_"}},{"type":"Feature","geometry":{"type":"LineString","coordinates":[[25.6106824,45.6682439],[25.6108225,45.6681866],[25.610959,45.6681632],[25.6111563,45.6681361],[25.6113884,45.6681029],[25.6120477,45.6680172],[25.6130273,45.6678829],[25.6135114,45.6678017],[25.6137657,45.6677411],[25.6150093,45.6673801],[25.6169436,45.6668155],[25.6184157,45.6664071],[25.6187822,45.6663025],[25.6190256,45.6662298],[25.6191315,45.6661832]]},"properties":{"highway":"tertiary","lanes":"2","maxspeed":"50","maxweight":"3.5","name":"Strada Camil Petrescu","oneway":"yes","sidewalk:left":"no","sidewalk:right":"separate","smoothness":"excellent","surface":"asphalt","surface_survey":"2022DEC_"}},{"type":"Feature","geometry":{"type":"LineString","coordinates":[[25.5681011,45.6516047],[25.5680019,45.651706],[25.5678839,45.6518279],[25.5676988,45.652021],[25.5674708,45.6522497],[25.5672482,45.6524766],[25.5669773,45.6527372],[25.5667788,45.6529434],[25.5665449,45.6532054],[25.5664274,45.6533509],[25.5663746,45.6534297]]},"properties":{"highway":"residential","maxspeed":"RO:urban","maxweight":"3.5","name":"Strada Cărămidăriei"}},{"type":"Feature","geometry":{"type":"LineString","coordinates":[[25.656455,45.6142428],[25.6562306,45.614344]]},"properties":{"hgv":"no","highway":"residential","lanes":"1","lit":"yes","maxspeed":"50","maxspeed:type":"RO:urban","name":"Strada Cireșului","source":"survey","surface":"asphalt"}},{"type":"Feature","geometry":{"type":"LineString","coordinates":[[25.6129397,45.6756488],[25.6129625,45.6757051]]},"properties":{"cycleway:both":"lane","foot":"no","highway":"secondary","lanes":"4","lit":"yes","maxspeed":"50","maxweight":"10","name":"Strada 13 Decembrie","ref":"DJ103","smoothness":"excellent","surface":"asphalt","surface_survey":"2022MAY_","trolley_wire":"yes"}},{"type":"Feature","geometry":{"type":"LineString","coordinates":[[25.5888115,45.642929],[25.5895611,45.6446976],[25.5897034,45.64521]]},"properties":{"foot":"no","hgv":"no","highway":"tertiary","lanes":"3","lanes:backward":"2","lanes:forward":"1","lit":"yes","maxspeed":"30","name":"Strada Mureșenilor","name:de":"Klostergasse","name:hu":"Kolostor utca","ref":"DJ101H","smoothness":"excellent","surface":"asphalt","surface_survey":"2022MAY_","wikidata":"Q55581213"}},{"type":"Feature","geometry":{"type":"LineString","coordinates":[[25.6322326,45.6326134],[25.6322246,45.6327532]]},"properties":{"covered":"yes","highway":"service","maxheight":"default","name":"Stația RAT Roman - Peron 1","oneway":"yes","psv":"designated","surface":"asphalt"}},{"type":"Feature","geometry":{"type":"LineString","coordinates":[[25.6323378,45.6326555],[25.6323275,45.6328038]]},"properties":{"covered":"yes","highway":"service","maxheight":"default","name":"Stația RAT Roman - Peron 2","oneway":"yes","psv":"designated","surface":"asphalt"}},{"type":"Feature","geometry":{"type":"LineString","coordinates":[[25.6325299,45.6327489],[25.632516,45.6328965]]},"properties":{"covered":"yes","highway":"service","maxheight":"default","name":"Stația RAT Roman - Peron 4","oneway":"yes","psv":"designated","surface":"asphalt"}},{"type":"Feature","geometry":{"type":"LineString","coordinates":[[25.6326221,45.6327925],[25.6326008,45.6329405]]},"properties":{"covered":"yes","highway":"service","maxheight":"default","name":"Stația RAT Roman - Peron 5","oneway":"yes","psv":"designated","surface":"asphalt"}},{"type":"Feature","geometry":{"type":"LineString","coordinates":[[25.6324351,45.6327013],[25.6324221,45.6328526]]},"properties":{"covered":"yes","highway":"service","maxheight":"default","name":"Stația RAT Roman - Peron 3","oneway":"yes","psv":"designated","surface":"asphalt"}},{"type":"Feature","geometry":{"type":"LineString","coordinates":[[25.621739,45.6497137],[25.6216691,45.6497984],[25.6216176,45.649883],[25.6215712,45.6499793],[25.6215432,45.6500466],[25.6215197,45.6501103],[25.6214903,45.6501993],[25.6214897,45.6502995]]},"properties":{"highway":"residential","is_in:city":"Brașov","lanes":"4","lanes:backward":"1","lanes:forward":"3","maxspeed":"RO:urban","maxweight":"3.5","name":"Strada Traian","surface":"asphalt","turn:lanes:forward":"left|through|right"}},{"type":"Feature","geometry":{"type":"LineString","coordinates":[[25.6226389,45.6573566],[25.6224879,45.6576906]]},"properties":{"foot":"no","hgv":"no","highway":"secondary","lanes":"4","maxspeed":"50","name":"Bulevardul Alexandru Vlahuță","nat_ref":"DN1","oneway":"yes","ref":"DN1","smoothness":"excellent","surface":"asphalt","surface_survey":"2022MAY_","trolley_wire":"yes","turn:lanes":"|||slight_right"}},{"type":"Feature","geometry":{"type":"LineString","coordinates":[[25.6236634,45.6549398],[25.623757,45.6547359]]},"properties":{"foot":"no","hgv":"no","highway":"secondary","lanes":"3","maxspeed":"50","name":"Bulevardul Alexandru Vlahuță","nat_ref":"DN1","oneway":"yes","ref":"DN1","smoothness":"excellent","surface":"asphalt","surface_survey":"2022MAY_","trolley_wire":"yes","turn:lanes":"left|through|through;right"}},{"type":"Feature","geometry":{"type":"LineString","coordinates":[[25.623757,45.6547359],[25.6239784,45.6542469]]},"properties":{"foot":"no","hgv":"no","highway":"secondary","lanes":"4","maxspeed":"50","name":"Bulevardul Alexandru Vlahuță","nat_ref":"DN1","oneway":"yes","ref":"DN1","smoothness":"excellent","surface":"asphalt","surface_survey":"2022MAY_","trolley_wire":"yes","turn:lanes":"left|through|through|right"}},{"type":"Feature","geometry":{"type":"LineString","coordinates":[[25.612121,45.6733788],[25.6119825,45.6733919],[25.6119678,45.6733933],[25.6117091,45.6734178],[25.6115077,45.6734368],[25.6108574,45.6734984],[25.6101551,45.6735649],[25.6099878,45.6735807],[25.6092874,45.673647],[25.6092621,45.6736494],[25.6091718,45.6736579]]},"properties":{"highway":"residential","horse":"no","lanes":"2","maxspeed":"50","maxweight":"3.5","name":"Strada Ioan Ursu","sidewalk":"both","surface":"asphalt"}},{"type":"Feature","geometry":{"type":"LineString","coordinates":[[25.5820143,45.6702341],[25.5799557,45.6705223],[25.5790274,45.6706523]]},"properties":{"highway":"residential","is_in:city":"Brașov","maxspeed":"RO:urban","maxweight":"3.5","name":"Strada Ecaterina Teodoroiu"}},{"type":"Feature","geometry":{"type":"LineString","coordinates":[[25.6344348,45.6655912],[25.6343198,45.665295],[25.6343394,45.6652418]]},"properties":{"foot":"no","highway":"tertiary","lanes":"3","lanes:backward":"1","lanes:forward":"2","maxheight":"3.3","maxspeed":"50","name":"Strada Timișul Sec","smoothness":"bad","surface":"asphalt","turn:lanes:backward":"through","turn:lanes:forward":"left|right"}},{"type":"Feature","geometry":{"type":"LineString","coordinates":[[25.6347797,45.6654319],[25.6349072,45.6654982]]},"properties":{"foot":"no","highway":"primary","lanes":"2","maxspeed":"50","maxweight":"3.5","name":"Strada Timișul Sec","surface":"asphalt"}},{"type":"Feature","geometry":{"type":"LineString","coordinates":[[25.6342049,45.6651906],[25.6343394,45.6652418]]},"properties":{"foot":"no","highway":"primary","lanes":"2","maxspeed":"50","maxweight":"3.5","name":"Strada Timișul Sec","surface":"asphalt"}},{"type":"Feature","geometry":{"type":"LineString","coordinates":[[25.6329341,45.6690258],[25.6334234,45.6691294]]},"properties":{"alt_name":"Drumul Coresi","bridge":"yes","highway":"secondary","lanes":"4","layer":"1","maxspeed":"50","maxweight":"10","name":"Strada Zaharia Stancu","smoothness":"good","surface":"asphalt","turn:lanes:forward":"left;through|through;right"}},{"type":"Feature","geometry":{"type":"LineString","coordinates":[[25.6164567,45.6549313],[25.6165361,45.654972]]},"properties":{"covered":"yes","highway":"service","maxheight":"4","oneway":"yes","surface":"asphalt"}},{"type":"Feature","geometry":{"type":"LineString","coordinates":[[25.6067242,45.6585158],[25.6067802,45.6586706],[25.6067915,45.6587088]]},"properties":{"cycleway:both":"lane","foot":"no","hgv":"no","highway":"secondary","lanes":"4","maxspeed":"RO:urban","name":"Strada 13 Decembrie","ref":"DJ103","surface":"asphalt","trolley_wire":"yes"}},{"type":"Feature","geometry":{"type":"LineString","coordinates":[[25.6056744,45.6555365],[25.6057637,45.6557801]]},"properties":{"cycleway:both":"lane","foot":"no","hgv":"no","highway":"secondary","lanes":"4","maxspeed":"RO:urban","name":"Strada 13 Decembrie","ref":"DJ103","surface":"asphalt","trolley_wire":"yes"}},{"type":"Feature","geometry":{"type":"LineString","coordinates":[[25.6054231,45.6548168],[25.605504,45.6550517]]},"properties":{"cycleway:both":"lane","foot":"no","hgv":"no","highway":"secondary","lanes":"4","maxspeed":"RO:urban","name":"Strada 13 Decembrie","ref":"DJ103","surface":"asphalt","trolley_wire":"yes"}},{"type":"Feature","geometry":{"type":"LineString","coordinates":[[25.6053024,45.6544493],[25.6054231,45.6548168]]},"properties":{"cycleway:both":"lane","foot":"no","hgv":"no","highway":"secondary","lanes":"4","maxspeed":"RO:urban","name":"Strada 13 Decembrie","ref":"DJ103","surface":"asphalt","trolley_wire":"yes"}},{"type":"Feature","geometry":{"type":"LineString","coordinates":[[25.6121492,45.673459],[25.6123184,45.6739327]]},"properties":{"cycleway:both":"lane","foot":"no","highway":"secondary","lanes":"4","lit":"yes","maxspeed":"RO:urban","maxweight":"10","name":"Strada 13 Decembrie","ref":"DJ103","smoothness":"excellent","surface":"asphalt","surface_survey":"2022MAY_","trolley_wire":"yes"}},{"type":"Feature","geometry":{"type":"LineString","coordinates":[[25.6120915,45.6732862],[25.612121,45.6733788]]},"properties":{"cycleway:both":"lane","foot":"no","highway":"secondary","lanes":"4","lit":"yes","maxspeed":"RO:urban","maxweight":"10","name":"Strada 13 Decembrie","ref":"DJ103","smoothness":"good","surface":"asphalt","surface_survey":"21JAN2010_owene","trolley_wire":"yes"}},{"type":"Feature","geometry":{"type":"LineString","coordinates":[[25.5983821,45.6665093],[25.5985966,45.6664922]]},"properties":{"highway":"secondary","lanes":"4","lit":"yes","maxspeed":"RO:urban","maxweight":"3.5","name":"Strada Independenței","surface":"asphalt"}},{"type":"Feature","geometry":{"type":"LineString","coordinates":[[25.5992372,45.6664458],[25.5993673,45.6664375],[25.5995368,45.6664268],[25.5998695,45.6664056]]},"properties":{"highway":"secondary","lanes":"4","maxspeed":"RO:urban","maxweight":"3.5","name":"Strada Independenței","surface":"asphalt"}},{"type":"Feature","geometry":{"type":"LineString","coordinates":[[25.6061656,45.665982],[25.6076177,45.6658842]]},"properties":{"highway":"secondary","lanes":"4","maxspeed":"RO:urban","maxweight":"3.5","name":"Strada Independenței","surface":"asphalt"}},{"type":"Feature","geometry":{"type":"LineString","coordinates":[[25.578303,45.6627103],[25.5783124,45.6626885],[25.5783673,45.6625634]]},"properties":{"access:lanes:forward":"yes|yes|no","bus:lanes:forward":"yes|yes|designated","cycleway:right":"lane","foot":"no","hgv":"no","highway":"secondary","lanes":"4","lanes:backward":"1","lanes:bus:forward":"1","lanes:forward":"3","lit":"yes","maxspeed":"50","name":"Strada Lungă","name:de":"Langgasse","name:hu":"Hosszú utca","smoothness":"excellent","surface":"asphalt","surface_survey":"2022MAY_"}},{"type":"Feature","geometry":{"type":"LineString","coordinates":[[25.6176991,45.6858026],[25.6178538,45.6860184]]},"properties":{"cycleway:both":"lane","foot":"no","highway":"secondary","lanes":"2","lit":"yes","maxspeed":"50","maxweight":"10","name":"Strada 13 Decembrie","ref":"DJ103","smoothness":"excellent","surface":"asphalt","surface_survey":"2022MAY_"}},{"type":"Feature","geometry":{"type":"LineString","coordinates":[[25.6178538,45.6860184],[25.6179011,45.6860826]]},"properties":{"cycleway:both":"lane","highway":"secondary","lanes":"2","lit":"yes","maxspeed":"50","maxweight":"10","name":"Strada 13 Decembrie","ref":"DJ103","smoothness":"good","surface":"asphalt","surface_survey":"21JAN2010_owene"}},{"type":"Feature","geometry":{"type":"LineString","coordinates":[[25.6139114,45.6783325],[25.6139582,45.6784664],[25.6140074,45.6786035]]},"properties":{"cycleway:both":"lane","foot":"no","highway":"secondary","lanes":"4","lit":"yes","maxspeed:backward":"50","maxspeed:forward":"30","maxweight":"10","name":"Strada 13 Decembrie","ref":"DJ103","smoothness":"good","surface":"asphalt","surface_survey":"21JAN2010_owene","trolley_wire":"yes"}},{"type":"Feature","geometry":{"type":"LineString","coordinates":[[25.6136747,45.6777084],[25.6136771,45.6777151],[25.6139114,45.6783325]]},"properties":{"cycleway:both":"lane","foot":"no","highway":"secondary","lanes":"4","lit":"yes","maxspeed":"50","maxweight":"10","name":"Strada 13 Decembrie","ref":"DJ103","smoothness":"good","surface":"asphalt","surface_survey":"21JAN2010_owene","trolley_wire":"yes"}},{"type":"Feature","geometry":{"type":"LineString","coordinates":[[25.6132871,45.6766181],[25.6134936,45.6771829],[25.6135822,45.677436],[25.6135964,45.6774767],[25.6136169,45.6775374],[25.6136747,45.6777084]]},"properties":{"cycleway:both":"lane","foot":"no","highway":"secondary","lanes":"4","lit":"yes","maxspeed":"50","maxweight":"10","name":"Strada 13 Decembrie","ref":"DJ103","smoothness":"good","surface":"asphalt","surface_survey":"21JAN2010_owene","trolley_wire":"yes"}},{"type":"Feature","geometry":{"type":"LineString","coordinates":[[25.646257,45.630407],[25.6465404,45.6304777]]},"properties":{"description":"Artera de sud-est","highway":"tertiary","lanes":"1","lit":"yes","maxheight":"4.5","maxspeed":"40","maxweight":"3.5","overtaking":"no","priority":"forward","smoothness":"intermediate","surface":"asphalt","surface_survey":"2022MAY_"}},{"type":"Feature","geometry":{"type":"LineString","coordinates":[[25.6465404,45.6304777],[25.6466512,45.6305071]]},"properties":{"description":"Artera de sud-est","highway":"tertiary","lanes":"1","layer":"-1","maxheight":"4.5","maxspeed":"40","maxweight":"3.5","overtaking":"no","priority":"forward","surface":"asphalt","tunnel":"yes"}},{"type":"Feature","geometry":{"type":"LineString","coordinates":[[25.6466512,45.6305071],[25.6467508,45.6305363]]},"properties":{"description":"Artera de sud-est","highway":"tertiary","lanes":"1","layer":"-1","maxheight":"4.5","maxspeed":"40","maxweight":"3.5","overtaking":"no","priority":"forward","smoothness":"intermediate","surface":"asphalt","surface_survey":"2022MAY_","tunnel":"yes"}},{"type":"Feature","geometry":{"type":"LineString","coordinates":[[25.6467508,45.6305363],[25.6468185,45.630559]]},"properties":{"description":"Artera de sud-est","highway":"tertiary","lanes":"1","layer":"-1","maxheight":"4.5","maxspeed":"40","maxweight":"3.5","overtaking":"no","priority":"forward","surface":"asphalt","tunnel":"yes"}},{"type":"Feature","geometry":{"type":"LineString","coordinates":[[25.6638447,45.6848733],[25.6642116,45.6850955],[25.6643572,45.6851847],[25.6646231,45.6853579]]},"properties":{"destination":"Bacău;Buzău;Târgu Secuiesc;Sfântu Gheorghe","destination:int_ref":"E 574","destination:ref":"DN11","highway":"trunk_link","int_ref":"E 574","lanes":"1","maxheight":"5.5","maxspeed":"50","nat_ref":"DN11","oneway":"yes","ref":"DN11","smoothness":"excellent","surface":"asphalt"}},{"type":"Feature","geometry":{"type":"LineString","coordinates":[[25.5869058,45.6393877],[25.5873347,45.6395684],[25.5875009,45.6396387],[25.5881594,45.6399174],[25.5882982,45.6399793],[25.5890878,45.6403202],[25.5897166,45.6405879],[25.5897898,45.6406219]]},"properties":{"hgv":"no","highway":"tertiary","lanes":"1","lit":"yes","maxspeed":"30","name":"Strada Poarta Schei","name:de":"Waisenhausgasse","name:hu":"Árvaház utca","oneway":"yes","sidewalk":"both","smoothness":"excellent","surface":"asphalt","surface_survey":"2022MAY_","wikidata":"Q34983761"}},{"type":"Feature","geometry":{"type":"LineString","coordinates":[[25.5866499,45.6392791],[25.5869058,45.6393877]]},"properties":{"hgv":"no","highway":"tertiary","lanes":"1","lit":"yes","maxspeed":"30","name":"Strada Poarta Schei","name:de":"Waisenhausgasse","name:hu":"Árvaház utca","oneway":"yes","sidewalk":"both","smoothness":"excellent","surface":"asphalt","surface_survey":"2022MAY_","wikidata":"Q34983761"}},{"type":"Feature","geometry":{"type":"LineString","coordinates":[[25.6142088,45.6789937],[25.6142092,45.679051],[25.6142289,45.6792328]]},"properties":{"cycleway:right":"lane","foot":"no","highway":"secondary","lanes":"2","lit":"yes","maxspeed":"30","maxweight":"10","name":"Strada 13 Decembrie","oneway":"yes","oneway_type":"roundabout_flare","ref":"DJ103","smoothness":"good","surface":"asphalt","surface_survey":"21JAN2010_owene","trolley_wire":"yes"}},{"type":"Feature","geometry":{"type":"LineString","coordinates":[[25.6142289,45.6792328],[25.6141106,45.6791099],[25.6140649,45.6790363]]},"properties":{"cycleway:right":"lane","foot":"no","highway":"secondary","lanes":"2","lit":"yes","maxspeed":"30","maxweight":"10","name":"Strada 13 Decembrie","oneway":"yes","oneway_type":"roundabout_flare","ref":"DJ103","smoothness":"good","surface":"asphalt","surface_survey":"21JAN2010_owene","trolley_wire":"yes"}},{"type":"Feature","geometry":{"type":"LineString","coordinates":[[25.6140136,45.6788313],[25.6140178,45.6787316],[25.6140074,45.6786035]]},"properties":{"cycleway:right":"lane","foot":"no","highway":"secondary","lanes":"2","lit":"yes","maxspeed":"30","maxweight":"10","name":"Strada 13 Decembrie","oneway":"yes","oneway_type":"roundabout_flare","ref":"DJ103","smoothness":"good","surface":"asphalt","surface_survey":"21JAN2010_owene","trolley_wire":"yes"}},{"type":"Feature","geometry":{"type":"LineString","coordinates":[[25.6140074,45.6786035],[25.6141302,45.6787638],[25.6141863,45.6788461]]},"properties":{"cycleway:right":"lane","foot":"no","highway":"secondary","lanes":"2","lit":"yes","maxspeed":"30","maxweight":"10","name":"Strada 13 Decembrie","oneway":"yes","oneway_type":"roundabout_flare","ref":"DJ103","smoothness":"good","surface":"asphalt","surface_survey":"21JAN2010_owene","trolley_wire":"yes"}},{"type":"Feature","geometry":{"type":"LineString","coordinates":[[25.6139435,45.6789748],[25.613882,45.6789382],[25.6137829,45.6789071],[25.613703,45.6788835]]},"properties":{"highway":"residential","lit":"yes","maxspeed":"30","maxweight":"3.5","name":"Strada Nicolae Labiș","oneway":"yes","oneway_type":"roundabout_flare","surface":"asphalt"}},{"type":"Feature","geometry":{"type":"LineString","coordinates":[[25.6141863,45.6788461],[25.6142116,45.6788656],[25.6142295,45.6788888],[25.6142388,45.6789143],[25.6142387,45.6789427],[25.6142281,45.6789701],[25.6142088,45.6789937]]},"properties":{"cycleway:right":"lane","foot":"no","highway":"secondary","junction":"roundabout","lanes":"2","lit":"yes","maxspeed":"30","maxweight":"10","name":"Strada 13 Decembrie","ref":"DJ103","smoothness":"good","surface":"asphalt","surface_survey":"21JAN2010_owene","trolley_wire":"yes"}},{"type":"Feature","geometry":{"type":"LineString","coordinates":[[25.6001245,45.6799134],[25.6002602,45.6799027],[25.6010113,45.6798433],[25.6012385,45.6798253],[25.601691,45.6797895],[25.6018434,45.6797775],[25.6021723,45.6797515],[25.602333,45.6797387],[25.6027797,45.6797034],[25.6028962,45.6796942],[25.6030786,45.6796798],[25.6032308,45.6796677],[25.6033151,45.6796611],[25.6036528,45.6796344],[25.6038196,45.6796212],[25.6038407,45.6796195],[25.6038964,45.6796151],[25.6041837,45.6795924],[25.604586,45.6795605],[25.6047251,45.6795495],[25.6049066,45.6795352],[25.6050342,45.6795251],[25.6050959,45.6795202],[25.6051309,45.6795174],[25.6057458,45.6794688]]},"properties":{"highway":"residential","lanes":"2","lit":"yes","maxspeed":"50","maxweight":"3.5","name":"Strada Nicolae Labiș","sidewalk":"no","surface":"asphalt"}},{"type":"Feature","geometry":{"type":"LineString","coordinates":[[25.6355435,45.6657941],[25.6355597,45.6657745],[25.6355839,45.6657594],[25.6356137,45.6657504],[25.635646,45.6657485],[25.6356775,45.6657537],[25.6356913,45.6657597],[25.6357051,45.6657656],[25.6357259,45.665783],[25.6357378,45.6658041],[25.6357396,45.6658267],[25.6357311,45.6658486],[25.6357117,45.6658686]]},"properties":{"highway":"primary","junction":"roundabout","maxspeed":"30","maxweight":"3.5","surface":"asphalt"}},{"type":"Feature","geometry":{"type":"LineString","coordinates":[[25.6149405,45.6811556],[25.6149679,45.6812264]]},"properties":{"cycleway:both":"lane","foot":"no","highway":"secondary","lanes":"4","lit":"yes","maxspeed":"50","maxweight":"10","name":"Strada 13 Decembrie","ref":"DJ103","smoothness":"good","surface":"asphalt","surface_survey":"21JAN2010_owene","trolley_wire":"yes"}},{"type":"Feature","geometry":{"type":"LineString","coordinates":[[25.6136735,45.6710929],[25.612428,45.6712621]]},"properties":{"alt_name":"Drumul Coresi","foot":"no","highway":"secondary","lanes":"2","lit":"yes","maxspeed":"RO:urban","maxweight":"10","name":"Strada Zaharia Stancu","oneway":"yes","smoothness":"excellent","surface":"asphalt","surface_survey":"2022MAY_"}},{"type":"Feature","geometry":{"type":"LineString","coordinates":[[25.6180624,45.6744831],[25.6178666,45.6745214],[25.6172204,45.6746347],[25.6167519,45.6747198],[25.6159441,45.6748698],[25.6156445,45.6749151],[25.6154189,45.6749479],[25.6150735,45.6749954],[25.6145376,45.6750727],[25.6143898,45.6750936],[25.6132435,45.6752559]]},"properties":{"highway":"unclassified","lanes":"2","lit":"yes","maxspeed":"50","maxweight":"10","name":"Strada Henri Coandă","smoothness":"intermediate","surface":"asphalt","surface_survey":"2022MAY_"}},{"type":"Feature","geometry":{"type":"LineString","coordinates":[[25.6084404,45.6631418],[25.6084831,45.6632581]]},"properties":{"foot":"no","highway":"secondary","lanes":"5","lanes:backward":"2","lanes:forward":"3","maxspeed":"50","maxweight":"3.5","name":"Strada 13 Decembrie","ref":"DJ103","smoothness":"excellent","surface":"asphalt","surface_survey":"2022MAY_","trolley_wire":"yes"}},{"type":"Feature","geometry":{"type":"LineString","coordinates":[[25.6078828,45.6616904],[25.6079024,45.6617385]]},"properties":{"foot":"no","highway":"secondary","lanes":"5","lanes:backward":"2","lanes:forward":"3","maxspeed":"50","maxweight":"3.5","name":"Strada 13 Decembrie","ref":"DJ103","smoothness":"excellent","surface":"asphalt","surface_survey":"2022MAY_","trolley_wire":"yes"}},{"type":"Feature","geometry":{"type":"LineString","coordinates":[[25.6079024,45.6617385],[25.6080792,45.6618576],[25.6084799,45.6629565],[25.6084404,45.6631418]]},"properties":{"foot":"no","highway":"secondary","lanes":"1","maxheight":"3.8","maxspeed":"50","maxweight":"3.5","name":"Strada 13 Decembrie","oneway":"yes","ref":"DJ103","smoothness":"excellent","surface":"asphalt","surface_survey":"2022MAY_","trolley_wire":"yes"}},{"type":"Feature","geometry":{"type":"LineString","coordinates":[[25.587613,45.6511006],[25.5876278,45.6511843],[25.5876196,45.6512926],[25.5874076,45.6521051],[25.5872492,45.6526011],[25.5872198,45.6527105],[25.5872035,45.6529742]]},"properties":{"cycleway:right":"lane","hgv":"no","highway":"secondary","lanes":"1","maxspeed":"50","name":"Strada De Mijloc","name:de":"Mittelgasse","name:hu":"Közép utca","oneway":"yes","smoothness":"excellent","surface":"asphalt","surface_survey":"2022MAY_"}},{"type":"Feature","geometry":{"type":"LineString","coordinates":[[25.5874212,45.6505508],[25.5874247,45.6505919],[25.5874347,45.6506643],[25.587476,45.6507918],[25.5875703,45.6510037],[25.587613,45.6511006]]},"properties":{"cycleway:right":"lane","hgv":"no","highway":"secondary","lanes":"1","maxspeed":"50","name":"Strada De Mijloc","name:de":"Mittelgasse","name:hu":"Közép utca","oneway":"yes","smoothness":"excellent","surface":"asphalt","surface_survey":"2022MAY_"}},{"type":"Feature","geometry":{"type":"LineString","coordinates":[[25.5932932,45.6412848],[25.5927341,45.6409992],[25.5920776,45.6406935],[25.5920266,45.6406684],[25.5919214,45.6406166],[25.5917401,45.6405204],[25.5914174,45.6403338],[25.5913275,45.6402818],[25.5911897,45.640188],[25.5910192,45.6400629],[25.5909857,45.6400393],[25.590872,45.6399593],[25.5907647,45.6398918],[25.5907271,45.6398674],[25.5906273,45.6398038]]},"properties":{"access":"yes","bicycle":"yes","foot":"yes","hgv":"no","highway":"residential","is_in:city":"Brașov","lanes":"2","maxspeed":"30","motor_vehicle":"yes","name":"Strada Castelului","name:de":"Burggasse","name:hu":"Vár utca","oneway":"yes","surface":"asphalt"}},{"type":"Feature","geometry":{"type":"LineString","coordinates":[[25.6461236,45.6735359],[25.6461831,45.6737519],[25.646206,45.6738092]]},"properties":{"hgv":"yes","highway":"secondary","lanes":"2","lit":"yes","maxheight":"4.5","maxspeed":"60","name":"Fundătura Hărmanului","postal_code":"500240","surface":"asphalt"}},{"type":"Feature","geometry":{"type":"LineString","coordinates":[[25.5980268,45.6711182],[25.5969016,45.6712022],[25.5964126,45.6712414],[25.5963232,45.6712488]]},"properties":{"highway":"tertiary","lit":"yes","maxspeed":"RO:urban","maxweight":"3.5","name":"Strada Ioan V. Socec","surface":"asphalt"}},{"type":"Feature","geometry":{"type":"LineString","coordinates":[[25.59959,45.6710125],[25.5994363,45.6710233],[25.5986861,45.671076],[25.5980268,45.6711182]]},"properties":{"highway":"tertiary","lit":"yes","maxspeed":"RO:urban","maxweight":"3.5","name":"Strada Ioan V. Socec","surface":"asphalt"}},{"type":"Feature","geometry":{"type":"LineString","coordinates":[[25.5871503,45.6647653],[25.5869582,45.6644115],[25.5871159,45.6641249],[25.5875546,45.6642428],[25.587646,45.6642673],[25.5880735,45.6643822],[25.5882355,45.6644277],[25.5886957,45.6645488],[25.5884546,45.6649793],[25.5883846,45.6651043],[25.5882761,45.6653086],[25.5879766,45.6658797],[25.5879637,45.6659034],[25.5879279,45.6659691]]},"properties":{"highway":"residential","maxheight":"3.3","maxspeed":"15","maxweight":"3.5","name":"Strada Stadionului"}},{"type":"Feature","geometry":{"type":"LineString","coordinates":[[25.6509382,45.6686399],[25.6516901,45.6688802],[25.6524543,45.6691055],[25.6534639,45.6693897],[25.654039,45.66957],[25.6567377,45.6703833]]},"properties":{"highway":"service","maxweight":"3.5","name":"Strada Timiș Triaj","smoothness":"bad","surface":"gravel"}},{"type":"Feature","geometry":{"type":"LineString","coordinates":[[25.6327048,45.6328344],[25.6326824,45.6329807]]},"properties":{"covered":"yes","highway":"service","maxheight":"default","name":"Stația RAT Roman - Peron 6","oneway":"yes","psv":"designated","surface":"asphalt","trolley_wire":"yes"}},{"type":"Feature","geometry":{"type":"LineString","coordinates":[[25.6322246,45.6327532],[25.6322212,45.632812],[25.6322185,45.6328588]]},"properties":{"covered":"yes","highway":"service","maxheight":"default","name":"Stația RAT Roman - Peron 1","oneway":"yes","psv":"designated","surface":"asphalt"}},{"type":"Feature","geometry":{"type":"LineString","coordinates":[[25.6323275,45.6328038],[25.6323233,45.6328646],[25.6323204,45.6329067]]},"properties":{"covered":"yes","highway":"service","maxheight":"default","name":"Stația RAT Roman - Peron 2","oneway":"yes","psv":"designated","surface":"asphalt"}},{"type":"Feature","geometry":{"type":"LineString","coordinates":[[25.6324221,45.6328526],[25.6324169,45.6329128],[25.6324135,45.6329523]]},"properties":{"covered":"yes","highway":"service","maxheight":"default","name":"Stația RAT Roman - Peron 3","oneway":"yes","psv":"designated","surface":"asphalt"}},{"type":"Feature","geometry":{"type":"LineString","coordinates":[[25.632516,45.6328965],[25.63251,45.6329607],[25.6325058,45.6330048]]},"properties":{"covered":"yes","highway":"service","maxheight":"default","name":"Stația RAT Roman - Peron 4","oneway":"yes","psv":"designated","surface":"asphalt"}},{"type":"Feature","geometry":{"type":"LineString","coordinates":[[25.6326008,45.6329405],[25.6325918,45.6330029],[25.6325861,45.6330427]]},"properties":{"covered":"yes","highway":"service","maxheight":"default","name":"Stația RAT Roman - Peron 5","oneway":"yes","psv":"designated","surface":"asphalt"}},{"type":"Feature","geometry":{"type":"LineString","coordinates":[[25.6326824,45.6329807],[25.6326727,45.6330445],[25.6326677,45.6330771]]},"properties":{"covered":"yes","highway":"service","maxheight":"default","name":"Stația RAT Roman - Peron 6","oneway":"yes","psv":"designated","surface":"asphalt","trolley_wire":"yes"}},{"type":"Feature","geometry":{"type":"LineString","coordinates":[[25.5685926,45.6593131],[25.5685876,45.6594053],[25.5686023,45.6594743],[25.5686497,45.6595522],[25.5687107,45.6596118],[25.5687996,45.6596705],[25.5688782,45.6597099]]},"properties":{"highway":"residential","lanes":"2","maxspeed":"RO:urban","maxweight":"3.5","name":"Stația Stadionul Municipal","surface":"asphalt"}},{"type":"Feature","geometry":{"type":"LineString","coordinates":[[25.6149679,45.6812264],[25.6151332,45.6816365]]},"properties":{"cycleway:both":"lane","foot":"no","highway":"secondary","lanes":"4","lit":"yes","maxspeed":"50","maxweight":"10","name":"Strada 13 Decembrie","ref":"DJ103","smoothness":"good","surface":"asphalt","surface_survey":"21JAN2010_owene","trolley_wire":"yes"}},{"type":"Feature","geometry":{"type":"LineString","coordinates":[[25.5695059,45.6862625],[25.5694326,45.6863683],[25.5690822,45.6868736],[25.5690268,45.6869506],[25.5688593,45.6871819],[25.5687321,45.6873711]]},"properties":{"highway":"tertiary","lanes":"2","lit":"yes","maxspeed":"50","maxweight":"3.5","name":"Strada Plugarilor","smoothness":"good","source":"survey","surface":"asphalt","surface_survey":"2019MAY_asfalt curat"}},{"type":"Feature","geometry":{"type":"LineString","coordinates":[[25.5963232,45.6712488],[25.5951144,45.6713152],[25.5946282,45.6713458],[25.5945077,45.6713534],[25.5939169,45.6713964],[25.5932674,45.6714431],[25.5931701,45.6714536],[25.5931056,45.6714709]]},"properties":{"highway":"tertiary","lit":"yes","maxspeed":"RO:urban","maxweight":"3.5","name":"Strada Ioan V. Socec","surface":"asphalt"}},{"type":"Feature","geometry":{"type":"LineString","coordinates":[[25.6128056,45.6741301],[25.6126461,45.6741543],[25.6126519,45.6741723]]},"properties":{"covered":"yes","highway":"service","lit":"yes","maxspeed":"5","maxweight":"3.5","oneway":"yes","surface":"paving_stones","tunnel":"covered"}},{"type":"Feature","geometry":{"type":"LineString","coordinates":[[25.6127098,45.6743665],[25.6126269,45.6743912],[25.6125038,45.6744413]]},"properties":{"highway":"service","lit":"yes","maxspeed":"5","maxweight":"3.5","surface":"asphalt"}},{"type":"Feature","geometry":{"type":"LineString","coordinates":[[25.6127098,45.6743665],[25.6128671,45.6743438],[25.6142015,45.6741579],[25.6148271,45.6740669]]},"properties":{"highway":"service","maxspeed":"10","maxweight":"3.5"}},{"type":"Feature","geometry":{"type":"LineString","coordinates":[[25.6001823,45.6755422],[25.6002858,45.6755342],[25.6004416,45.6755221],[25.6007122,45.6755012],[25.6009104,45.6754859],[25.6012686,45.6754582],[25.601361,45.675451],[25.6017066,45.6754243],[25.6017903,45.6754178],[25.6018968,45.6754096],[25.6024476,45.675367],[25.602593,45.6753558],[25.6026846,45.6753487],[25.6027685,45.6753422],[25.6027822,45.6753413],[25.6029714,45.6753265]]},"properties":{"highway":"residential","lanes":"2","lit":"yes","maxspeed":"50","maxweight":"3.5","name":"Strada Ioan Popasu","surface":"asphalt"}},{"type":"Feature","geometry":{"type":"LineString","coordinates":[[25.5991434,45.6754637],[25.5992004,45.6754591],[25.5995843,45.6754285],[25.5995778,45.6753839]]},"properties":{"access":"private","foot":"permissive","highway":"service","maxheight":"2","motor_vehicle":"private","surface":"asphalt"}},{"type":"Feature","geometry":{"type":"LineString","coordinates":[[25.5987947,45.6735281],[25.5989283,45.6735203],[25.5993008,45.6734958],[25.5993044,45.6735324]]},"properties":{"access":"private","foot":"permissive","highway":"service","maxheight":"2","motor_vehicle":"private","surface":"asphalt"}},{"type":"Feature","geometry":{"type":"LineString","coordinates":[[25.6395711,45.6701944],[25.6390677,45.6699048],[25.6385987,45.6696349],[25.6385206,45.6695899],[25.63848,45.6695687]]},"properties":{"change":"yes","foot":"no","highway":"primary","int_ref":"E 574","lanes":"4","maxspeed":"60","maxweight":"10","name":"Strada Hărmanului","nat_ref":"DN11","overtaking":"no","ref":"DN11","smoothness":"excellent","surface":"asphalt","surface_survey":"2022MAY_","trolley_wire":"yes","turn:lanes:forward":"through|through;right"}},{"type":"Feature","geometry":{"type":"LineString","coordinates":[[25.6121067,45.6713204],[25.6120337,45.6713363],[25.6119563,45.6713665],[25.611815,45.6714267]]},"properties":{"alt_name":"Drumul Coresi","cycleway:right":"lane","foot":"no","highway":"secondary","lanes":"2","lit":"yes","maxspeed":"RO:urban","maxweight":"10","name":"Strada Zaharia Stancu","oneway":"yes","smoothness":"excellent","surface":"asphalt","surface_survey":"2022MAY_"}},{"type":"Feature","geometry":{"type":"LineString","coordinates":[[25.5681373,45.688213],[25.5680028,45.6883301],[25.5678597,45.6885006],[25.5678414,45.6885223],[25.5677372,45.6886464],[25.5676702,45.6887262],[25.5676108,45.6887969]]},"properties":{"highway":"tertiary","lanes":"2","lit":"yes","maxspeed:backward":"30","maxspeed:forward":"50","maxweight":"3.5","name":"Strada Plugarilor","smoothness":"good","source":"survey","surface":"asphalt","surface_survey":"2019MAY_asfalt curat"}},{"type":"Feature","geometry":{"type":"LineString","coordinates":[[25.5687321,45.6873711],[25.5684402,45.6878042],[25.5684415,45.687888]]},"properties":{"highway":"tertiary","lanes":"2","lit":"yes","maxspeed:backward":"50","maxspeed:forward":"30","maxweight":"3.5","name":"Strada Plugarilor","smoothness":"good","source":"survey","surface":"asphalt","surface_survey":"2019MAY_asfalt curat"}},{"type":"Feature","geometry":{"type":"LineString","coordinates":[[25.5819018,45.6832147],[25.5820225,45.683744],[25.5820978,45.6841347],[25.5821861,45.6845934]]},"properties":{"highway":"secondary","lanes":"3","lanes:backward":"1","lanes:forward":"2","maxspeed":"50","maxweight":"10","name":"Calea Feldioarei","surface":"asphalt"}},{"type":"Feature","geometry":{"type":"LineString","coordinates":[[25.5829832,45.6840467],[25.5829006,45.6840945],[25.5827655,45.6843026],[25.5824797,45.6842069]]},"properties":{"highway":"service","maxheight":"4.5","oneway":"yes"}},{"type":"Feature","geometry":{"type":"LineString","coordinates":[[25.6565049,45.6806509],[25.6558959,45.680287],[25.6551301,45.6798295],[25.6536218,45.6789282]]},"properties":{"change":"yes","change:lanes":"yes|yes","highway":"primary","int_ref":"E 574","lanes":"2","maxheight":"3.8","maxspeed":"60","name":"Strada Hărmanului","nat_ref":"DN11","oneway":"yes","ref":"DN11","smoothness":"excellent","surface":"asphalt","surface_survey":"2020SEP_"}},{"type":"Feature","geometry":{"type":"LineString","coordinates":[[25.643568,45.6725335],[25.6441104,45.6728337]]},"properties":{"change":"yes","foot":"no","highway":"primary","int_ref":"E 574","lanes":"4","lit":"yes","maxspeed":"60","maxweight":"10","name":"Strada Hărmanului","nat_ref":"DN11","overtaking":"no","ref":"DN11","smoothness":"excellent","surface":"asphalt","surface_survey":"2022MAY_","trolley_wire":"yes"}},{"type":"Feature","geometry":{"type":"LineString","coordinates":[[25.6434797,45.6724839],[25.643568,45.6725335]]},"properties":{"change":"yes","highway":"primary","int_ref":"E 574","lanes":"4","lit":"yes","maxspeed":"60","maxweight":"10","name":"Strada Hărmanului","nat_ref":"DN11","overtaking":"no","ref":"DN11","smoothness":"excellent","surface":"asphalt","surface_survey":"2022MAY_","trolley_wire":"yes"}},{"type":"Feature","geometry":{"type":"LineString","coordinates":[[25.6428965,45.6721349],[25.6434797,45.6724839]]},"properties":{"change":"yes","foot":"no","highway":"primary","int_ref":"E 574","lanes":"4","lit":"yes","maxspeed":"60","maxweight":"10","name":"Strada Hărmanului","nat_ref":"DN11","overtaking":"no","ref":"DN11","smoothness":"excellent","surface":"asphalt","surface_survey":"2022MAY_","trolley_wire":"yes"}},{"type":"Feature","geometry":{"type":"LineString","coordinates":[[25.6425853,45.6719544],[25.6428965,45.6721349]]},"properties":{"change":"yes","foot":"no","highway":"primary","int_ref":"E 574","lanes":"4","lit":"yes","maxspeed":"60","maxweight":"10","name":"Strada Hărmanului","nat_ref":"DN11","overtaking":"no","ref":"DN11","smoothness":"excellent","surface":"asphalt","surface_survey":"2022MAY_","trolley_wire":"yes"}},{"type":"Feature","geometry":{"type":"LineString","coordinates":[[25.6441104,45.6728337],[25.6441474,45.6728535]]},"properties":{"change":"yes","foot":"no","highway":"primary","int_ref":"E 574","lanes":"4","lit":"yes","maxspeed":"60","maxweight":"10","name":"Strada Hărmanului","nat_ref":"DN11","overtaking":"no","ref":"DN11","smoothness":"excellent","surface":"asphalt","surface_survey":"2022MAY_","trolley_wire":"yes"}},{"type":"Feature","geometry":{"type":"LineString","coordinates":[[25.6441474,45.6728535],[25.6446343,45.673125],[25.6451943,45.6734516]]},"properties":{"change":"yes","foot":"no","highway":"primary","int_ref":"E 574","lanes":"4","lit":"yes","maxspeed":"60","maxweight":"10","name":"Strada Hărmanului","nat_ref":"DN11","overtaking":"no","ref":"DN11","smoothness":"excellent","surface":"asphalt","surface_survey":"2022MAY_","trolley_wire":"yes"}},{"type":"Feature","geometry":{"type":"LineString","coordinates":[[25.63783,45.6675477],[25.6378926,45.6675819],[25.6379888,45.66763],[25.6380334,45.667654]]},"properties":{"hgv":"yes","highway":"secondary","lanes":"2","maxheight":"4","maxspeed":"20","name":"Fundătura Hărmanului","postal_code":"500240","smoothness":"intermediate","surface":"asphalt","surface_survey":"2022MAY_"}},{"type":"Feature","geometry":{"type":"LineString","coordinates":[[25.6418207,45.6658434],[25.644248,45.6666319],[25.6447621,45.6667979]]},"properties":{"highway":"service","maxweight":"3.5","name":"Strada Timiș Triaj","smoothness":"bad","surface":"asphalt"}},{"type":"Feature","geometry":{"type":"LineString","coordinates":[[25.6447621,45.6667979],[25.6449459,45.6668573],[25.6451729,45.6669145]]},"properties":{"highway":"service","maxheight":"4","maxweight":"3.5","name":"Strada Timiș Triaj","smoothness":"bad","surface":"asphalt"}},{"type":"Feature","geometry":{"type":"LineString","coordinates":[[25.6451729,45.6669145],[25.6468589,45.6674368],[25.6489489,45.6680736],[25.6497201,45.6682506],[25.6507067,45.6685659],[25.6509382,45.6686399]]},"properties":{"highway":"service","maxweight":"3.5","name":"Strada Timiș Triaj","smoothness":"bad","surface":"asphalt"}},{"type":"Feature","geometry":{"type":"LineString","coordinates":[[25.6425176,45.6655879],[25.642585,45.6655507],[25.6426294,45.6655177],[25.6426706,45.6654871],[25.6427002,45.6654624],[25.6427294,45.6654396],[25.6428283,45.6653914]]},"properties":{"highway":"service","maxheight":"4","maxspeed":"50","name":"Strada Timiș Triaj","surface":"asphalt"}},{"type":"Feature","geometry":{"type":"LineString","coordinates":[[25.6423289,45.6718057],[25.6425853,45.6719544]]},"properties":{"change":"yes","foot":"no","highway":"primary","int_ref":"E 574","lanes":"4","lit":"yes","maxspeed":"60","maxweight":"10","name":"Strada Hărmanului","nat_ref":"DN11","overtaking":"no","ref":"DN11","smoothness":"excellent","surface":"asphalt","surface_survey":"2022MAY_","trolley_wire":"yes"}},{"type":"Feature","geometry":{"type":"LineString","coordinates":[[25.6417441,45.6714746],[25.6423289,45.6718057]]},"properties":{"change":"yes","foot":"no","highway":"primary","int_ref":"E 574","lanes":"4","lit":"yes","maxspeed":"60","maxweight":"10","name":"Strada Hărmanului","nat_ref":"DN11","overtaking":"no","ref":"DN11","smoothness":"excellent","surface":"asphalt","surface_survey":"2022MAY_","trolley_wire":"yes"}},{"type":"Feature","geometry":{"type":"LineString","coordinates":[[25.5963391,45.6432081],[25.5964677,45.6432839],[25.5965147,45.6433128],[25.5969758,45.6435957],[25.5970401,45.6436383]]},"properties":{"hgv":"no","highway":"tertiary","lanes":"2","lit":"yes","maxspeed":"50","name":"Strada Nicolae Bălcescu","name:de":"Schwarzgasse","name:hu":"Fekete utca","oneway":"yes","sidewalk":"both","smoothness":"excellent","surface":"asphalt","surface_survey":"2022MAY_","wikidata":"Q34725295"}},{"type":"Feature","geometry":{"type":"LineString","coordinates":[[25.606661,45.6418159],[25.6065644,45.6418596],[25.6062217,45.6419836],[25.6060558,45.6420322],[25.6059022,45.6420732],[25.6056727,45.6421255],[25.6053239,45.6421966],[25.6050095,45.642237],[25.6047853,45.642241],[25.6044384,45.6422449],[25.6040948,45.6422563],[25.6037786,45.6422878],[25.6035479,45.6423259],[25.6031807,45.6424438],[25.6028981,45.6425383],[25.6028093,45.6425592],[25.6027098,45.6425716]]},"properties":{"highway":"tertiary","lanes":"2","maxspeed":"30","maxweight":"3.5","name":"Strada Constantin Dobrogeanu Gherea","smoothness":"good","surface":"asphalt","surface_survey":"2022MAY_"}},{"type":"Feature","geometry":{"type":"LineString","coordinates":[[25.6076903,45.6411564],[25.6074446,45.6413097],[25.6071674,45.641491],[25.6071143,45.641527],[25.6069324,45.6416554],[25.6068473,45.6417139],[25.6067542,45.6417681],[25.606661,45.6418159]]},"properties":{"highway":"tertiary","lanes":"2","maxspeed":"30","maxweight":"3.5","name":"Strada Constantin Dobrogeanu Gherea","narrow":"yes","priority":"forward","smoothness":"good","surface":"asphalt","surface_survey":"2022MAY_"}},{"type":"Feature","geometry":{"type":"LineString","coordinates":[[25.608316,45.6403446],[25.6083744,45.6406369],[25.6083769,45.6406629],[25.6083822,45.6407186],[25.6083684,45.6407687],[25.608335,45.6408138],[25.608271,45.640854],[25.6081479,45.6409094],[25.6080349,45.6409547],[25.6079604,45.6409876],[25.607936,45.6410031],[25.6076903,45.6411564]]},"properties":{"highway":"tertiary","lanes":"2","maxspeed":"30","maxweight":"3.5","name":"Strada Constantin Dobrogeanu Gherea","smoothness":"good","surface":"asphalt","surface_survey":"2022MAY_"}},{"type":"Feature","geometry":{"type":"LineString","coordinates":[[25.6138079,45.660537],[25.6138426,45.6606446]]},"properties":{"highway":"service","lanes":"3","maxspeed":"30","maxweight":"1.5","oneway":"yes","surface":"asphalt"}},{"type":"Feature","geometry":{"type":"LineString","coordinates":[[25.6140433,45.6602818],[25.6138979,45.6603027],[25.613795,45.6602884]]},"properties":{"highway":"service","maxheight":"2","maxspeed":"5"}},{"type":"Feature","geometry":{"type":"LineString","coordinates":[[25.5937265,45.6761231],[25.5940766,45.6760984],[25.5944002,45.676074],[25.5953061,45.6760128],[25.5953141,45.6759838],[25.5953542,45.6759528],[25.5954171,45.6759265],[25.5956173,45.6758787],[25.5961871,45.6758007],[25.596797,45.6757465],[25.5969576,45.6757378],[25.5974371,45.6756944],[25.5979515,45.6756626],[25.5983914,45.675629],[25.5984662,45.6756227],[25.5986664,45.6756151],[25.5987518,45.6756169],[25.5988715,45.6756243],[25.5989058,45.6756277],[25.5990902,45.6756106],[25.5991638,45.6756041],[25.5996397,45.6755692],[25.600076,45.6755459],[25.600113,45.6755435],[25.6001823,45.6755422]]},"properties":{"highway":"residential","lanes":"2","lit":"yes","maxspeed":"50","maxweight":"3.5","name":"Strada Ioan Popasu","surface":"asphalt"}},{"type":"Feature","geometry":{"type":"LineString","coordinates":[[25.5910908,45.6659794],[25.5909898,45.6658824],[25.5909452,45.6658396],[25.5908375,45.6657821],[25.5906392,45.6656734]]},"properties":{"highway":"service","lanes":"2","maxheight":"3.3","maxspeed":"15","maxweight":"3.5","oneway":"yes","surface":"asphalt"}},{"type":"Feature","geometry":{"type":"LineString","coordinates":[[25.5882102,45.6576454],[25.5881807,45.6576648],[25.5879569,45.6578061],[25.5874889,45.6580795],[25.5873182,45.6581815],[25.5872364,45.6582445],[25.5870298,45.6584098],[25.5868275,45.6586257],[25.5867682,45.6586845],[25.5864854,45.6589947],[25.5864016,45.6590945],[25.5863443,45.6591648],[25.5860115,45.6596582],[25.585958,45.6597275]]},"properties":{"hgv":"no","highway":"tertiary","lanes":"2","maxspeed":"50","maxweight":"3.5","name":"Strada Avram Iancu","name:de":"Hintergasse","name:hu":"Hátulsó utca","smoothness":"good","surface":"asphalt","surface_survey":"2022MAY_"}},{"type":"Feature","geometry":{"type":"LineString","coordinates":[[25.6596199,45.6133262],[25.65969,45.6133107],[25.6597565,45.613296],[25.6602675,45.6131569],[25.6607319,45.6130273],[25.6609436,45.6129669],[25.6611149,45.6129245],[25.6612187,45.612907],[25.6613144,45.6128951],[25.661435,45.6128876],[25.6616883,45.6128795],[25.662013,45.6128777],[25.6625097,45.6128685],[25.6626071,45.6128667],[25.6632354,45.6128539],[25.6635566,45.6128489],[25.6637517,45.6128424],[25.6643396,45.6128214],[25.6650745,45.6127914],[25.6652118,45.6127847],[25.6654813,45.6127696],[25.6658271,45.6127545],[25.6661225,45.6127393],[25.6664229,45.6127187],[25.6667157,45.6126878],[25.6670875,45.6126414],[25.6672967,45.6126215],[25.6675044,45.6126047],[25.6676829,45.6125978],[25.6678804,45.612599],[25.6680659,45.612612],[25.6682766,45.6126382],[25.6684504,45.6126591]]},"properties":{"highway":"secondary","horse":"no","lanes":"2","maxspeed":"50","maxweight":"5","name":"Bulevardul Brașovului","smoothness":"intermediate","source":"Bing , survey","surface":"asphalt","surface_survey":"24JAN2010_owene"}},{"type":"Feature","geometry":{"type":"LineString","coordinates":[[25.5971232,45.6625022],[25.5971171,45.6624658],[25.5971143,45.6624456],[25.5970417,45.6618908],[25.5969967,45.6616033]]},"properties":{"highway":"residential","lanes":"2","maxspeed":"RO:urban","maxweight":"3.5","name":"Strada Albă","surface":"asphalt"}},{"type":"Feature","geometry":{"type":"LineString","coordinates":[[25.6207623,45.6275696],[25.6206211,45.6275004],[25.6201936,45.6275186]]},"properties":{"access":"private","highway":"service","maxheight":"4.5","maxspeed":"15"}},{"type":"Feature","geometry":{"type":"LineString","coordinates":[[25.6208206,45.6275981],[25.6207623,45.6275696]]},"properties":{"highway":"service","maxheight":"4.5","maxspeed":"15"}},{"type":"Feature","geometry":{"type":"LineString","coordinates":[[25.6142289,45.6792328],[25.6143386,45.6795195]]},"properties":{"cycleway:both":"lane","foot":"no","highway":"secondary","lanes":"4","lit":"yes","maxspeed:backward":"30","maxspeed:forward":"50","maxweight":"10","name":"Strada 13 Decembrie","ref":"DJ103","smoothness":"good","surface":"asphalt","surface_survey":"21JAN2010_owene","trolley_wire":"yes"}},{"type":"Feature","geometry":{"type":"LineString","coordinates":[[25.6327539,45.6689893],[25.6329341,45.6690258]]},"properties":{"alt_name":"Drumul Coresi","highway":"secondary","lanes":"4","maxspeed":"50","maxweight":"10","name":"Strada Zaharia Stancu","smoothness":"intermediate","surface":"asphalt","surface_survey":"2022MAY_"}},{"type":"Feature","geometry":{"type":"LineString","coordinates":[[25.6302913,45.6688124],[25.6303755,45.6687964],[25.6304346,45.6687787],[25.6305618,45.6687445]]},"properties":{"alt_name":"Drumul Coresi","highway":"secondary","lanes":"2","maxspeed":"30","maxweight":"10","name":"Strada Zaharia Stancu","oneway":"yes","smoothness":"excellent","surface":"asphalt","surface_survey":"2022MAY_"}},{"type":"Feature","geometry":{"type":"LineString","coordinates":[[25.6340162,45.6650832],[25.6340973,45.6650893],[25.634163,45.6651206],[25.6342049,45.6651906]]},"properties":{"foot":"no","highway":"primary","lanes":"2","maxspeed":"50","maxweight":"3.5","name":"Strada Timișul Sec","oneway":"yes","surface":"asphalt"}},{"type":"Feature","geometry":{"type":"LineString","coordinates":[[25.5796318,45.6673402],[25.5796321,45.6673177],[25.5796419,45.6672889],[25.5798608,45.6668511]]},"properties":{"highway":"residential","lanes":"2","maxspeed":"50","maxweight":"3.5","name":"Strada Borzești","smoothness":"intermediate","surface":"asphalt","surface_survey":"2022OCT_"}},{"type":"Feature","geometry":{"type":"LineString","coordinates":[[25.5884042,45.661635],[25.5883044,45.6616723],[25.5877484,45.6618499],[25.5876184,45.6618964],[25.5874947,45.6619407],[25.5873299,45.6620208],[25.5871982,45.6620935],[25.5871572,45.6621181],[25.5870611,45.6621758],[25.5869238,45.6622786],[25.5867928,45.6623899],[25.5865739,45.6626005],[25.5864195,45.6627491],[25.586163,45.6629748],[25.5855289,45.6634605],[25.5853163,45.6636102],[25.5851752,45.6637096]]},"properties":{"foot":"no","hgv":"no","highway":"tertiary","lanes":"2","maxspeed":"50","name":"Strada Mihai Viteazul","surface":"asphalt"}},{"type":"Feature","geometry":{"type":"LineString","coordinates":[[25.5881374,45.6781224],[25.5880604,45.6781193],[25.5878602,45.6781124],[25.5877389,45.6781221],[25.5876751,45.6781335],[25.5875513,45.6781557]]},"properties":{"highway":"service","maxspeed":"10","maxweight":"3.5","oneway":"yes","service":"driveway","surface":"asphalt"}},{"type":"Feature","geometry":{"type":"LineString","coordinates":[[25.6139435,45.6789748],[25.6139286,45.6789306],[25.6139408,45.678886],[25.613978,45.6788488]]},"properties":{"cycleway:right":"lane","foot":"no","highway":"secondary","junction":"roundabout","lanes":"2","lit":"yes","maxspeed":"30","maxweight":"10","name":"Strada 13 Decembrie","ref":"DJ103","smoothness":"good","surface":"asphalt","surface_survey":"21JAN2010_owene","trolley_wire":"yes"}},{"type":"Feature","geometry":{"type":"LineString","coordinates":[[25.6142088,45.6789937],[25.6141691,45.6790196],[25.6141191,45.6790344],[25.6140649,45.6790363]]},"properties":{"cycleway:right":"lane","foot":"no","highway":"secondary","junction":"roundabout","lanes":"2","lit":"yes","maxspeed":"30","maxweight":"10","name":"Strada 13 Decembrie","ref":"DJ103","smoothness":"good","surface":"asphalt","surface_survey":"21JAN2010_owene","trolley_wire":"yes"}},{"type":"Feature","geometry":{"type":"LineString","coordinates":[[25.6140649,45.6790363],[25.6140219,45.679028]]},"properties":{"cycleway:right":"lane","foot":"no","highway":"secondary","junction":"roundabout","lanes":"2","lit":"yes","maxspeed":"30","maxweight":"10","name":"Strada 13 Decembrie","ref":"DJ103","smoothness":"good","surface":"asphalt","surface_survey":"21JAN2010_owene","trolley_wire":"yes"}},{"type":"Feature","geometry":{"type":"LineString","coordinates":[[25.6140136,45.6788313],[25.6140725,45.6788198],[25.6141332,45.678825],[25.6141863,45.6788461]]},"properties":{"cycleway:right":"lane","foot":"no","highway":"secondary","junction":"roundabout","lanes":"2","lit":"yes","maxspeed":"30","maxweight":"10","name":"Strada 13 Decembrie","ref":"DJ103","smoothness":"good","surface":"asphalt","surface_survey":"21JAN2010_owene","trolley_wire":"yes"}},{"type":"Feature","geometry":{"type":"LineString","coordinates":[[25.613978,45.6788488],[25.6140136,45.6788313]]},"properties":{"cycleway:right":"lane","foot":"no","highway":"secondary","junction":"roundabout","lanes":"2","lit":"yes","maxspeed":"30","maxweight":"10","name":"Strada 13 Decembrie","ref":"DJ103","smoothness":"good","surface":"asphalt","surface_survey":"21JAN2010_owene","trolley_wire":"yes"}},{"type":"Feature","geometry":{"type":"LineString","coordinates":[[25.6201645,45.6701188],[25.6201841,45.6700743],[25.6202091,45.6700428],[25.6202418,45.670015],[25.6203177,45.6699766],[25.6204069,45.6699576],[25.620498,45.6699595],[25.6205798,45.66998],[25.6206489,45.6700168],[25.6206917,45.6700564]]},"properties":{"highway":"secondary","junction":"roundabout","lanes":"2","maxspeed":"30","maxweight":"10","name":"Strada Zaharia Stancu","smoothness":"excellent","surface":"asphalt","surface_survey":"2022MAY_"}},{"type":"Feature","geometry":{"type":"LineString","coordinates":[[25.6202047,45.6702617],[25.6201781,45.6702243],[25.620161,45.6701726],[25.6201645,45.6701188]]},"properties":{"highway":"secondary","junction":"roundabout","lanes":"2","maxspeed":"30","maxweight":"10","name":"Strada Zaharia Stancu","smoothness":"excellent","surface":"asphalt","surface_survey":"2022MAY_"}},{"type":"Feature","geometry":{"type":"LineString","coordinates":[[25.6206917,45.6700564],[25.6207066,45.6700786],[25.6207202,45.6701072],[25.6207283,45.6701501],[25.620723,45.6701933]]},"properties":{"highway":"secondary","junction":"roundabout","lanes":"2","maxspeed":"30","maxweight":"10","name":"Strada Zaharia Stancu","smoothness":"excellent","surface":"asphalt","surface_survey":"2022MAY_"}},{"type":"Feature","geometry":{"type":"LineString","coordinates":[[25.6305618,45.6687445],[25.6305812,45.6687027],[25.6306128,45.6686684],[25.6306477,45.6686384],[25.6306928,45.6686133],[25.630744,45.6685948],[25.6307994,45.6685836],[25.6308568,45.6685801]]},"properties":{"highway":"secondary","junction":"roundabout","lanes":"2","maxspeed":"30","maxweight":"10","surface":"asphalt"}},{"type":"Feature","geometry":{"type":"LineString","coordinates":[[25.6310569,45.6686367],[25.631094,45.6686664],[25.6311223,45.6687005],[25.6311409,45.6687377],[25.631149,45.6687767],[25.6311463,45.668816],[25.631133,45.6688543],[25.6311095,45.6688902]]},"properties":{"highway":"secondary","junction":"roundabout","lanes":"2","maxspeed":"30","maxweight":"10","surface":"asphalt"}},{"type":"Feature","geometry":{"type":"LineString","coordinates":[[25.6306079,45.6689017],[25.6305796,45.6688644],[25.6305628,45.668824],[25.630555,45.6687841],[25.6305618,45.6687445]]},"properties":{"highway":"secondary","junction":"roundabout","lanes":"2","maxspeed":"30","maxweight":"10","surface":"asphalt"}},{"type":"Feature","geometry":{"type":"LineString","coordinates":[[25.6357117,45.6658686],[25.6356838,45.6658829],[25.6356506,45.6658898],[25.6356161,45.6658885],[25.6355842,45.6658793],[25.6355585,45.665863],[25.6355422,45.6658418],[25.635537,45.6658179],[25.6355435,45.6657941]]},"properties":{"highway":"primary","junction":"roundabout","maxspeed":"30","maxweight":"3.5","surface":"asphalt"}},{"type":"Feature","geometry":{"type":"LineString","coordinates":[[25.6628644,45.6846891],[25.6629019,45.684665],[25.662947,45.6846462],[25.6629957,45.6846308],[25.6630537,45.6846227],[25.6631001,45.6846219],[25.6631497,45.6846294],[25.6631988,45.6846447],[25.6632517,45.6846735],[25.6638052,45.6850205],[25.6638311,45.6850424],[25.6638493,45.6850619],[25.663857,45.6850874],[25.6638588,45.6851146],[25.6638481,45.6851549],[25.66383,45.6851877],[25.6638076,45.6852109],[25.6637783,45.6852342]]},"properties":{"highway":"trunk","int_ref":"E 574","junction":"roundabout","lanes":"2","maxheight":"5.5","maxspeed":"30","nat_ref":"DN11","ref":"DN11","smoothness":"excellent","surface":"asphalt"}},{"type":"Feature","geometry":{"type":"LineString","coordinates":[[25.6308568,45.6685801],[25.6309117,45.6685841],[25.6309645,45.6685952],[25.6310135,45.6686129],[25.6310569,45.6686367]]},"properties":{"highway":"secondary","junction":"roundabout","lanes":"2","maxspeed":"30","maxweight":"10","surface":"asphalt"}},{"type":"Feature","geometry":{"type":"LineString","coordinates":[[25.5931056,45.6714709],[25.5930352,45.6714201],[25.5929395,45.6714023],[25.5920022,45.6714452],[25.5915338,45.6714834],[25.5914688,45.6714797]]},"properties":{"highway":"residential","lit":"yes","maxspeed":"RO:urban","maxweight":"3.5","name":"Strada Ioan V. Socec","surface":"asphalt"}},{"type":"Feature","geometry":{"type":"LineString","coordinates":[[25.6477687,45.6171419],[25.6481121,45.6171667]]},"properties":{"hgv":"no","highway":"residential","lit":"yes","maxspeed":"50","maxspeed:type":"RO:urban","name":"Strada Lacurilor","oneway":"yes","source":"survey","surface":"asphalt"}},{"type":"Feature","geometry":{"type":"LineString","coordinates":[[25.6134736,45.6788999],[25.6135736,45.6788927]]},"properties":{"highway":"residential","lanes":"2","lit":"yes","maxspeed":"30","maxweight":"3.5","name":"Strada Nicolae Labiș","surface":"asphalt"}},{"type":"Feature","geometry":{"type":"LineString","coordinates":[[25.6582368,45.6140294],[25.6581753,45.6140422],[25.6579689,45.6143227],[25.6577221,45.6146769],[25.6575737,45.6149251],[25.6574331,45.6151658],[25.6572669,45.615533],[25.657083,45.6159746],[25.6570644,45.6160192],[25.656919,45.6163553]]},"properties":{"access":"permit","highway":"residential","maxweight":"3.5"}},{"type":"Feature","geometry":{"type":"LineString","coordinates":[[25.6543433,45.6292642],[25.6547188,45.6293899],[25.6549864,45.6294706],[25.6550971,45.6295072],[25.6555637,45.6296247]]},"properties":{"description":"Artera de sud-est","highway":"tertiary","lanes":"2","lit":"no","maxheight":"4.5","maxspeed":"90","maxweight":"3.5","overtaking":"no","smoothness":"good","source:maxweight":"sign","surface":"asphalt","surface_survey":"2022MAY_"}},{"type":"Feature","geometry":{"type":"LineString","coordinates":[[25.6508099,45.6285742],[25.6514245,45.6286385],[25.651681,45.6286781],[25.6517965,45.6286959],[25.6521626,45.6287645],[25.6528194,45.628873],[25.6532209,45.6289446],[25.6536652,45.6290633],[25.6540409,45.6291732],[25.6543433,45.6292642]]},"properties":{"description":"Artera de sud-est","highway":"tertiary","lanes":"2","lit":"no","maxheight":"4.5","maxspeed":"40","maxspeed:backward":"40","maxspeed:forward":"90","maxweight":"3.5","smoothness":"good","source:maxweight":"sign","surface":"asphalt","surface_survey":"2022MAY_"}},{"type":"Feature","geometry":{"type":"LineString","coordinates":[[25.6475146,45.6299185],[25.6475812,45.6298027],[25.6480993,45.6289514]]},"properties":{"description":"Artera de sud-est","highway":"tertiary","lanes":"2","lit":"no","maxheight":"4.5","maxspeed":"40","maxweight":"3.5","smoothness":"good","source:maxweight":"sign","surface":"asphalt","surface_survey":"2022MAY_"}},{"type":"Feature","geometry":{"type":"LineString","coordinates":[[25.6472679,45.6306546],[25.6473374,45.6306473],[25.6473811,45.6306436],[25.6474838,45.6306154],[25.6475441,45.6305859],[25.6475932,45.6305378],[25.6476286,45.6304527],[25.6476182,45.630386],[25.6475516,45.6302581],[25.6475155,45.6301763],[25.647495,45.6301161],[25.6474906,45.6300647],[25.6474963,45.6299771],[25.6475146,45.6299185]]},"properties":{"description":"Artera de sud-est","highway":"tertiary","lanes":"2","lit":"no","maxheight":"4.5","maxspeed":"40","maxweight":"3.5","overtaking":"no","smoothness":"good","source:maxweight":"sign","surface":"asphalt","surface_survey":"2022MAY_"}},{"type":"Feature","geometry":{"type":"LineString","coordinates":[[25.645569,45.6302041],[25.6459754,45.6303277],[25.6461363,45.6303772],[25.646257,45.630407]]},"properties":{"description":"Artera de sud-est","highway":"tertiary","lanes":"2","lit":"yes","maxheight":"4.5","maxspeed":"40","maxweight":"3.5","overtaking":"no","smoothness":"good","surface":"asphalt","surface_survey":"2022MAY_"}},{"type":"Feature","geometry":{"type":"LineString","coordinates":[[25.6399872,45.6272125],[25.6400272,45.627243],[25.6400482,45.627267],[25.6405299,45.6276831],[25.6412111,45.6282133],[25.6416538,45.62854],[25.6418637,45.6286877]]},"properties":{"description":"Artera de sud-est","highway":"tertiary","lanes":"2","lit":"yes","maxheight":"4.5","maxspeed":"40","maxweight":"3.5","overtaking":"no","smoothness":"good","surface":"asphalt","surface_survey":"2022MAY_"}},{"type":"Feature","geometry":{"type":"LineString","coordinates":[[25.5944721,45.6598352],[25.5946011,45.6598704]]},"properties":{"cycleway:both":"lane","foot":"no","hgv":"no","highway":"tertiary","lanes":"4","maxspeed":"50","name":"Strada Plevnei","surface":"asphalt"}},{"type":"Feature","geometry":{"type":"LineString","coordinates":[[25.5780478,45.6631378],[25.578303,45.6627103]]},"properties":{"access:lanes":"yes|yes|no","bus:lanes":"yes|yes|designated","cycleway:right":"lane","destination":"Poiana Brașov;Centru;București;Bacău;Buzău","foot":"no","hgv":"no","highway":"secondary","lanes":"3","lanes:bus":"1","lit":"yes","maxspeed":"40","name":"Strada Lungă","name:de":"Langgasse","name:hu":"Hosszú utca","oneway":"yes","smoothness":"excellent","surface":"asphalt","surface_survey":"2022MAY_"}},{"type":"Feature","geometry":{"type":"LineString","coordinates":[[25.6132435,45.6752559],[25.6131942,45.6752574]]},"properties":{"highway":"unclassified","lanes":"2","lit":"yes","maxspeed":"50","maxweight":"10","name":"Strada Henri Coandă","smoothness":"intermediate","surface":"asphalt","surface_survey":"2022MAY_"}},{"type":"Feature","geometry":{"type":"LineString","coordinates":[[25.6117837,45.6724248],[25.6118009,45.6724729],[25.6120915,45.6732862]]},"properties":{"cycleway:both":"lane","foot":"no","highway":"secondary","lanes":"4","lit":"yes","maxspeed":"RO:urban","maxweight":"10","name":"Strada 13 Decembrie","ref":"DJ103","smoothness":"excellent","surface":"asphalt","surface_survey":"2022MAY_","trolley_wire":"yes"}},{"type":"Feature","geometry":{"type":"LineString","coordinates":[[25.5679653,45.6598082],[25.5683029,45.6598903],[25.5683679,45.6598996],[25.5684269,45.6598964],[25.5685564,45.659886],[25.5686112,45.659884],[25.5686659,45.6598847],[25.5687917,45.6598979]]},"properties":{"cycleway:right":"lane","highway":"tertiary","int_ref":"E 574","lanes":"2","maxspeed":"40","maxweight":"3.5","name":"Șoseaua Cristianului","oneway":"yes","smoothness":"excellent","surface":"asphalt","surface_survey":"2022MAY_"}},{"type":"Feature","geometry":{"type":"LineString","coordinates":[[25.6630501,45.6850269],[25.662911,45.6849388],[25.6628557,45.6848928],[25.6628294,45.6848609],[25.6628159,45.6848257],[25.6628136,45.6847892],[25.6628247,45.6847484],[25.6628408,45.684718],[25.6628644,45.6846891]]},"properties":{"highway":"trunk","int_ref":"E 574","junction":"roundabout","lanes":"2","maxheight":"5.5","maxspeed":"30","nat_ref":"DN11","ref":"DN11","smoothness":"excellent","surface":"asphalt"}},{"type":"Feature","geometry":{"type":"LineString","coordinates":[[25.6152502,45.6708858],[25.6136735,45.6710929]]},"properties":{"alt_name":"Drumul Coresi","foot":"no","highway":"secondary","lanes":"2","maxspeed":"RO:urban","maxweight":"10","name":"Strada Zaharia Stancu","oneway":"yes","smoothness":"excellent","surface":"asphalt","surface_survey":"2022MAY_"}},{"type":"Feature","geometry":{"type":"LineString","coordinates":[[25.5936297,45.6841214],[25.5934387,45.6828347],[25.5930583,45.6804277]]},"properties":{"highway":"residential","lanes":"2","lit":"yes","maxweight":"3.5","sidewalk":"no","surface":"dirt"}},{"type":"Feature","geometry":{"type":"LineString","coordinates":[[25.624741,45.673278],[25.6247114,45.673174],[25.6240778,45.6709905]]},"properties":{"highway":"service","maxheight":"4.2"}},{"type":"Feature","geometry":{"type":"LineString","coordinates":[[25.5966434,45.6801668],[25.5980053,45.6800677],[25.59815,45.6800571],[25.5987908,45.6800105],[25.5993999,45.6799661],[25.6001245,45.6799134]]},"properties":{"highway":"residential","lanes":"2","lit":"yes","maxweight":"3.5","name":"Strada Nicolae Labiș","sidewalk":"no","surface":"compacted"}},{"type":"Feature","geometry":{"type":"LineString","coordinates":[[25.6125038,45.6744413],[25.6125376,45.67454]]},"properties":{"cycleway:both":"lane","foot":"no","highway":"secondary","lanes":"4","lit":"yes","maxspeed":"RO:urban","maxweight":"10","name":"Strada 13 Decembrie","ref":"DJ103","smoothness":"excellent","surface":"asphalt","surface_survey":"2022MAY_","trolley_wire":"yes"}},{"type":"Feature","geometry":{"type":"LineString","coordinates":[[25.6135736,45.6788927],[25.6136678,45.678886],[25.613703,45.6788835]]},"properties":{"highway":"residential","lanes":"2","lit":"yes","maxspeed":"30","maxweight":"3.5","name":"Strada Nicolae Labiș","surface":"asphalt"}},{"type":"Feature","geometry":{"type":"LineString","coordinates":[[25.6143386,45.6795195],[25.614411,45.6797096]]},"properties":{"cycleway:both":"lane","foot":"no","highway":"secondary","lanes":"4","lit":"yes","maxspeed:backward":"30","maxspeed:forward":"50","maxweight":"10","name":"Strada 13 Decembrie","ref":"DJ103","smoothness":"good","surface":"asphalt","surface_survey":"21JAN2010_owene","trolley_wire":"yes"}},{"type":"Feature","geometry":{"type":"LineString","coordinates":[[25.614411,45.6797096],[25.6144883,45.679919]]},"properties":{"cycleway:both":"lane","foot":"no","highway":"secondary","lanes":"4","lit":"yes","maxspeed:backward":"30","maxspeed:forward":"50","maxweight":"10","name":"Strada 13 Decembrie","ref":"DJ103","smoothness":"good","surface":"asphalt","surface_survey":"21JAN2010_owene","trolley_wire":"yes"}},{"type":"Feature","geometry":{"type":"LineString","coordinates":[[25.6155378,45.682544],[25.6155427,45.6825531],[25.6156041,45.6826663],[25.615668,45.6827842]]},"properties":{"cycleway:both":"lane","foot":"no","highway":"secondary","lanes":"4","lanes:backward":"2","lanes:forward":"2","lit":"yes","maxspeed":"50","maxweight":"10","name":"Strada 13 Decembrie","ref":"DJ103","sidewalk":"both","smoothness":"good","surface":"asphalt","surface_survey":"21JAN2010_owene","trolley_wire":"yes","turn:lanes:forward":"left|through"}},{"type":"Feature","geometry":{"type":"LineString","coordinates":[[25.6021108,45.6708151],[25.6018433,45.6708358],[25.601113,45.6709049],[25.6007681,45.6709319],[25.6005607,45.6709487],[25.6001501,45.6709795],[25.5997338,45.6710042],[25.5996863,45.671007],[25.59959,45.6710125]]},"properties":{"highway":"tertiary","lanes":"2","lit":"yes","maxspeed":"RO:urban","maxweight":"3.5","name":"Strada Ioan V. Socec","surface":"asphalt"}},{"type":"Feature","geometry":{"type":"LineString","coordinates":[[25.611174,45.6706343],[25.6112029,45.6707077]]},"properties":{"foot":"no","highway":"secondary","lanes":"6","lit":"yes","maxspeed":"RO:urban","maxweight":"3.5","name":"Strada 13 Decembrie","ref":"DJ103","smoothness":"excellent","surface":"asphalt","surface_survey":"2022MAY_","trolley_wire":"yes","turn:lanes:forward":"left;through|through|right"}},{"type":"Feature","geometry":{"type":"LineString","coordinates":[[25.6315049,45.6494235],[25.631241,45.649433]]},"properties":{"hgv":"permit","highway":"secondary","lanes":"2","maxspeed":"50","maxweight":"3.5","name":"Strada Zizinului","ref":"DJ103A","sidewalk":"both","smoothness":"excellent","surface":"asphalt","surface_survey":"2022MAY_"}},{"type":"Feature","geometry":{"type":"LineString","coordinates":[[25.6091177,45.6650377],[25.6091438,45.6651114]]},"properties":{"foot":"no","highway":"secondary","lanes":"6","maxspeed":"50","maxweight":"3.5","name":"Strada 13 Decembrie","ref":"DJ103","smoothness":"excellent","surface":"asphalt","surface_survey":"2022MAY_","trolley_wire":"yes","turn:lanes:forward":"through|through|through;right"}},{"type":"Feature","geometry":{"type":"LineString","coordinates":[[25.612428,45.6712621],[25.6122714,45.6712851],[25.6121067,45.6713204]]},"properties":{"alt_name":"Drumul Coresi","cycleway:right":"lane","foot":"no","highway":"secondary","lanes":"2","lit":"yes","maxspeed":"RO:urban","maxweight":"10","name":"Strada Zaharia Stancu","oneway":"yes","smoothness":"excellent","surface":"asphalt","surface_survey":"2022MAY_"}},{"type":"Feature","geometry":{"type":"LineString","coordinates":[[25.6137939,45.6678396],[25.613541,45.6678927],[25.613074,45.6679717],[25.6121605,45.6680981]]},"properties":{"highway":"tertiary","lanes":"2","maxspeed":"50","maxweight":"3.5","name":"Strada Camil Petrescu","oneway":"yes","smoothness":"excellent","surface":"asphalt","surface_survey":"2022DEC_","turn:lanes":"left|through;right"}},{"type":"Feature","geometry":{"type":"LineString","coordinates":[[25.6129625,45.6757051],[25.6132871,45.6766181]]},"properties":{"cycleway:both":"lane","foot":"no","highway":"secondary","lanes":"4","lit":"yes","maxspeed":"50","maxweight":"10","name":"Strada 13 Decembrie","ref":"DJ103","smoothness":"excellent","surface":"asphalt","surface_survey":"2022MAY_","trolley_wire":"yes"}},{"type":"Feature","geometry":{"type":"LineString","coordinates":[[25.6584721,45.6135103],[25.658437,45.613529],[25.6581481,45.6136798]]},"properties":{"access":"yes","destination":"Centru;Poiana Brașov","highway":"primary","lanes":"2","maxspeed":"60","maxweight":"3.5","name":"Calea București","nat_ref":"DN1","oneway":"yes","ref":"DN1","smoothness":"excellent","surface":"asphalt"}},{"type":"Feature","geometry":{"type":"LineString","coordinates":[[25.6057458,45.6794688],[25.60601,45.679448],[25.6061076,45.6794403],[25.6066017,45.6794014],[25.6067422,45.6793903],[25.6068998,45.6793779],[25.6070627,45.679365],[25.6071185,45.6793606],[25.6076983,45.679315],[25.6081603,45.6792786],[25.6087477,45.6792323],[25.6088324,45.6792256],[25.6090679,45.679209],[25.6091063,45.6792064],[25.6092028,45.6792022],[25.6092942,45.6791979]]},"properties":{"highway":"residential","lanes":"2","lit":"yes","maxspeed":"50","maxweight":"3.5","name":"Strada Nicolae Labiș","surface":"asphalt"}},{"type":"Feature","geometry":{"type":"LineString","coordinates":[[25.6057637,45.6557801],[25.6058528,45.6560262],[25.6059805,45.6563876],[25.6060602,45.6566277]]},"properties":{"cycleway:both":"lane","foot":"no","hgv":"no","highway":"secondary","lanes":"4","maxspeed":"RO:urban","name":"Strada 13 Decembrie","ref":"DJ103","smoothness":"excellent","surface":"asphalt","surface_survey":"2023MAY_","trolley_wire":"yes"}},{"type":"Feature","geometry":{"type":"LineString","coordinates":[[25.6029714,45.6753265],[25.6030111,45.6753077],[25.6032478,45.6752846],[25.6032797,45.6752893],[25.603291,45.6752883],[25.6036074,45.6752602],[25.6038065,45.6752441],[25.6039695,45.6752295],[25.6042141,45.6752085],[25.6047086,45.6751673]]},"properties":{"highway":"residential","lanes":"2","lit":"yes","maxspeed":"50","maxweight":"3.5","name":"Strada Ioan Popasu","surface":"asphalt"}},{"type":"Feature","geometry":{"type":"LineString","coordinates":[[25.6132871,45.6766181],[25.6131829,45.6766281],[25.613143,45.6766319],[25.6129798,45.6766475],[25.6129505,45.6766504],[25.6127746,45.6766672],[25.6127295,45.6766716],[25.612638,45.6766803],[25.6115576,45.676784],[25.6114642,45.676793],[25.6110039,45.6768371],[25.6109331,45.6768439],[25.6106458,45.6768715],[25.610427,45.6768925],[25.6100971,45.6769241],[25.6099597,45.6769373],[25.6094362,45.6769875],[25.6093885,45.6769921],[25.6092093,45.6770093]]},"properties":{"highway":"tertiary","lanes":"2","maxspeed":"50","maxweight":"3.5","name":"Strada Ion Constantin Brătianu","surface":"asphalt"}},{"type":"Feature","geometry":{"type":"LineString","coordinates":[[25.5999194,45.6733577],[25.6000384,45.6733509],[25.600461,45.6733162],[25.6015632,45.6732163],[25.6019235,45.6731839],[25.6024891,45.6731332],[25.602874,45.6731003],[25.602988,45.6730913],[25.6034795,45.6730557],[25.6036485,45.6730455],[25.6041769,45.6730059],[25.604507,45.6729783],[25.6045971,45.6729708],[25.6047084,45.672962],[25.604849,45.6729515],[25.6053278,45.6729117],[25.606305,45.6728259],[25.6087828,45.6725972],[25.608839,45.6726003]]},"properties":{"highway":"residential","lanes":"2","lit":"yes","maxspeed":"50","maxweight":"3.5","name":"Strada Ștefan Baciu","surface":"asphalt"}},{"type":"Feature","geometry":{"type":"LineString","coordinates":[[25.630078,45.6688375],[25.6302913,45.6688124]]},"properties":{"alt_name":"Drumul Coresi","highway":"secondary","lanes":"2","maxspeed":"50","maxweight":"10","name":"Strada Zaharia Stancu","oneway":"yes","smoothness":"excellent","surface":"asphalt","surface_survey":"2022MAY_"}},{"type":"Feature","geometry":{"type":"LineString","coordinates":[[25.6306079,45.6689017],[25.6304989,45.6688985],[25.6303852,45.6688973],[25.6302451,45.668917]]},"properties":{"alt_name":"Drumul Coresi","highway":"secondary","lanes":"2","maxspeed":"50","maxweight":"10","name":"Strada Zaharia Stancu","oneway":"yes","smoothness":"excellent","surface":"asphalt","surface_survey":"2022MAY_"}},{"type":"Feature","geometry":{"type":"LineString","coordinates":[[25.620723,45.6701933],[25.6206958,45.6702469],[25.620648,45.670293],[25.6205835,45.6703277],[25.6205,45.670349]]},"properties":{"highway":"secondary","junction":"roundabout","lanes":"2","maxspeed":"30","maxweight":"10","name":"Strada Zaharia Stancu","smoothness":"excellent","surface":"asphalt","surface_survey":"2022MAY_"}},{"type":"Feature","geometry":{"type":"LineString","coordinates":[[25.6164377,45.6708501],[25.6163846,45.6708441],[25.6163348,45.6708298],[25.6162911,45.6708079]]},"properties":{"alt_name":"Drumul Coresi","highway":"secondary","junction":"roundabout","lanes":"2","lit":"yes","maxspeed":"20","maxweight":"10","name":"Strada Zaharia Stancu","smoothness":"excellent","surface":"asphalt","surface_survey":"2022MAY_"}},{"type":"Feature","geometry":{"type":"LineString","coordinates":[[25.6613662,45.6048325],[25.6628095,45.6056807],[25.6630314,45.6059155],[25.6631271,45.6060018],[25.663255,45.6060956],[25.66357,45.6062439],[25.6652456,45.6068775],[25.6653108,45.6069821],[25.6654115,45.6071079],[25.665579,45.6072667],[25.6657617,45.6074148],[25.6661198,45.607649],[25.6665387,45.6078974]]},"properties":{"highway":"tertiary","lanes":"2","maxspeed":"30","maxweight":"3.5","name":"Strada Bolnoc","source":"Bing , survey","surface":"asphalt"}},{"type":"Feature","geometry":{"type":"LineString","coordinates":[[25.660704,45.6043637],[25.6608635,45.6045014],[25.6613662,45.6048325]]},"properties":{"highway":"tertiary","lanes":"2","maxspeed":"50","maxweight":"3.5","name":"Strada Bolnoc","source":"Bing , survey","surface":"asphalt"}},{"type":"Feature","geometry":{"type":"LineString","coordinates":[[25.6176914,45.6857918],[25.6176991,45.6858026]]},"properties":{"cycleway:both":"lane","foot":"no","highway":"secondary","lanes":"2","lit":"yes","maxspeed":"50","maxweight":"10","name":"Strada 13 Decembrie","smoothness":"excellent","surface":"asphalt","surface_survey":"2022MAY_","trolley_wire":"yes"}},{"type":"Feature","geometry":{"type":"LineString","coordinates":[[25.6267565,45.6614728],[25.6266016,45.6614108],[25.6238484,45.6597679],[25.6230384,45.6592637]]},"properties":{"change":"yes","foot":"no","hgv":"yes","highway":"primary","lanes":"2","lit":"yes","maxheight":"4.8","maxspeed":"50","name":"Strada Hărmanului","nat_ref":"DN11","oneway":"yes","ref":"DN11","smoothness":"excellent","surface":"asphalt","surface_survey":"2022MAY_","trolley_wire":"yes"}},{"type":"Feature","geometry":{"type":"LineString","coordinates":[[25.6231187,45.6592162],[25.6235459,45.6594853],[25.6253666,45.6605799],[25.6257248,45.6607967]]},"properties":{"change":"yes","foot":"no","hgv":"yes","highway":"primary","lanes":"2","lit":"yes","maxheight":"4.8","maxspeed":"50","name":"Strada Hărmanului","nat_ref":"DN11","oneway":"yes","ref":"DN11","smoothness":"excellent","surface":"asphalt","surface_survey":"2022MAY_","trolley_wire":"yes"}},{"type":"Feature","geometry":{"type":"LineString","coordinates":[[25.6266132,45.661343],[25.6266598,45.6613716],[25.6267565,45.6614728]]},"properties":{"change":"yes","foot":"no","hgv":"yes","highway":"primary","lanes":"2","lit":"yes","maxheight":"4.8","maxspeed":"50","name":"Strada Hărmanului","nat_ref":"DN11","oneway":"yes","ref":"DN11","smoothness":"excellent","surface":"asphalt","surface_survey":"2022MAY_","trolley_wire":"yes"}},{"type":"Feature","geometry":{"type":"LineString","coordinates":[[25.6257248,45.6607967],[25.6266132,45.661343]]},"properties":{"change":"yes","foot":"no","hgv":"yes","highway":"primary","lanes":"2","lit":"yes","maxheight":"4.8","maxspeed":"50","name":"Strada Hărmanului","nat_ref":"DN11","oneway":"yes","ref":"DN11","smoothness":"excellent","surface":"asphalt","surface_survey":"2022MAY_","trolley_wire":"yes"}},{"type":"Feature","geometry":{"type":"LineString","coordinates":[[25.639006,45.6490569],[25.638363,45.6490916],[25.6380155,45.6491212]]},"properties":{"highway":"secondary","lanes":"4","maxspeed":"50","maxweight":"10","name":"Strada Zizinului","ref":"DJ103A","smoothness":"excellent","surface":"asphalt","surface_survey":"2022MAY_"}},{"type":"Feature","geometry":{"type":"LineString","coordinates":[[25.6121605,45.6680981],[25.6114087,45.6682005],[25.6112711,45.6682256],[25.6111157,45.6682628],[25.6110098,45.6683056],[25.6109064,45.6683599],[25.6107682,45.6684478]]},"properties":{"highway":"tertiary","lanes":"2","maxspeed":"50","maxweight":"3.5","name":"Strada Camil Petrescu","oneway":"yes","smoothness":"excellent","surface":"asphalt","surface_survey":"2022DEC_","turn:lanes":"left|through;right"}},{"type":"Feature","geometry":{"type":"LineString","coordinates":[[25.6154584,45.6707627],[25.615861,45.6707105],[25.6160239,45.6706866],[25.6160877,45.6706731],[25.6161755,45.670644],[25.6162491,45.6706016]]},"properties":{"alt_name":"Drumul Coresi","foot":"no","highway":"secondary","lanes":"2","lit":"yes","maxspeed":"RO:urban","maxweight":"10","name":"Strada Zaharia Stancu","oneway":"yes","smoothness":"excellent","surface":"asphalt","surface_survey":"2022MAY_","turn:lanes":"left;through|through;right"}},{"type":"Feature","geometry":{"type":"LineString","coordinates":[[25.6430558,45.5991275],[25.6430864,45.5991059]]},"properties":{"highway":"residential","maxheight":"4","maxspeed":"RO:urban","surface":"gravel"}},{"type":"Feature","geometry":{"type":"LineString","coordinates":[[25.654379,45.6079495],[25.6542012,45.607829],[25.6541169,45.607725],[25.6541004,45.6076279],[25.6541956,45.6073685],[25.6541906,45.607299],[25.6541351,45.6072513],[25.6539203,45.6071297]]},"properties":{"hgv":"no","highway":"residential","lanes":"2","lit":"yes","maxheight":"3.8","maxspeed":"50","maxspeed:type":"RO:urban","name":"Strada Gării Dârste","smoothness":"good","source":"survey","surface":"asphalt","surface_survey":"2022MAY_"}},{"type":"Feature","geometry":{"type":"LineString","coordinates":[[25.6140219,45.679028],[25.613972,45.6790037]]},"properties":{"cycleway:right":"lane","foot":"no","highway":"secondary","junction":"roundabout","lanes":"2","lit":"yes","maxspeed":"30","maxweight":"10","name":"Strada 13 Decembrie","ref":"DJ103","smoothness":"good","surface":"asphalt","surface_survey":"21JAN2010_owene","trolley_wire":"yes"}},{"type":"Feature","geometry":{"type":"LineString","coordinates":[[25.613972,45.6790037],[25.6139435,45.6789748]]},"properties":{"cycleway:right":"lane","foot":"no","highway":"secondary","junction":"roundabout","lanes":"2","lit":"yes","maxspeed":"30","maxweight":"10","name":"Strada 13 Decembrie","ref":"DJ103","smoothness":"good","surface":"asphalt","surface_survey":"21JAN2010_owene","trolley_wire":"yes"}},{"type":"Feature","geometry":{"type":"LineString","coordinates":[[25.5844969,45.6573126],[25.5844705,45.6573525],[25.5844454,45.6573905],[25.5842639,45.6576554]]},"properties":{"cycleway:right":"lane","hgv":"no","highway":"secondary","lanes":"2","maxspeed":"50","name":"Strada De Mijloc","name:de":"Mittelgasse","name:hu":"Közép utca","oneway":"yes","smoothness":"excellent","surface":"asphalt","surface_survey":"2022MAY_"}},{"type":"Feature","geometry":{"type":"LineString","coordinates":[[25.5685926,45.6593131],[25.5686268,45.6590599],[25.568628,45.659022]]},"properties":{"highway":"residential","lanes":"2","maxspeed":"RO:urban","maxweight":"3.5","name":"Strada Mică"}},{"type":"Feature","geometry":{"type":"LineString","coordinates":[[25.6187472,45.6743587],[25.6180624,45.6744831]]},"properties":{"highway":"unclassified","lanes":"2","lit":"yes","maxspeed":"50","maxweight":"10","name":"Strada Henri Coandă","smoothness":"intermediate","surface":"asphalt","surface_survey":"2022MAY_"}},{"type":"Feature","geometry":{"type":"LineString","coordinates":[[25.6108157,45.6696587],[25.6108543,45.6697648],[25.6109336,45.6699902]]},"properties":{"foot":"no","highway":"secondary","lanes":"6","lit":"yes","maxspeed":"RO:urban","maxweight":"3.5","name":"Strada 13 Decembrie","ref":"DJ103","smoothness":"good","surface":"asphalt","surface_survey":"21JAN2010_owene","trolley_wire":"yes","turn:lanes:backward":"left;through|through|through|through;right"}},{"type":"Feature","geometry":{"type":"LineString","coordinates":[[25.6063987,45.6575954],[25.6067242,45.6585158]]},"properties":{"cycleway:both":"lane","foot":"no","hgv":"no","highway":"secondary","lanes":"4","maxspeed":"RO:urban","name":"Strada 13 Decembrie","ref":"DJ103","smoothness":"excellent","surface":"asphalt","surface_survey":"2023MAY_","trolley_wire":"yes"}},{"type":"Feature","geometry":{"type":"LineString","coordinates":[[25.6062948,45.6572848],[25.6063987,45.6575954]]},"properties":{"cycleway:both":"lane","foot":"no","hgv":"no","highway":"secondary","lanes":"4","maxspeed":"RO:urban","name":"Strada 13 Decembrie","ref":"DJ103","smoothness":"excellent","surface":"asphalt","surface_survey":"2023MAY_","trolley_wire":"yes"}}]}