{"type":"FeatureCollection","features":[{"type":"Feature","geometry":{"type":"LineString","coordinates":[[24.8244509,44.8919433],[24.8242006,44.8917742],[24.8240276,44.8916587],[24.8238163,44.8915394],[24.8235861,44.8914321],[24.8233986,44.8913568],[24.8216326,44.890707]]},"properties":{"foot":"no","highway":"trunk","int_ref":"E 81","lanes":"2","layer":"-1","maxheight":"4.8","maxspeed":"50","name":"Pasajul Bascov","oneway":"no","ref":"DN7","smoothness":"intermediate","surface":"asphalt","surface_survey":"2024APR_","tunnel":"yes"}},{"type":"Feature","geometry":{"type":"LineString","coordinates":[[24.8572542,44.8695292],[24.8573999,44.8695619],[24.8575584,44.8695788],[24.8581951,44.8695886],[24.8586133,44.8695951],[24.859086,44.8695908],[24.8591704,44.86959],[24.8592737,44.8695897],[24.8594007,44.869586],[24.859999,44.8695683],[24.8602681,44.8695471],[24.8603424,44.8695358],[24.8606985,44.869477],[24.8607692,44.8694604],[24.8610558,44.8693931],[24.8614108,44.8692946],[24.8617844,44.8691676],[24.862064,44.869049],[24.8624089,44.868881],[24.8632546,44.8684007],[24.8657127,44.8669578],[24.8667159,44.8663968],[24.866894,44.8663088],[24.8670764,44.8662225],[24.8672747,44.8661305],[24.867595,44.8660024],[24.8677659,44.8659394],[24.8679608,44.8658735],[24.8681236,44.8658281],[24.8683696,44.8657643],[24.8686237,44.8657033],[24.8689887,44.8656253],[24.8695407,44.8655101],[24.8699881,44.8654255],[24.8704252,44.8653393],[24.8707453,44.8652879],[24.8712777,44.8652064]]},"properties":{"highway":"tertiary","lanes":"3","maxspeed":"RO:urban","maxweight":"3.5","name":"Calea Bascovului","oneway":"no","surface":"asphalt"}},{"type":"Feature","geometry":{"type":"LineString","coordinates":[[24.8704602,44.8649484],[24.8699699,44.8647933],[24.869688,44.8646986],[24.8691493,44.8645177],[24.8684628,44.8642878],[24.8683627,44.8642551],[24.8677824,44.8640641],[24.8673974,44.8639374],[24.8666778,44.8636758],[24.8665377,44.863604],[24.8664445,44.8635327],[24.8663757,44.8634526],[24.8663077,44.8633276],[24.8662366,44.8631958],[24.86617,44.8631212],[24.8655026,44.8625446]]},"properties":{"highway":"residential","lanes":"2","maxspeed":"RO:urban","maxweight":"3.5","name":"Strada Tache Ionescu","oneway":"yes","smoothness":"good","surface":"asphalt"}},{"type":"Feature","geometry":{"type":"LineString","coordinates":[[24.8717823,44.8552505],[24.8718546,44.8552056],[24.8721966,44.8549983],[24.8722869,44.8549523],[24.8725714,44.8548449],[24.8727716,44.8547628],[24.8729743,44.8546643],[24.8734745,44.8543878],[24.8735772,44.854328],[24.8736617,44.854273],[24.8738432,44.8541385],[24.8740918,44.8539692],[24.8741944,44.8539126],[24.8743057,44.8538562],[24.8744668,44.8537746],[24.8745793,44.8537177],[24.8749858,44.853516],[24.8750561,44.853482],[24.8759864,44.8530076],[24.8762147,44.8528912],[24.8765864,44.8527019],[24.8767223,44.8526353],[24.8768097,44.8525924],[24.8769639,44.8525094],[24.8774203,44.8522402],[24.8776643,44.8520693],[24.8795241,44.8506062]]},"properties":{"highway":"primary","lanes":"2","maxspeed":"RO:urban","maxweight":"3.5","name":"Strada Egalității","oneway":"yes","surface":"asphalt"}},{"type":"Feature","geometry":{"type":"LineString","coordinates":[[24.867336,44.8590709],[24.8674507,44.8590204],[24.8675931,44.8589364],[24.8677904,44.8587962],[24.8678792,44.8587232],[24.8684769,44.8582321],[24.8687236,44.8579883],[24.8688606,44.8578613],[24.8689982,44.8577263],[24.8691037,44.8576229],[24.8693877,44.8573415],[24.8694773,44.8572527],[24.8698807,44.8568512],[24.8704573,44.8563158],[24.871024,44.8558299],[24.8710859,44.8557768],[24.871408,44.8555304],[24.8716981,44.8553067],[24.8717823,44.8552505]]},"properties":{"highway":"primary","lanes":"2","maxspeed":"40","maxweight":"3.5","name":"Strada Armand Călinescu","oneway":"yes","surface":"asphalt"}},{"type":"Feature","geometry":{"type":"LineString","coordinates":[[24.8669463,44.8599961],[24.8668805,44.860124],[24.866864,44.8601922],[24.8668751,44.860259],[24.8669069,44.8603176],[24.8669502,44.8603864],[24.8670213,44.8604879]]},"properties":{"highway":"primary_link","lanes":"1","maxspeed":"RO:urban","maxweight":"3.5","oneway":"yes","surface":"asphalt"}},{"type":"Feature","geometry":{"type":"LineString","coordinates":[[24.833203,44.8839702],[24.8328801,44.8841527],[24.8320488,44.8846225],[24.8307799,44.8853396]]},"properties":{"highway":"service","maxheight":"3","maxspeed":"RO:urban","maxweight":"3.5"}},{"type":"Feature","geometry":{"type":"LineString","coordinates":[[24.8191371,44.8896974],[24.8192117,44.8895363],[24.8193604,44.8891777],[24.8194838,44.8888405],[24.8195149,44.8887447],[24.8195535,44.8886881],[24.8196125,44.8886405],[24.8197246,44.888571],[24.8197959,44.8885175],[24.8198555,44.8884499],[24.8199365,44.8883201],[24.819989,44.8882433],[24.8200811,44.8881836],[24.8202371,44.8881286],[24.8204251,44.8880927],[24.8211938,44.8880042],[24.821756,44.8879289],[24.8219603,44.8878878],[24.8219847,44.8878829]]},"properties":{"hgv":"no","highway":"residential","lanes":"1","lit":"yes","maxspeed":"50","maxspeed:type":"RO:urban","name":"Strada Rotărești DN","oneway":"no","sidewalk":"no","smoothness":"bad","source":"survey","surface":"asphalt","surface_survey":"2024FEB_"}},{"type":"Feature","geometry":{"type":"LineString","coordinates":[[24.8212128,44.8920052],[24.8210234,44.891935],[24.8201139,44.8915891],[24.8170722,44.890217],[24.8170222,44.8902059],[24.8169746,44.8902185],[24.8166479,44.8904924]]},"properties":{"highway":"residential","maxspeed":"RO:urban","maxweight":"7.5","name":"Strada Școlii","smoothness":"good","surface":"asphalt","surface_survey":"2018NOV_igp"}},{"type":"Feature","geometry":{"type":"LineString","coordinates":[[24.878809,44.8644793],[24.8791765,44.8644451],[24.8793656,44.8644379],[24.8794715,44.8644341],[24.8795733,44.8644184],[24.8796745,44.8643878],[24.8797546,44.8643571]]},"properties":{"highway":"secondary","lanes":"2","maxspeed":"RO:urban","maxweight":"3.5","name":"Strada Gheorghe Șincai","oneway":"yes","smoothness":"excellent","surface":"asphalt","surface_survey":"2019JUN_ChivuAlex"}},{"type":"Feature","geometry":{"type":"LineString","coordinates":[[24.8829725,44.8609651],[24.8829695,44.8609752],[24.8829202,44.8611326],[24.8828454,44.8613464],[24.8827686,44.8615316],[24.8826856,44.8617088],[24.8826002,44.8618899],[24.882505,44.8620468],[24.8823887,44.8622125],[24.8822198,44.8624461],[24.8821462,44.8625139]]},"properties":{"highway":"secondary","lanes":"4","maxspeed":"RO:urban","maxweight":"3.5","name":"Strada Gheorghe Șincai","smoothness":"excellent","surface":"asphalt"}},{"type":"Feature","geometry":{"type":"LineString","coordinates":[[24.8795241,44.8506062],[24.8797639,44.8504833]]},"properties":{"highway":"primary","int_ref":"E 574","maxspeed":"RO:urban","maxweight":"3.5","oneway":"yes","ref":"DN65","surface":"asphalt"}},{"type":"Feature","geometry":{"type":"LineString","coordinates":[[24.8795241,44.8506062],[24.8796313,44.8504861],[24.8797656,44.8503107]]},"properties":{"highway":"primary","int_ref":"E 574","maxspeed":"RO:urban","maxweight":"3.5","oneway":"yes","ref":"DN65","surface":"asphalt"}},{"type":"Feature","geometry":{"type":"LineString","coordinates":[[24.8202105,44.8910254],[24.8202634,44.8909486],[24.8205006,44.8906047],[24.8206215,44.8904218]]},"properties":{"highway":"residential","maxspeed":"50","maxweight":"7.5","smoothness":"good","surface":"asphalt","surface_survey":"2018NOV_igp"}},{"type":"Feature","geometry":{"type":"LineString","coordinates":[[24.8797546,44.8643571],[24.8798915,44.8642987],[24.8799253,44.8642807],[24.8800685,44.8642044],[24.8806249,44.8638935],[24.8807297,44.8638236],[24.8808812,44.8637071],[24.8812249,44.8634427],[24.8814475,44.8632436],[24.881615,44.8630872],[24.8816471,44.8630554],[24.8817974,44.8629067],[24.8818645,44.8628496]]},"properties":{"highway":"secondary","lanes":"3","maxspeed":"RO:urban","maxweight":"3.5","name":"Strada Gheorghe Șincai","oneway":"yes","parking:lane:right":"parallel","smoothness":"excellent","surface":"asphalt"}},{"type":"Feature","geometry":{"type":"LineString","coordinates":[[24.8962533,44.8711189],[24.8985305,44.8709381],[24.9003951,44.8707842]]},"properties":{"highway":"residential","lanes":"1","maxheight":"5","maxspeed":"20","name":"Aleea Tineretului","oneway":"no","surface":"asphalt"}},{"type":"Feature","geometry":{"type":"LineString","coordinates":[[24.8678901,44.8593339],[24.8669463,44.8599961]]},"properties":{"highway":"primary","lanes":"3","maxspeed":"RO:urban","maxweight":"3.5","name":"Bulevardul Republicii","oneway":"yes","surface":"asphalt"}},{"type":"Feature","geometry":{"type":"LineString","coordinates":[[24.8669463,44.8599961],[24.8667429,44.8601343],[24.8666137,44.8602221]]},"properties":{"highway":"primary","lanes":"3","maxspeed":"RO:urban","maxweight":"3.5","name":"Bulevardul Republicii","oneway":"yes","surface":"asphalt"}},{"type":"Feature","geometry":{"type":"LineString","coordinates":[[24.8818645,44.8628496],[24.8821462,44.8625139]]},"properties":{"highway":"secondary","lanes":"2","maxspeed":"50","maxweight":"3.5","name":"Strada Gheorghe Șincai","oneway":"yes","smoothness":"excellent","surface":"asphalt"}},{"type":"Feature","geometry":{"type":"LineString","coordinates":[[24.8818645,44.8628496],[24.8819648,44.8628051],[24.8820762,44.8627127],[24.8821501,44.8626681],[24.8821987,44.8626485],[24.8822797,44.8626345]]},"properties":{"check_date:smoothness":"2018-06","highway":"secondary_link","lanes":"2","maxspeed":"RO:urban","maxweight":"3.5","oneway":"yes","parking:lane:right":"parallel","smoothness":"excellent","surface":"asphalt"}},{"type":"Feature","geometry":{"type":"LineString","coordinates":[[24.8794964,44.851878],[24.8782718,44.8526445],[24.878169,44.8527084],[24.8779765,44.852828],[24.8776514,44.85303],[24.8775034,44.8531178],[24.8774336,44.8531582],[24.8769766,44.8534223],[24.8768122,44.8535223],[24.8765847,44.853667],[24.8759875,44.8540341],[24.8758764,44.8541047],[24.8752729,44.8544841],[24.875228,44.8545133],[24.8751533,44.8545618],[24.8750644,44.8546157],[24.8728042,44.8559538],[24.8727086,44.8560117]]},"properties":{"highway":"primary","lanes":"3","maxspeed":"RO:urban","maxweight":"3.5","name":"Bulevardul Republicii","oneway":"yes","surface":"asphalt"}},{"type":"Feature","geometry":{"type":"LineString","coordinates":[[24.8727086,44.8560117],[24.8725906,44.8560831],[24.8723388,44.8562348],[24.8720389,44.8564158]]},"properties":{"highway":"primary","lanes":"3","maxspeed":"RO:urban","maxweight":"3.5","name":"Bulevardul Republicii","oneway":"yes","surface":"asphalt"}},{"type":"Feature","geometry":{"type":"LineString","coordinates":[[24.8720389,44.8564158],[24.8708034,44.8572763],[24.8707699,44.8572997],[24.8706835,44.8573598],[24.8694242,44.8582757],[24.8693539,44.8583282],[24.8690073,44.8585678],[24.8688845,44.8586527],[24.8684935,44.8589238],[24.86798,44.8592696],[24.8678901,44.8593339]]},"properties":{"highway":"primary","lanes":"3","maxspeed":"RO:urban","maxweight":"3.5","name":"Bulevardul Republicii","oneway":"yes","surface":"asphalt"}},{"type":"Feature","geometry":{"type":"LineString","coordinates":[[24.8799222,44.8516115],[24.8797344,44.8517291],[24.8794964,44.851878]]},"properties":{"highway":"primary","lanes":"3","maxspeed":"RO:urban","maxweight":"3.5","name":"Bulevardul Republicii","oneway":"yes","surface":"asphalt"}},{"type":"Feature","geometry":{"type":"LineString","coordinates":[[24.8830902,44.8605309],[24.8830361,44.8607416],[24.8830234,44.860791],[24.8829725,44.8609651]]},"properties":{"highway":"secondary","lanes":"4","maxspeed":"RO:urban","maxweight":"3.5","name":"Strada Gheorghe Șincai","smoothness":"excellent","surface":"asphalt"}},{"type":"Feature","geometry":{"type":"LineString","coordinates":[[24.8212314,44.8887943],[24.8211802,44.8884911],[24.8211629,44.8883656],[24.8211495,44.8882284],[24.8211608,44.8881071],[24.8211938,44.8880042]]},"properties":{"hgv":"no","highway":"residential","lanes":"1","lit":"yes","maxspeed":"50","maxspeed:type":"RO:urban","name":"Strada Rotărești DN","oneway":"no","sidewalk":"no","smoothness":"good","source":"survey","surface":"asphalt","surface_survey":"2024FEB_"}}]}